{"akaartlocatie":[{"id":1,"naam":"Museum Plantin-Moretus \/ Prentenkabinet","category":"musea","straat":"Vrijdagmarkt","huisnummer":"22-23","postcode":2000,"district":"Antwerpen","tel":"03 221 14 50","openingsuren":"di-zo 10-17","sluitingsdagen":""},{"id":2,"naam":"Museum Mayer van den Bergh","category":"musea","straat":"Lange Gasthuisstraat","huisnummer":19,"postcode":2000,"district":"Antwerpen","tel":"03 232 42 37","openingsuren":"di-zo 10-17","sluitingsdagen":""},{"id":3,"naam":"AMVC-Letterenhuis","category":"musea","straat":"Minderbroedersstraat","huisnummer":22,"postcode":2000,"district":"Antwerpen","tel":"03 222 93 20","openingsuren":"di-zo 10-17","sluitingsdagen":""},{"id":4,"naam":"Rubenshuis","category":"musea","straat":"Wapper","huisnummer":"9-11","postcode":2000,"district":"Antwerpen","tel":"03 201 15 55","openingsuren":"di-zo 10-17","sluitingsdagen":""},{"id":5,"naam":"Museum Vleeshuis","category":"musea","straat":"Vleeshouwersstraat","huisnummer":38,"postcode":2000,"district":"Antwerpen","tel":"03 292 61 00","openingsuren":"di-zo 10-17","sluitingsdagen":""},{"id":6,"naam":"Erfgoedbibliotheek Hendrik Conscience","category":"musea","straat":"Korte Nieuwstraat","huisnummer":"","postcode":2000,"district":"Antwerpen","tel":"03 338 87 31","openingsuren":"15 sep -15 jun: ma, di en do 9-18; wo 9-20; vr 9-17; za 9-13 ||| 16 jun - 14 sep: ma-vr 9-17","sluitingsdagen":""},{"id":7,"naam":"MAS","category":"musea","straat":"Hanzestedenplaats","huisnummer":1,"postcode":2000,"district":"Antwerpen","tel":"03 338 44 00","openingsuren":"","sluitingsdagen":""},{"id":8,"naam":"MoMu","category":"musea","straat":"Nationalestraat","huisnummer":28,"postcode":2000,"district":"Antwerpen","tel":"03 470 27 70","openingsuren":"","sluitingsdagen":""},{"id":9,"naam":"co Sint-Andries","category":"cultuurcentra","straat":"Sint-Andriesplaats","huisnummer":24,"postcode":2000,"district":"Antwerpen","tel":"03\u00a0260 80 50","openingsuren":"di-vr 12-16","sluitingsdagen":""},{"id":10,"naam":"AMUZ","category":"cultuurcentra","straat":"Kammenstraat","huisnummer":81,"postcode":2000,"district":"Antwerpen","tel":"03 292 36 80","openingsuren":"","sluitingsdagen":""},{"id":11,"naam":"Bibliotheek Andries","category":"bibliotheken","straat":"Sint-Andriesplaats","huisnummer":22,"postcode":2000,"district":"Antwerpen","tel":"0800 992 93","openingsuren":"wo 10-18; do 14-18; ma, di, vr en za (op afspraak)","sluitingsdagen":""},{"id":12,"naam":"het stadsmagazijn","category":"ontmoetingscentra","straat":"keistraat","huisnummer":"5-7","postcode":2000,"district":"Antwerpen","tel":"03 292 63 80","openingsuren":"di-vr 11-23; za 14-18","sluitingsdagen":""},{"id":13,"naam":"stadswinkel","category":"Geen","straat":"Grote Markt","huisnummer":11,"postcode":2000,"district":"Antwerpen","tel":"","openingsuren":"di-za 11-17.30","sluitingsdagen":""},{"id":14,"naam":"Olympisch Zwembad Wezenberg","category":"Zwembaden & Sport","straat":"Desguinlei","huisnummer":"17-19","postcode":2018,"district":"Antwerpen","tel":"03 259 23 11","openingsuren":"ma-vr 7-21.30; vr 20-21 (sfeerzwemmen); za-zo 8-13","sluitingsdagen":""},{"id":15,"naam":"Bibliotheek Brederode","category":"bibliotheken","straat":"Brederodestraat","huisnummer":119,"postcode":2018,"district":"Antwerpen","tel":"0800 992 93","openingsuren":"di en do 10-18; wo 10-20; ma, vr en za (op afspraak)","sluitingsdagen":""},{"id":16,"naam":"ZOO Antwerpen","category":"geen","straat":"Koningin Astridplein","huisnummer":26,"postcode":2018,"district":"Antwerpen","tel":"","openingsuren":"","sluitingsdagen":""},{"id":17,"naam":"CC de Schelde","category":"cultuurcentra","straat":"De Keyserhoeve","huisnummer":66,"postcode":2040,"district":"Zandvliet","tel":"03\u00a0297 25 86\u00a0","openingsuren":"di-vr 9-16","sluitingsdagen":""},{"id":18,"naam":"Bibliotheek Viswater","category":"bibliotheken","straat":"Tongerlostraat","huisnummer":2,"postcode":2040,"district":"Berendrecht","tel":"0800 992 93","openingsuren":"di en do 10-18; wo 10-20; ma, vr en za (op afspraak); 2e en 4e za van maand 10-14","sluitingsdagen":""},{"id":20,"naam":"Bibliotheek Elsschot","category":"bibliotheken","straat":"Willem Elsschotstraat","huisnummer":5,"postcode":2050,"district":"Antwerpen","tel":"0800 992 93","openingsuren":"di en do 10-18; wo 10-20; ma, vr en za (op afspraak)","sluitingsdagen":""},{"id":21,"naam":"Top Hat","category":"ontmoetingscentra","straat":"Dwarslaan","huisnummer":9,"postcode":2050,"district":"Antwerpen","tel":"03 250 11 00","openingsuren":"ma-vr 9-16","sluitingsdagen":""},{"id":22,"naam":"Zwembad Veldstraat","category":"Zwembaden & Sport","straat":"Veldstraat","huisnummer":83,"postcode":2060,"district":"Antwerpen","tel":"03 292 55 55","openingsuren":"","sluitingsdagen":""},{"id":23,"naam":"Bibliotheek Permeke","category":"bibliotheken","straat":"De Coninckplein","huisnummer":26,"postcode":2060,"district":"Antwerpen","tel":"0800 992 93","openingsuren":"ma-do 10-20; vr en za 10-17; zo 10-14; jul - aug ma 10-17","sluitingsdagen":""},{"id":24,"naam":"Atlas","category":"ontmoetingscentra","straat":"carnotstraat","huisnummer":110,"postcode":2060,"district":"antwerpen","tel":"03 338 70 11","openingsuren":"ma-vr 9-17; di 9-19.30","sluitingsdagen":""},{"id":25,"naam":"het oude badhuis","category":"ontmoetingscentra","straat":"stuivenbergplein","huisnummer":38,"postcode":2060,"district":"Antwerpen","tel":"03 292 60 19","openingsuren":"ma-do 10-23; vr-za 10-3","sluitingsdagen":""},{"id":26,"naam":"Zwembad Arena","category":"Zwembaden & Sport","straat":"Gabri\u00ebl Vervoortstraat","huisnummer":8,"postcode":2100,"district":"Deurne","tel":"03 293 24 60 ","openingsuren":"ma-vr 8.30-21.30; wo 14-16 (speelzwemmen); za-zo 8.30-18; zo 14-16 (speelzwemmen)","sluitingsdagen":""},{"id":27,"naam":"CC Deurne","category":"cultuurcentra","straat":"Frans Messingstraat","huisnummer":36,"postcode":2100,"district":"Deurne","tel":"03 360 85 50","openingsuren":"ma-vr 9-16","sluitingsdagen":""},{"id":28,"naam":"CC Deurne RIX","category":"cultuurcentra","straat":"de Gryspeerstraat","huisnummer":86,"postcode":2100,"district":"Deurne","tel":"03 360 85 50","openingsuren":"","sluitingsdagen":""},{"id":29,"naam":"Bibliotheek Arena","category":"bibliotheken","straat":"Arenaplein","huisnummer":62,"postcode":2100,"district":"Deurne","tel":"0800 992 93","openingsuren":"ma 9-12; di 10-18; wo 10-20; do 10-18; 3e za van maand 10-17; vr en za (op afspraak)","sluitingsdagen":""},{"id":30,"naam":"Bibliotheek Couwelaar","category":"bibliotheken","straat":"Te Couwelaarlei","huisnummer":120,"postcode":2100,"district":"Deurne","tel":"0800 992 93","openingsuren":"di-do 10-20; vr en za 10-17; zo en ma (op afspraak)","sluitingsdagen":""},{"id":31,"naam":"Deurne zuid Den Tip","category":"jeugddiensten","straat":"Van Den Hautelei","huisnummer":79,"postcode":2100,"district":"Deurne","tel":"","openingsuren":"","sluitingsdagen":""},{"id":32,"naam":"Zwembad Plantin Moretus","category":"Zwembaden & Sport","straat":"Plantin en Moretuslei","huisnummer":343,"postcode":2140,"district":"Borgerhout","tel":"03 270 75 20","openingsuren":"ma 12-13.30 (andersvaliden) en 16.30-18 (senioren); di 12-13.30; di 16-17 (dames); wo 12-13.30 (senioren) en 13.30-21; do 12-13.30; vr 12-13.30 (senioren) en 16-17.30 (andersvaliden); za 8.30-18; zo 8.30-13 ","sluitingsdagen":""},{"id":33,"naam":"CC Borgerhout\/De Roma","category":"cultuurcentra","straat":"Turnhoutsebaan","huisnummer":327,"postcode":2140,"district":"Borgerhout","tel":"03 292 97 50","openingsuren":"ma-vr 9.30-12.30 en 13.30-17","sluitingsdagen":""},{"id":34,"naam":"Bibliotheek Vredegerecht","category":"bibliotheken","straat":"Turnhoutsebaan","huisnummer":92,"postcode":2140,"district":"Borgerhout","tel":"0800 992 93","openingsuren":"di en do 10-18; wo 10-20; ma, vr en za (op afspraak)","sluitingsdagen":""},{"id":35,"naam":"Ecohuis","category":"Geen","straat":"Turnhoutsebaan","huisnummer":139,"postcode":2140,"district":"borgerhout","tel":"03 217 08 11","openingsuren":"","sluitingsdagen":""},{"id":36,"naam":"Zwembad Groenenhoek","category":"Zwembaden & Sport","straat":"Orpheusplein","huisnummer":1,"postcode":2600,"district":"Berchem","tel":"03 292 91 80","openingsuren":"ma, wo en vr 12-13.30; di 12-13.30 (senioren); do 12-13.30 (dames), vr 15-16.30 (andersvaliden), za 13-18","sluitingsdagen":""},{"id":37,"naam":"CC Berchem","category":"cultuurcentra","straat":"Driekoningenstraat","huisnummer":126,"postcode":2600,"district":"Berchem","tel":"03 286 88 20","openingsuren":"di-vr 10-16.30","sluitingsdagen":""},{"id":38,"naam":"Bibliotheek De Poort","category":"bibliotheken","straat":"Willem van Laarstraat","huisnummer":"15-17","postcode":2600,"district":"Berchem","tel":"0800 992 93","openingsuren":"di-do 10-20; vr en za 10-17; zo en ma (op afspraak)","sluitingsdagen":""},{"id":39,"naam":"Bibliotheek Groenenhoek","category":"bibliotheken","straat":"Turkooisstraat","huisnummer":18,"postcode":2600,"district":"Berchem","tel":"0800 992 93","openingsuren":"di en do 10-18; wo 10-20; ma, vr en za (op afspraak)","sluitingsdagen":""},{"id":40,"naam":"CC Luchtbal","category":"cultuurcentra","straat":"Columbiastraat","huisnummer":110,"postcode":2030,"district":"Antwerpen","tel":"03 543 90 30","openingsuren":"di-vr 9-16","sluitingsdagen":""},{"id":41,"naam":"CC Luchtbal","category":"cultuurcentra","straat":"Columbiastraat","huisnummer":8,"postcode":2030,"district":"Antwerpen","tel":"03 543 90 30","openingsuren":"di-vr 9-16","sluitingsdagen":""},{"id":42,"naam":"Bibliotheek Luchtbal","category":"bibliotheken","straat":"Columbiastraat","huisnummer":110,"postcode":2030,"district":"Antwerpen","tel":"0800 992 93","openingsuren":"di en do 10-18; wo 10-20; ma, vr en za (op afspraak)","sluitingsdagen":""},{"id":43,"naam":"Zwembad Park van Merksem","category":"Zwembaden & Sport","straat":"Van Heybeeckstraat","huisnummer":9,"postcode":2170,"district":"Merksem","tel":"03 645 44 22","openingsuren":"ma-vr 8.30-21.30; za-zo 8.30-18; di en do 20-21 (sfeerzwemmen); wo en za 14-16 (speelzwemmen)","sluitingsdagen":""},{"id":44,"naam":"CC Merksem","category":"cultuurcentra","straat":"Bredabaan","huisnummer":561,"postcode":2170,"district":"Merksem","tel":"03 641 62 10","openingsuren":"ma-vr 10-17","sluitingsdagen":""},{"id":45,"naam":"CC Merksem","category":"cultuurcentra","straat":"Nieuwdreef","huisnummer":135,"postcode":2170,"district":"Merksem","tel":"03 641 62 10","openingsuren":"ma-vr 10-17","sluitingsdagen":""},{"id":46,"naam":"Bibliotheek Maantje","category":"bibliotheken","straat":"Maantjessteenweg","huisnummer":23,"postcode":2170,"district":"Merksem","tel":"0800 992 93","openingsuren":"di en do 10-18; wo 10-20; ma, vr en za (op afspraak)","sluitingsdagen":""},{"id":47,"naam":"Bibliotheek Park","category":"bibliotheken","straat":"Van Heybeeckstraat","huisnummer":"28A","postcode":2170,"district":"Merksem","tel":"0800 992 93","openingsuren":"di-do 10-20; vr en za 10-17; zo en ma (op afspraak)","sluitingsdagen":""},{"id":48,"naam":"Merksemdok","category":"ontmoetingscentra","straat":"Emiel Lemineurstraat","huisnummer":"72-74","postcode":2170,"district":"Merksem","tel":"03 292 95 80","openingsuren":"ma-do 18-23; vr 16-23; za vanaf \u00e9\u00e9n uur voor de activiteit","sluitingsdagen":""},{"id":49,"naam":"Zwembad De Schinde","category":"Zwembaden & Sport","straat":"Oorderseweg","huisnummer":83,"postcode":2180,"district":"Ekeren","tel":"03 292 65 50 ","openingsuren":"wo 12-18; do 12-13 (senioren); vr 13-18 (dames) en 15.45-16.45 (senioren); za 13-18, zo 8.30-13","sluitingsdagen":""},{"id":50,"naam":"CC Ekeren","category":"cultuurcentra","straat":"kloosterstraat","huisnummer":4,"postcode":2180,"district":"Ekeren","tel":"03 292 67 30","openingsuren":"di-vr 9-16","sluitingsdagen":""},{"id":51,"naam":"Bibliotheek Driehoek","category":"bibliotheken","straat":"Driehoekstraat","huisnummer":43,"postcode":2180,"district":"Ekeren","tel":"0800 992 93","openingsuren":"di-do 10-20; vr en za 10-17; zo en ma (op afspraak)","sluitingsdagen":""},{"id":52,"naam":"Middelheimmuseum","category":"musea","straat":"Middelheimlaan","huisnummer":61,"postcode":2020,"district":"Antwerpen","tel":"03 288 33 60","openingsuren":"di-zo 10-17; apr 10-19; mei 10-20; jun en jul 10-21; aug 10-20; sep 10-19","sluitingsdagen":""},{"id":53,"naam":"co Nova","category":"cultuurcentra","straat":"Schijfstraat","huisnummer":105,"postcode":2020,"district":"Antwerpen","tel":"03 259 04 20","openingsuren":"di-vr 9-17","sluitingsdagen":""},{"id":54,"naam":"Bibliotheek Kielpark","category":"bibliotheken","straat":"Wittestraat","huisnummer":10,"postcode":2020,"district":"Antwerpen","tel":"0800 992 93","openingsuren":"di en do 10-18; wo 10-20; ma, vr en za (op afspraak)","sluitingsdagen":""},{"id":55,"naam":"Zwembad Ieperman","category":"Zwembaden & Sport","straat":"Doornstraat","huisnummer":3,"postcode":2610,"district":"Wilrijk","tel":"03 828 65 69","openingsuren":"ma 8-9 en 12-18; di 12-18; wo 8-9 en 12-21; do 12-18; vr 8-9 en 12-18; za 8.30-13; zo 8.30-13","sluitingsdagen":""},{"id":56,"naam":"CC de Kern","category":"cultuurcentra","straat":"Kern","huisnummer":18,"postcode":2610,"district":"Wilrijk","tel":"03 821 01 20 \u00a0\u00a0\u00a0\u00a0\u00a0\u00a0\u00a0\u00a0\u00a0\u00a0","openingsuren":"di 9-18.30; wo 9-16; do 9-18.30; vr 9-16","sluitingsdagen":""},{"id":57,"naam":"Bibliotheek Bist","category":"bibliotheken","straat":"Bist","huisnummer":"34-35","postcode":2610,"district":"Wilrijk","tel":"0800 992 93","openingsuren":"di-do 10-20; vr en za 10-17; zo en ma (op afspraak)","sluitingsdagen":""},{"id":58,"naam":"Bibliotheek Kaeck","category":"bibliotheken","straat":"Koningin Elisabethstraat","huisnummer":3,"postcode":2610,"district":"Wilrijk","tel":"0800 992 93","openingsuren":"di-do 10-20; vr en za 10-17; zo en ma (op afspraak)","sluitingsdagen":""},{"id":59,"naam":"Zwembad Sorghvliedt","category":"Zwembaden & Sport","straat":"Krijgsbaan","huisnummer":20,"postcode":2660,"district":"Hoboken","tel":"03 827 17 04 ","openingsuren":"ma-vr 8.30-21.30; za-zo 8.30-18","sluitingsdagen":""},{"id":61,"naam":"UiThuis Hoboken","category":"bibliotheken","straat":"Kapelstraat","huisnummer":64,"postcode":2660,"district":"Hoboken","tel":"0800 992 93","openingsuren":"di-do 10-20; vr en za 10-17; zo en ma (op afspraak)","sluitingsdagen":""}]}