{"sorteerstraat":[{"objectid_1":"1","dossier_nummer":"2011220","naam":"DUINSTRAAT","straatnaam":"Geelhandplaats","locatie":"binnenplein","postcode":"2060","district":"Antwerpen","status":"6.  Uitgesteld","reguliere_ophaling":"nee","budgetjaar":"2050","realisatie":"2050","point_lng":"4.430183851000038","point_lat":"51.222920667000039"},{"objectid_1":"2","dossier_nummer":"2011172","naam":"VIS\u00c9STRAAT - 12","straatnaam":"Vis\u00e9straat","locatie":"12","postcode":"2060","district":"Antwerpen","status":"5.  Gevraagd","reguliere_ophaling":"ja","budgetjaar":"2020","realisatie":"2020","point_lng":"4.4246119240000326","point_lat":"51.229028210000081"},{"objectid_1":"3","dossier_nummer":"2011169","naam":"VIS\u00c9STRAAT - 80","straatnaam":"Vis\u00e9straat","locatie":"80","postcode":"2060","district":"Antwerpen","status":"5.  Gevraagd","reguliere_ophaling":"ja","budgetjaar":"2020","realisatie":"2020","point_lng":"4.4291333020000252","point_lat":"51.228083799000046"},{"objectid_1":"4","dossier_nummer":"2011126","naam":"JOS VERHELSTPLEIN","straatnaam":"Jos Verhelstplein","locatie":"1","postcode":"2060","district":"Antwerpen","status":"5.  Gevraagd","reguliere_ophaling":"ja","budgetjaar":"2014","realisatie":"2014","point_lng":"4.4326784490000364","point_lat":"51.227715133000061"},{"objectid_1":"5","dossier_nummer":"2011071","naam":"Handelsstraat - Lange_Stuivenberstraat","straatnaam":"Handelsstraat","locatie":"1","postcode":"2060","district":"Antwerpen","status":"5.  Gevraagd","reguliere_ophaling":"Ja","budgetjaar":"2012","realisatie":"2012","point_lng":"4.4316228140000362","point_lat":"51.224305523000055"},{"objectid_1":"6","dossier_nummer":"2011064","naam":"Helmstraat","straatnaam":"Helmstraat","locatie":"hoek Schapenstraat","postcode":"2140","district":"Borgerhout","status":"5.  Gevraagd","reguliere_ophaling":"Ja","budgetjaar":"2011","realisatie":"2011","point_lng":"4.4359829520000744","point_lat":"51.218035309000072"},{"objectid_1":"7","dossier_nummer":"2011075","naam":"Vincottestraat","straatnaam":"Vincottestraat","locatie":"1 - 11","postcode":"2140","district":"Borgerhout","status":"6.  Uitgesteld","reguliere_ophaling":"Ja","budgetjaar":"2012","realisatie":"2012","point_lng":"4.4374284010000338","point_lat":"51.215618150000068"},{"objectid_1":"8","dossier_nummer":"2011183","naam":"Waterhoenlaan","straatnaam":"Waterhoenlaan","locatie":"6","postcode":"2050","district":"Antwerpen","status":"5.  Gevraagd","reguliere_ophaling":"nee","budgetjaar":"2020","realisatie":"2020","point_lng":"4.3817973020000522","point_lat":"51.22115007900004"},{"objectid_1":"9","dossier_nummer":"2011184","naam":"Victor_De_La_Montagnestraat","straatnaam":"Victor De la Montagnestraat","locatie":"18","postcode":"2050","district":"Antwerpen","status":"5.  Gevraagd","reguliere_ophaling":"nee","budgetjaar":"2020","realisatie":"2020","point_lng":"4.3789034880000486","point_lat":"51.222770771000057"},{"objectid_1":"10","dossier_nummer":"2011079","naam":"IGLO","straatnaam":"Carel Van Manderstraat","locatie":"2","postcode":"2050","district":"Antwerpen","status":"4.  In Onderzoek","reguliere_ophaling":"nee","budgetjaar":"2013","realisatie":"2013","point_lng":"4.3833187790000352","point_lat":"51.224345910000068"},{"objectid_1":"11","dossier_nummer":"2011080","naam":"IGLO","straatnaam":"Ernest Claesstraat 1","locatie":"1","postcode":"2050","district":"Antwerpen","status":"4.  In Onderzoek","reguliere_ophaling":"nee","budgetjaar":"2013","realisatie":"2013","point_lng":"4.381216413000061","point_lat":"51.224193107000076"},{"objectid_1":"12","dossier_nummer":"2011083","naam":"IGLO","straatnaam":"Ernest_Claesstraat_10-16","locatie":"10 - 16","postcode":"2050","district":"Antwerpen","status":"4.  In Onderzoek","reguliere_ophaling":"nee","budgetjaar":"2013","realisatie":"2013","point_lng":"4.3821446570000262","point_lat":"51.225256099000035"},{"objectid_1":"13","dossier_nummer":"2011128","naam":"Charles_De_Costerlaan_7_13","straatnaam":"Charles De Costerlaan","locatie":"7 - 13","postcode":"2050","district":"Antwerpen","status":"5.  Gevraagd","reguliere_ophaling":"nee","budgetjaar":"2014","realisatie":"2014","point_lng":"4.3837693970000373","point_lat":"51.226762152000049"},{"objectid_1":"14","dossier_nummer":"2011129","naam":"Gloriantlaan_54_56","straatnaam":"Gloriantlaan","locatie":"54-56","postcode":"2050","district":"Antwerpen","status":"5.  Gevraagd","reguliere_ophaling":"nee","budgetjaar":"2014","realisatie":"2014","point_lng":"4.3851936030000616","point_lat":"51.226369691000059"},{"objectid_1":"15","dossier_nummer":"2011181","naam":"Reinaertlaan","straatnaam":"Reinaertlaan","locatie":"8","postcode":"2050","district":"Antwerpen","status":"5.  Gevraagd","reguliere_ophaling":"nee","budgetjaar":"2020","realisatie":"2020","point_lng":"4.3836449100000436","point_lat":"51.228080152000075"},{"objectid_1":"16","dossier_nummer":"2011221","naam":"Julius_Vuylstekelaan","straatnaam":"Julius Vuylstekelaan","locatie":"6 - 12","postcode":"2050","district":"Antwerpen","status":"6.  Uitgesteld","reguliere_ophaling":"nee","budgetjaar":"2050","realisatie":"2050","point_lng":"4.3802215300000285","point_lat":"51.228692491000061"},{"objectid_1":"17","dossier_nummer":"2011158","naam":"Haantjeslei","straatnaam":"Haantjeslei","locatie":"159","postcode":"2018","district":"Antwerpen","status":"4.  In Onderzoek","reguliere_ophaling":"nee","budgetjaar":"0","realisatie":"2012","point_lng":"4.4031291470000724","point_lat":"51.201760504000049"},{"objectid_1":"18","dossier_nummer":"2011068","naam":"Lange_Lozanastraat_Vinkenstraat","straatnaam":"Lange Lozanastraat","locatie":"hoek Vinkenstraat","postcode":"2018","district":"Antwerpen","status":"5.  Gevraagd","reguliere_ophaling":"ja","budgetjaar":"2012","realisatie":"2012","point_lng":"4.4046354430000747","point_lat":"51.204560171000026"},{"objectid_1":"19","dossier_nummer":"2011252","naam":"BREDERODE","straatnaam":"Balansstraat","locatie":"71","postcode":"2018","district":"Antwerpen","status":"6.  Uitgesteld","reguliere_ophaling":"ja","budgetjaar":"2012","realisatie":"2012","point_lng":"4.3935660350000489","point_lat":"51.202036814000053"},{"objectid_1":"20","dossier_nummer":"2011273","naam":"STUDENTENBUURT","straatnaam":"Varkensmarkt","locatie":"tegenover 4","postcode":"2000","district":"Antwerpen","status":"6.  Uitgesteld","reguliere_ophaling":"ja","budgetjaar":"0","realisatie":"0","point_lng":"4.4076208520000364","point_lat":"51.225000641000065"},{"objectid_1":"21","dossier_nummer":"2011121","naam":"Dambruggestraat_157","straatnaam":"Dambruggestraat","locatie":"157","postcode":"2060","district":"Antwerpen","status":"4.  In Onderzoek","reguliere_ophaling":"ja","budgetjaar":"2014","realisatie":"2014","point_lng":"4.4221849990000237","point_lat":"51.227159937000067"},{"objectid_1":"22","dossier_nummer":"2011099","naam":"Spoorstraat","straatnaam":"Spoorstraat","locatie":"5A-D","postcode":"2060","district":"Antwerpen","status":"6.  Uitgesteld","reguliere_ophaling":"ja","budgetjaar":"2014","realisatie":"2014","point_lng":"4.4206257610000534","point_lat":"51.222672122000063"},{"objectid_1":"23","dossier_nummer":"2011065","naam":"Van_Maerlantstraat","straatnaam":"Van Maerlantstraat","locatie":"pleintje Osystraat","postcode":"2060","district":"Antwerpen","status":"5.  Gevraagd","reguliere_ophaling":"Ja","budgetjaar":"2012","realisatie":"2012","point_lng":"4.4183140760000583","point_lat":"51.22211515500004"},{"objectid_1":"24","dossier_nummer":"2011101","naam":"Emiel_Vloorstraat_6_8","straatnaam":"Emiel Vloorstraat","locatie":"6 - 8","postcode":"2020","district":"Antwerpen","status":"5.  Gevraagd","reguliere_ophaling":"Ja","budgetjaar":"2014","realisatie":"2014","point_lng":"4.3768167310000763","point_lat":"51.193357128000059"},{"objectid_1":"25","dossier_nummer":"2011163","naam":"Piet_Verhaertstraat","straatnaam":"Piet Verhaertstraat","locatie":"19","postcode":"2020","district":"Antwerpen","status":"5.  Gevraagd","reguliere_ophaling":"ja","budgetjaar":"2020","realisatie":"2020","point_lng":"4.3781829320000725","point_lat":"51.192439811000042"},{"objectid_1":"26","dossier_nummer":"2011102","naam":"Emiel Vloorstraat_11","straatnaam":"Emiel Vloorstraat","locatie":"11","postcode":"2020","district":"Antwerpen","status":"5.  Gevraagd","reguliere_ophaling":"Ja","budgetjaar":"2014","realisatie":"2014","point_lng":"4.3733217530000275","point_lat":"51.192627108000067"},{"objectid_1":"27","dossier_nummer":"2011272","naam":"Jan Davidlei","straatnaam":"Max Roosestraat","locatie":"31-33","postcode":"2020","district":"Antwerpen","status":"5.  Gevraagd","reguliere_ophaling":"ja","budgetjaar":"","realisatie":"","point_lng":"4.3744270770000639","point_lat":"51.188161581000031"},{"objectid_1":"28","dossier_nummer":"2011107","naam":"Boomsesteenweg","straatnaam":"Boomsesteenweg","locatie":"249","postcode":"2020","district":"Antwerpen","status":"5.  Gevraagd","reguliere_ophaling":"Ja","budgetjaar":"2014","realisatie":"2014","point_lng":"4.3866164940000658","point_lat":"51.190835651000043"},{"objectid_1":"29","dossier_nummer":"2011103","naam":"Jan De Voslei","straatnaam":"Willem Eekelerstraat","locatie":"51","postcode":"2020","district":"Antwerpen","status":"3.  In Wacht","reguliere_ophaling":"ja","budgetjaar":"2014","realisatie":"2014","point_lng":"4.388939821000065","point_lat":"51.191851610000072"},{"objectid_1":"30","dossier_nummer":"2011105","naam":"Jan De Voslei","straatnaam":"Jan De Voslei","locatie":"12-30","postcode":"2020","district":"Antwerpen","status":"3.  In Wacht","reguliere_ophaling":"ja","budgetjaar":"2014","realisatie":"2014","point_lng":"4.3888261470000316","point_lat":"51.188778033000062"},{"objectid_1":"31","dossier_nummer":"2011104","naam":"Jan De Voslei","straatnaam":"Jan De Voslei","locatie":"34-36","postcode":"2020","district":"Antwerpen","status":"6.  Uitgesteld","reguliere_ophaling":"ja","budgetjaar":"2014","realisatie":"2014","point_lng":"4.388815945000033","point_lat":"51.187834272000032"},{"objectid_1":"32","dossier_nummer":"2011136","naam":"FRUITHOFLAAN - 112","straatnaam":"Fruithoflaan","locatie":"112","postcode":"2600","district":"Berchem","status":"4.  In Onderzoek","reguliere_ophaling":"Ja","budgetjaar":"2014","realisatie":"2014","point_lng":"4.4408099280000215","point_lat":"51.184714862000078"},{"objectid_1":"33","dossier_nummer":"2011134","naam":"FRUITHOFLAAN - 70","straatnaam":"Fruithoflaan","locatie":"70","postcode":"2600","district":"Berchem","status":"4.  In Onderzoek","reguliere_ophaling":"Ja","budgetjaar":"2014","realisatie":"2014","point_lng":"4.436398160000067","point_lat":"51.182081975000074"},{"objectid_1":"34","dossier_nummer":"2011138","naam":"Corneel_Jaspersstraat","straatnaam":"Corneel Jaspersstraat","locatie":"hoek Corneel Van Reethstraat","postcode":"2600","district":"Berchem","status":"6.  Uitgesteld","reguliere_ophaling":"ja","budgetjaar":"2014","realisatie":"2014","point_lng":"4.4378857310000512","point_lat":"51.198159954000062"},{"objectid_1":"35","dossier_nummer":"2011197","naam":"Tramplein","straatnaam":"Transvaalstraat","locatie":"","postcode":"2600","district":"Berchem","status":"4.  In Onderzoek","reguliere_ophaling":"ja","budgetjaar":"2020","realisatie":"2020","point_lng":"4.4325966430000676","point_lat":"51.205888212000048"},{"objectid_1":"36","dossier_nummer":"2011113","naam":"Groenendaallaan_310_348","straatnaam":"Groenendaallaan","locatie":"310-348","postcode":"2030","district":"Antwerpen","status":"6.  Uitgesteld","reguliere_ophaling":"nee","budgetjaar":"2014","realisatie":"2014","point_lng":"4.4216748230000462","point_lat":"51.245973394000032"},{"objectid_1":"37","dossier_nummer":"2011112","naam":"Hondurasstraat","straatnaam":"Hondurasstraat","locatie":"1 - 3","postcode":"2030","district":"Antwerpen","status":"6.  Uitgesteld","reguliere_ophaling":"nee","budgetjaar":"2014","realisatie":"2014","point_lng":"4.4222026360000655","point_lat":"51.25011905100007"},{"objectid_1":"38","dossier_nummer":"2011110","naam":"Venezuelastraat_1","straatnaam":"Venezuelastraat","locatie":"1","postcode":"2030","district":"Antwerpen","status":"6.  Uitgesteld","reguliere_ophaling":"nee","budgetjaar":"2014","realisatie":"2014","point_lng":"4.4215336040000466","point_lat":"51.253921363000075"},{"objectid_1":"39","dossier_nummer":"2011078","naam":"LUCHTBAL","straatnaam":"Cardiffstraat","locatie":"2","postcode":"2030","district":"Antwerpen","status":"6.  Uitgesteld","reguliere_ophaling":"nee","budgetjaar":"2013","realisatie":"2013","point_lng":"4.4228363200000445","point_lat":"51.254807836000055"},{"objectid_1":"40","dossier_nummer":"2011164","naam":"LUCHTBAL","straatnaam":"Philadelphiastraat","locatie":"10 - 20","postcode":"2030","district":"Antwerpen","status":"6.  Uitgesteld","reguliere_ophaling":"nee","budgetjaar":"2020","realisatie":"2020","point_lng":"4.4245229360000735","point_lat":"51.259355668000069"},{"objectid_1":"41","dossier_nummer":"2011165","naam":"LUCHTBAL","straatnaam":"Bostonstraat","locatie":"naast nr 13-15","postcode":"2030","district":"Antwerpen","status":"6.  Uitgesteld","reguliere_ophaling":"nee","budgetjaar":"2020","realisatie":"2020","point_lng":"4.4223560600000269","point_lat":"51.259952266000028"},{"objectid_1":"42","dossier_nummer":"2011156","naam":"Rucaplein","straatnaam":"Rucaplein","locatie":"over nr 501","postcode":"2610","district":"Wilrijk","status":"5.  Gevraagd","reguliere_ophaling":"Ja","budgetjaar":"2014","realisatie":"2014","point_lng":"4.4212645410000277","point_lat":"51.178633795000053"},{"objectid_1":"43","dossier_nummer":"2011200","naam":"Bokspane","straatnaam":"Bokspane","locatie":"naast nr 30","postcode":"2040","district":"Bezali","status":"5.  Gevraagd","reguliere_ophaling":"ja","budgetjaar":"2020","realisatie":"2020","point_lng":"4.3098649450000721","point_lat":"51.345841901000028"},{"objectid_1":"44","dossier_nummer":"2011150","naam":"Rector_Vermeylenlaan","straatnaam":"Rector Vermeylenlaan","locatie":"26-28","postcode":"2660","district":"Hoboken","status":"4.  In Onderzoek","reguliere_ophaling":"Ja","budgetjaar":"2014","realisatie":"2014","point_lng":"4.3670126760000585","point_lat":"51.171205691000068"},{"objectid_1":"45","dossier_nummer":"2011157","naam":"NEERLAND","straatnaam":"Krijgslaan -> Vuurkruisenlaan","locatie":"over nr 80","postcode":"2610","district":"Wilrijk","status":"4.  In Onderzoek","reguliere_ophaling":"nee","budgetjaar":"2014","realisatie":"2014","point_lng":"4.39354271600007","point_lat":"51.162517669000067"},{"objectid_1":"46","dossier_nummer":"2011096","naam":"BIST","straatnaam":"Bist","locatie":"48-151","postcode":"2610","district":"Wilrijk","status":"6.  Uitgesteld","reguliere_ophaling":"Ja","budgetjaar":"0","realisatie":"","point_lng":"4.394138918000067","point_lat":"51.170217287000071"},{"objectid_1":"47","dossier_nummer":"2011155","naam":"Kruishofstraat","straatnaam":"Kruishofstraat","locatie":"144","postcode":"2020","district":"Antwerpen","status":"5.  Gevraagd","reguliere_ophaling":"ja","budgetjaar":"2014","realisatie":"2014","point_lng":"4.392266677000066","point_lat":"51.182119452000052"},{"objectid_1":"48","dossier_nummer":"2011127","naam":"Van der Sweepstraat","straatnaam":"Van der Sweepstraat","locatie":"naast nr 12","postcode":"2000","district":"Antwerpen","status":"5.  Gevraagd","reguliere_ophaling":"ja","budgetjaar":"2014","realisatie":"2014","point_lng":"4.3855029930000455","point_lat":"51.20677162800007"},{"objectid_1":"49","dossier_nummer":"2011271","naam":"Collegelaan","straatnaam":"Collegelaan","locatie":"36","postcode":"2140","district":"Borgerhout","status":"5.  Gevraagd","reguliere_ophaling":"ja","budgetjaar":"","realisatie":"","point_lng":"4.4582971290000728","point_lat":"51.213770202000035"},{"objectid_1":"50","dossier_nummer":"2011148","naam":"Wouter Haecklaan_4","straatnaam":"Wouter Haecklaan","locatie":"over nr 4","postcode":"2100","district":"Deurne","status":"5.  Gevraagd","reguliere_ophaling":"Ja","budgetjaar":"2014","realisatie":"2014","point_lng":"4.4595586100000446","point_lat":"51.213011357000028"},{"objectid_1":"51","dossier_nummer":"2011145","naam":"Gabri\u00ebl Vervoortstraat_27","straatnaam":"Gabri\u00ebl Vervoortstraat","locatie":"over nr 27","postcode":"2100","district":"Deurne","status":"5.  Gevraagd","reguliere_ophaling":"Ja","budgetjaar":"2014","realisatie":"2014","point_lng":"4.4609724350000306","point_lat":"51.207502636000072"},{"objectid_1":"52","dossier_nummer":"2011088","naam":"Plankenbergstraat","straatnaam":"Plankenbergstraat","locatie":"52","postcode":"2100","district":"Deurne","status":"6.  Uitgesteld","reguliere_ophaling":"Ja","budgetjaar":"2013","realisatie":"2013","point_lng":"4.4647561520000636","point_lat":"51.221299439000063"},{"objectid_1":"53","dossier_nummer":"2011202","naam":"Te Couwelaerlei","straatnaam":"Te Couwelaerlei","locatie":"120","postcode":"2100","district":"Deurne","status":"5.  Gevraagd","reguliere_ophaling":"Ja","budgetjaar":"2020","realisatie":"2020","point_lng":"4.4583911880000642","point_lat":"51.222926200000074"},{"objectid_1":"54","dossier_nummer":"2011140","naam":"Gallifortlei","straatnaam":"Gallifortlei","locatie":"over nr 237","postcode":"2100","district":"Deurne","status":"5.  Gevraagd","reguliere_ophaling":"Ja","budgetjaar":"2014","realisatie":"2014","point_lng":"4.4659691550000389","point_lat":"51.22523801300008"},{"objectid_1":"55","dossier_nummer":"2011139","naam":"Baron Leroystraat","straatnaam":"Baron Leroystraat","locatie":"over nrs 91-93-95","postcode":"2100","district":"Deurne","status":"5.  Gevraagd","reguliere_ophaling":"Ja","budgetjaar":"2014","realisatie":"2014","point_lng":"4.4728177090000258","point_lat":"51.225789943000052"},{"objectid_1":"56","dossier_nummer":"2011203","naam":"Wim Saerensplein","straatnaam":"Wim Saerensplein","locatie":"over nr 25","postcode":"2100","district":"Deurne","status":"4.  In Onderzoek","reguliere_ophaling":"Ja","budgetjaar":"2020","realisatie":"2012","point_lng":"4.47860875300006","point_lat":"51.228826577000063"},{"objectid_1":"57","dossier_nummer":"2011204","naam":"De Bisthovenlei","straatnaam":"De Bisthovenlei","locatie":"over nrs 82-84","postcode":"2100","district":"Deurne","status":"5.  Gevraagd","reguliere_ophaling":"Ja","budgetjaar":"2020","realisatie":"2020","point_lng":"4.4567852090000315","point_lat":"51.227002317000029"},{"objectid_1":"58","dossier_nummer":"2011143","naam":"Ten Eeckhovenlei","straatnaam":"Ten Eeckhovelei","locatie":"over nr 104","postcode":"2100","district":"Deurne","status":"5.  Gevraagd","reguliere_ophaling":"Ja","budgetjaar":"2014","realisatie":"2014","point_lng":"4.4495968170000424","point_lat":"51.226733076000073"},{"objectid_1":"59","dossier_nummer":"2011093","naam":"Van Deynseplein","straatnaam":"Van Deynsestraat","locatie":"over nr 123","postcode":"2100","district":"Deurne","status":"6.  Uitgesteld","reguliere_ophaling":"Ja","budgetjaar":"2013","realisatie":"2013","point_lng":"4.4509522050000214","point_lat":"51.230030554000052"},{"objectid_1":"60","dossier_nummer":"2011090","naam":"KRONENBURG","straatnaam":"Van Cortbeemdelei","locatie":"pleintje met Van Duyststraat","postcode":"2100","district":"Deurne","status":"6.  Uitgesteld","reguliere_ophaling":"Ja","budgetjaar":"2013","realisatie":"2013","point_lng":"4.4445929420000425","point_lat":"51.231305090000035"},{"objectid_1":"61","dossier_nummer":"2011089","naam":"Tweemontstraat","straatnaam":"Tweemontstraat","locatie":"72","postcode":"2100","district":"Deurne","status":"6.  Uitgesteld","reguliere_ophaling":"Ja","budgetjaar":"2013","realisatie":"2013","point_lng":"4.4528786950000381","point_lat":"51.234206494000034"},{"objectid_1":"62","dossier_nummer":"2011091","naam":"KRONENBURG","straatnaam":"Van Cortbeemdelei","locatie":"pleintje met Van Amstelstraat","postcode":"2100","district":"Deurne","status":"6.  Uitgesteld","reguliere_ophaling":"Ja","budgetjaar":"2013","realisatie":"2013","point_lng":"4.448092177000035","point_lat":"51.233383028000048"},{"objectid_1":"63","dossier_nummer":"2011216","naam":"Distelhoek","straatnaam":"Distelhoek","locatie":"achter Lambrechtshoekenlaan 209-211","postcode":"2170","district":"Merksem","status":"6.  Uitgesteld","reguliere_ophaling":"Ja","budgetjaar":"2020","realisatie":"2020","point_lng":"4.4331595270000435","point_lat":"51.25128512200007"},{"objectid_1":"64","dossier_nummer":"2011153","naam":"Lange Bremstraat","straatnaam":"Lange Bremstraat","locatie":"over nr 92","postcode":"2170","district":"Merksem","status":"6.  Uitgesteld","reguliere_ophaling":"Ja","budgetjaar":"2014","realisatie":"2014","point_lng":"4.4528077640000561","point_lat":"51.258355846000029"},{"objectid_1":"65","dossier_nummer":"2011218","naam":"Leiebos","straatnaam":"Leiebos","locatie":"naast Melgesdreef 42","postcode":"2170","district":"Merksem","status":"6.  Uitgesteld","reguliere_ophaling":"Ja","budgetjaar":"2020","realisatie":"2020","point_lng":"4.4589497500000448","point_lat":"51.256044354000039"},{"objectid_1":"66","dossier_nummer":"2011214","naam":"Borrewaterstraat","straatnaam":"Borrewaterstraat","locatie":"hoek Noordkaai","postcode":"2170","district":"Merksem","status":"6.  Uitgesteld","reguliere_ophaling":"Ja","budgetjaar":"2020","realisatie":"2020","point_lng":"4.4448370440000531","point_lat":"51.240144063000059"},{"objectid_1":"67","dossier_nummer":"2011217","naam":"Frans De L'arbrelaan","straatnaam":"Frans De L'arbrelaan","locatie":"64","postcode":"2170","district":"Merksem","status":"6.  Uitgesteld","reguliere_ophaling":"Ja","budgetjaar":"2020","realisatie":"2020","point_lng":"4.4402682820000337","point_lat":"51.240081488000044"},{"objectid_1":"68","dossier_nummer":"2011170","naam":"HALENSTRAAT","straatnaam":"Halenstraat","locatie":"over nr 81","postcode":"2060","district":"Antwerpen","status":"5.  Gevraagd","reguliere_ophaling":"ja","budgetjaar":"2020","realisatie":"2020","point_lng":"4.4312526760000424","point_lat":"51.227911378000044"},{"objectid_1":"69","dossier_nummer":"2011236","naam":"Cecilianenstraat","straatnaam":"Van Couwervenstraat","locatie":"46","postcode":"2040","district":"Bezali","status":"6.  Uitgesteld","reguliere_ophaling":"ja","budgetjaar":"2050","realisatie":"2050","point_lng":"4.325898852000023","point_lat":"51.343071509000026"},{"objectid_1":"70","dossier_nummer":"2011237","naam":"Kruisbos","straatnaam":"Kruisbos","locatie":"rechtover 8","postcode":"2040","district":"Bezali","status":"6.  Uitgesteld","reguliere_ophaling":"ja","budgetjaar":"2050","realisatie":"2050","point_lng":"4.3261099570000283","point_lat":"51.346058393000078"},{"objectid_1":"71","dossier_nummer":"2011238","naam":"Hagelberg","straatnaam":"Hagelberg","locatie":"rechtover 9","postcode":"2040","district":"Bezali","status":"6.  Uitgesteld","reguliere_ophaling":"ja","budgetjaar":"2050","realisatie":"2050","point_lng":"4.3280794710000237","point_lat":"51.345793062000041"},{"objectid_1":"72","dossier_nummer":"2011239","naam":"Franciscanenstraat","straatnaam":"Franciscanenstraat","locatie":"rechtover 15","postcode":"2040","district":"Bezali","status":"6.  Uitgesteld","reguliere_ophaling":"ja","budgetjaar":"2050","realisatie":"2050","point_lng":"4.3235012400000414","point_lat":"51.344413078000059"},{"objectid_1":"73","dossier_nummer":"2011240","naam":"Dominicanenstraat","straatnaam":"Dominicanenstraat","locatie":"15","postcode":"2040","district":"Bezali","status":"6.  Uitgesteld","reguliere_ophaling":"ja","budgetjaar":"2050","realisatie":"2050","point_lng":"4.3248827080000751","point_lat":"51.345337335000067"},{"objectid_1":"74","dossier_nummer":"2011173","naam":"REGATTA","straatnaam":"","locatie":"verlengde  Emile Dancolaan (ongeveer 100 meter west)","postcode":"2050","district":"Antwerpen","status":"4.  In Onderzoek","reguliere_ophaling":"nee","budgetjaar":"2020","realisatie":"2020","point_lng":"4.3645350390000317","point_lat":"51.219332731000065"},{"objectid_1":"75","dossier_nummer":"2011176","naam":"REGATTA","straatnaam":"","locatie":"verlengde Aalscholverlaan","postcode":"2050","district":"Antwerpen","status":"4.  In Onderzoek","reguliere_ophaling":"nee","budgetjaar":"2020","realisatie":"2020","point_lng":"4.3645130840000661","point_lat":"51.217237735000026"},{"objectid_1":"76","dossier_nummer":"2011178","naam":"REGATTA","straatnaam":"Aalscholverlaan","locatie":"achter Blancefloerlaan 181-183","postcode":"2050","district":"Antwerpen","status":"2.  In Aanleg","reguliere_ophaling":"nee","budgetjaar":"0","realisatie":"2012","point_lng":"4.3687536860000478","point_lat":"51.217306380000082"},{"objectid_1":"77","dossier_nummer":"2011179","naam":"REGATTA","straatnaam":"Aalscholverlaan","locatie":"achter Blancefloerlaan 179A","postcode":"2050","district":"Antwerpen","status":"2.  In Aanleg","reguliere_ophaling":"nee","budgetjaar":"0","realisatie":"2012","point_lng":"4.3717430050000416","point_lat":"51.217272530000059"},{"objectid_1":"78","dossier_nummer":"2011174","naam":"REGATTA","straatnaam":"","locatie":"verlengde  Cornelliestraat","postcode":"2050","district":"Antwerpen","status":"4.  In Onderzoek","reguliere_ophaling":"nee","budgetjaar":"2020","realisatie":"2020","point_lng":"4.3645405060000257","point_lat":"51.218562060000068"},{"objectid_1":"79","dossier_nummer":"2011095","naam":"GANDHILAAN - WINDMOLENSTRAAT","straatnaam":"Gandhilaan","locatie":"voor Windmolenstraat 72-74","postcode":"2660","district":"Hoboken","status":"4.  In Onderzoek","reguliere_ophaling":"neen","budgetjaar":"2013","realisatie":"2014","point_lng":"4.3652992410000593","point_lat":"51.178928179000081"},{"objectid_1":"80","dossier_nummer":"2011209","naam":"ALBE-SITE","straatnaam":"Dascottelei - Van den Hautelei","locatie":"183","postcode":"2100","district":"Deurne","status":"4.  In Onderzoek","reguliere_ophaling":"ja","budgetjaar":"0","realisatie":"2014","point_lng":"4.4672305860000279","point_lat":"51.201608694000072"},{"objectid_1":"81","dossier_nummer":"2011208","naam":"EKSTERLAER","straatnaam":"Kerkhofweg","locatie":"116","postcode":"2100","district":"Deurne","status":"4.  In Onderzoek","reguliere_ophaling":"nee","budgetjaar":"0","realisatie":"2013","point_lng":"4.4713095620000445","point_lat":"51.199804515000039"},{"objectid_1":"82","dossier_nummer":"2011205","naam":"EKSTERLAER","straatnaam":"Schoggestraat","locatie":"150 meter achter Dascottelei90-92","postcode":"2100","district":"Deurne","status":"4.  In Onderzoek","reguliere_ophaling":"nee","budgetjaar":"0","realisatie":"2013","point_lng":"4.471555224000042","point_lat":"51.20276466200005"},{"objectid_1":"83","dossier_nummer":"2011206","naam":"EKSTERLAER","straatnaam":"Dascottelei","locatie":"achter 66","postcode":"2100","district":"Deurne","status":"4.  In Onderzoek","reguliere_ophaling":"nee","budgetjaar":"0","realisatie":"2013","point_lng":"4.470105846000024","point_lat":"51.201692748000028"},{"objectid_1":"84","dossier_nummer":"2011210","naam":"EKSTERLAER","straatnaam":"Kerkhofweg","locatie":"achter Vleerakkerstraat 34","postcode":"2100","district":"Deurne","status":"4.  In Onderzoek","reguliere_ophaling":"nee","budgetjaar":"0","realisatie":"2013","point_lng":"4.4738777530000675","point_lat":"51.20183253700003"},{"objectid_1":"85","dossier_nummer":"2011192","naam":"EILANDJE","straatnaam":"Napelsstraat","locatie":"53","postcode":"2000","district":"Antwerpen","status":"4.  In Onderzoek","reguliere_ophaling":"nee","budgetjaar":"2020","realisatie":"2020","point_lng":"4.4116077760000394","point_lat":"51.235538912000038"},{"objectid_1":"86","dossier_nummer":"2011073","naam":"Gasstraat","straatnaam":"Gasstraat","locatie":"hoek Wilgenstraat","postcode":"2060","district":"Antwerpen","status":"4.  In Onderzoek","reguliere_ophaling":"ja","budgetjaar":"2012","realisatie":"2012","point_lng":"4.4261284980000255","point_lat":"51.224969498000064"},{"objectid_1":"87","dossier_nummer":"2011057","naam":"DAMPLEIN","straatnaam":"Damplein","locatie":"aan kant Viaduct-Dam","postcode":"2060","district":"Antwerpen","status":"4.  In Onderzoek","reguliere_ophaling":"ja","budgetjaar":"2011","realisatie":"2012","point_lng":"4.4243944000000397","point_lat":"51.232296293000047"},{"objectid_1":"88","dossier_nummer":"2011193","naam":"EILANDJE","straatnaam":"Kempischdok-Westkaai","locatie":"78","postcode":"2000","district":"Antwerpen","status":"4.  In Onderzoek","reguliere_ophaling":"nee","budgetjaar":"2020","realisatie":"2020","point_lng":"4.4127936440000326","point_lat":"51.232017085000052"},{"objectid_1":"89","dossier_nummer":"2011194","naam":"EILANDJE","straatnaam":"Binnenvaartstraat","locatie":"50","postcode":"2000","district":"Antwerpen","status":"4.  In Onderzoek","reguliere_ophaling":"nee","budgetjaar":"2020","realisatie":"2020","point_lng":"4.4135638570000424","point_lat":"51.234381321000058"},{"objectid_1":"90","dossier_nummer":"2011084","naam":"EILANDJE","straatnaam":"Kempischdok-Westkaai","locatie":"verlengde aan hoek Madrasstraat","postcode":"2000","district":"Antwerpen","status":"4.  In Onderzoek","reguliere_ophaling":"ja","budgetjaar":"2013","realisatie":"2013","point_lng":"4.4113567730000227","point_lat":"51.231935929000031"},{"objectid_1":"91","dossier_nummer":"2011186","naam":"EILANDJE","straatnaam":"Kattendijkdok-Oostkaai","locatie":"hoek Cadixstraat","postcode":"2000","district":"Antwerpen","status":"4.  In Onderzoek","reguliere_ophaling":"nee","budgetjaar":"2020","realisatie":"2020","point_lng":"4.4094398550000733","point_lat":"51.233236759000079"},{"objectid_1":"92","dossier_nummer":"2011066","naam":"STUDENTENBUURT","straatnaam":"Sint Jacobsmarkt","locatie":"Frans Halsplein","postcode":"2000","district":"Antwerpen","status":"4.  In Onderzoek","reguliere_ophaling":"ja","budgetjaar":"2012","realisatie":"2014","point_lng":"4.4119694630000481","point_lat":"51.220437206000042"},{"objectid_1":"93","dossier_nummer":"2011141","naam":"Jan Brochovenstraat","straatnaam":"Jan Brochovenstraat","locatie":"over nr 28","postcode":"2100","district":"Deurne","status":"5.  Gevraagd","reguliere_ophaling":"Ja","budgetjaar":"2014","realisatie":"2014","point_lng":"4.4612454260000618","point_lat":"51.22219203700007"},{"objectid_1":"94","dossier_nummer":"2011219","naam":"Jan_Frans_Van_De_Gaerstraat","straatnaam":"Jan Frans van De Gaerstraat","locatie":"Kielpark 193-288","postcode":"2020","district":"Antwerpen","status":"6.  Uitgesteld","reguliere_ophaling":"nee","budgetjaar":"2050","realisatie":"2050","point_lng":"4.3859664180000664","point_lat":"51.190725222000026"},{"objectid_1":"95","dossier_nummer":"2011117","naam":"Montevideo","straatnaam":"Montevideostraat","locatie":"hoek Kattendijkdok-Westkaai","postcode":"2000","district":"Antwerpen","status":"3.  In Wacht","reguliere_ophaling":"ja","budgetjaar":"2014","realisatie":"2014","point_lng":"4.4049229400000627","point_lat":"51.233063123000079"},{"objectid_1":"96","dossier_nummer":"2011082","naam":"REGATTA","straatnaam":"Hubert Lampolaan","locatie":"hoek Frederic Bruynseelslaan","postcode":"2050","district":"Antwerpen","status":"4.  In Onderzoek","reguliere_ophaling":"nee","budgetjaar":"2013","realisatie":"2013","point_lng":"4.3660166740000363","point_lat":"51.217692639000063"},{"objectid_1":"97","dossier_nummer":"2011177","naam":"REGATTA","straatnaam":"Hugues C. Pernathlaan","locatie":"ten zuiden van hoek met Aalscholverlaan","postcode":"2050","district":"Antwerpen","status":"4.  In Onderzoek","reguliere_ophaling":"nee","budgetjaar":"2020","realisatie":"2020","point_lng":"4.3679328660000465","point_lat":"51.21727807700006"},{"objectid_1":"98","dossier_nummer":"2011061","naam":"Kerkstraat_85","straatnaam":"Kerkstraat","locatie":"85","postcode":"2060","district":"Antwerpen","status":"5.  Gevraagd","reguliere_ophaling":"ja","budgetjaar":"2011","realisatie":"2011","point_lng":"4.4310875370000531","point_lat":"51.219044035000081"},{"objectid_1":"99","dossier_nummer":"2011060","naam":"Kerkstraat_91","straatnaam":"Kerkstraat","locatie":"naast nr 91","postcode":"2060","district":"Antwerpen","status":"5.  Gevraagd","reguliere_ophaling":"ja","budgetjaar":"2011","realisatie":"2011","point_lng":"4.432250750000037","point_lat":"51.219009761000052"},{"objectid_1":"100","dossier_nummer":"2011059","naam":"Kerkstraat_192","straatnaam":"Kerkstraat","locatie":"naast nr 192","postcode":"2060","district":"Antwerpen","status":"5.  Gevraagd","reguliere_ophaling":"ja","budgetjaar":"2011","realisatie":"2011","point_lng":"4.4359256550000623","point_lat":"51.220002553000029"},{"objectid_1":"101","dossier_nummer":"2011062","naam":"Lange_Kongostraat","straatnaam":"Lange Kongostraat","locatie":"naast nr 41","postcode":"2060","district":"Antwerpen","status":"5.  Gevraagd","reguliere_ophaling":"ja","budgetjaar":"2011","realisatie":"2011","point_lng":"4.4395784720000506","point_lat":"51.223181560000057"},{"objectid_1":"102","dossier_nummer":"2011241","naam":"STUDENTENBUURT","straatnaam":"Ossenmarkt","locatie":"tegenover 32","postcode":"2000","district":"Antwerpen","status":"6.  Uitgesteld","reguliere_ophaling":"ja","budgetjaar":"2050","realisatie":"2050","point_lng":"4.4134756320000292","point_lat":"51.221973153000079"},{"objectid_1":"103","dossier_nummer":"2011267","naam":"0","straatnaam":"0","locatie":"0","postcode":"0","district":"0","status":"0","reguliere_ophaling":"0","budgetjaar":"0","realisatie":"0","point_lng":"4.4365338030000316","point_lat":"51.228668585000037"},{"objectid_1":"104","dossier_nummer":"2011081","naam":"REGATTA","straatnaam":"Antwerpen","locatie":"tussen Willy De Roosstraat en Emile Dancolaan","postcode":"2050","district":"Antwerpen","status":"4.  In Onderzoek","reguliere_ophaling":"nee","budgetjaar":"2013","realisatie":"2013","point_lng":"4.3659882310000739","point_lat":"51.219185741000047"},{"objectid_1":"105","dossier_nummer":"2011085","naam":"EILANDJE","straatnaam":"Napelsstraat","locatie":"hoek Indi\u00ebstraat","postcode":"2000","district":"Antwerpen","status":"4.  In Onderzoek","reguliere_ophaling":"ja","budgetjaar":"2013","realisatie":"2013","point_lng":"4.4108909250000465","point_lat":"51.234345569000027"},{"objectid_1":"106","dossier_nummer":"2011187","naam":"EILANDJE","straatnaam":"Kattendijkdok-Oostkaai","locatie":"over nr 22","postcode":"2000","district":"Antwerpen","status":"4.  In Onderzoek","reguliere_ophaling":"nee","budgetjaar":"2020","realisatie":"2020","point_lng":"4.4090552120000552","point_lat":"51.232394257000067"},{"objectid_1":"107","dossier_nummer":"2011058","naam":"Potgieterstraat","straatnaam":"Potgieterstraat","locatie":"1","postcode":"2060","district":"Antwerpen","status":"5.  Gevraagd","reguliere_ophaling":"ja","budgetjaar":"2011","realisatie":"2011","point_lng":"4.4370356690000676","point_lat":"51.221864549000031"},{"objectid_1":"108","dossier_nummer":"2011063","naam":"POTHOEKSTRAAT","straatnaam":"Pothoekstraat","locatie":"tegenover 94","postcode":"2060","district":"Antwerpen","status":"2.  In Aanleg","reguliere_ophaling":"ja","budgetjaar":"2011","realisatie":"2012","point_lng":"4.436548129000073","point_lat":"51.22353421400004"},{"objectid_1":"109","dossier_nummer":"2011069","naam":"Lodewijk_Van_Berckenlaan","straatnaam":"Lodewijk Van Berckenlaan","locatie":"179","postcode":"2140","district":"Borgerhout","status":"5.  Gevraagd","reguliere_ophaling":"Ja","budgetjaar":"2012","realisatie":"2012","point_lng":"4.4485603430000538","point_lat":"51.197422879000044"},{"objectid_1":"110","dossier_nummer":"2011070","naam":"Lange_Beeldekensstraat","straatnaam":"Lange Beeldekensstraat","locatie":"over 298-300","postcode":"2060","district":"Antwerpen","status":"5.  Gevraagd","reguliere_ophaling":"ja","budgetjaar":"2012","realisatie":"2012","point_lng":"4.4358253440000226","point_lat":"51.222438284000077"},{"objectid_1":"111","dossier_nummer":"2011072","naam":"Handelsstraat - Korte_Zavelstraat","straatnaam":"Handelsstraat","locatie":"hoek Korte Zavelstraat","postcode":"2060","district":"Antwerpen","status":"5.  Gevraagd","reguliere_ophaling":"Ja","budgetjaar":"2012","realisatie":"2012","point_lng":"4.4274800040000741","point_lat":"51.223287009000046"},{"objectid_1":"112","dossier_nummer":"2011074","naam":"Bredastraat","straatnaam":"Bredastraat","locatie":"77","postcode":"2060","district":"Antwerpen","status":"6.  Uitgesteld","reguliere_ophaling":"ja","budgetjaar":"2012","realisatie":"2012","point_lng":"4.4229853450000292","point_lat":"51.233869875000039"},{"objectid_1":"113","dossier_nummer":"2011100","naam":"Alfons De Cockstraat","straatnaam":"Alfons De Cockstraat","locatie":"1 - 3","postcode":"2020","district":"Antwerpen","status":"5.  Gevraagd","reguliere_ophaling":"Ja","budgetjaar":"2014","realisatie":"2014","point_lng":"4.3763522280000302","point_lat":"51.188897416000032"},{"objectid_1":"114","dossier_nummer":"2011106","naam":"Jan De Voslei","straatnaam":"Jan De Voslei","locatie":"1-17","postcode":"2020","district":"Antwerpen","status":"3.  In Wacht","reguliere_ophaling":"ja","budgetjaar":"2014","realisatie":"2014","point_lng":"4.389743974000055","point_lat":"51.186267828000041"},{"objectid_1":"115","dossier_nummer":"2011108","naam":"Jan De Voslei","straatnaam":"Jan De Voslei","locatie":"49","postcode":"2020","district":"Antwerpen","status":"6.  Uitgesteld","reguliere_ophaling":"Ja","budgetjaar":"2014","realisatie":"2014","point_lng":"4.3873597620000737","point_lat":"51.192532276000065"},{"objectid_1":"116","dossier_nummer":"2011109","naam":"Julius_De_Geyterstraat","straatnaam":"Julius De Geyterstr","locatie":"93-95","postcode":"2020","district":"Antwerpen","status":"5.  Gevraagd","reguliere_ophaling":"Ja","budgetjaar":"2014","realisatie":"2014","point_lng":"4.3784675100000641","point_lat":"51.184480447000055"},{"objectid_1":"117","dossier_nummer":"2011111","naam":"Venezuelastraat_6","straatnaam":"Venezuelastraat","locatie":"6","postcode":"2030","district":"Antwerpen","status":"6.  Uitgesteld","reguliere_ophaling":"nee","budgetjaar":"2014","realisatie":"2014","point_lng":"4.4234720490000541","point_lat":"51.253563893000035"},{"objectid_1":"118","dossier_nummer":"2011114","naam":"Groenendaallaan_270_308","straatnaam":"Groenendaallaan","locatie":"270-308","postcode":"2030","district":"Antwerpen","status":"6.  Uitgesteld","reguliere_ophaling":"nee","budgetjaar":"2014","realisatie":"2014","point_lng":"4.4225544780000519","point_lat":"51.24597809900007"},{"objectid_1":"119","dossier_nummer":"2011118","naam":"Hollandstraat","straatnaam":"Hollandstraat","locatie":"21-27","postcode":"2060","district":"Antwerpen","status":"5.  Gevraagd","reguliere_ophaling":"ja","budgetjaar":"2014","realisatie":"2014","point_lng":"4.4199360150000757","point_lat":"51.223407510000072"},{"objectid_1":"120","dossier_nummer":"2011119","naam":"Kempenstraat_Spitsenstraat","straatnaam":"Kempenstraat","locatie":"hoek Spitsenstraat","postcode":"2030","district":"Antwerpen","status":"5.  Gevraagd","reguliere_ophaling":"ja","budgetjaar":"2014","realisatie":"2014","point_lng":"4.4172559430000433","point_lat":"51.231796845000076"},{"objectid_1":"121","dossier_nummer":"2011120","naam":"Delinstraat_Sint_Elisabethstraat","straatnaam":"Delinstraat","locatie":"hoek Sint-Elisabethstraat","postcode":"2060","district":"Antwerpen","status":"5.  Gevraagd","reguliere_ophaling":"ja","budgetjaar":"2014","realisatie":"2014","point_lng":"4.4238733900000398","point_lat":"51.222572725000077"},{"objectid_1":"122","dossier_nummer":"2011067","naam":"DAMBRUGGESTRAAT - OUDESTEENWEG","straatnaam":"Dambruggestraat","locatie":"Oudesteenweg","postcode":"2060","district":"Antwerpen","status":"4.  In Onderzoek","reguliere_ophaling":"ja","budgetjaar":"2012","realisatie":"2012","point_lng":"4.421553106000033","point_lat":"51.223548430000051"},{"objectid_1":"123","dossier_nummer":"2011122","naam":"Delinstraat_Lange_Beeldekensstraat","straatnaam":"Delinstraat","locatie":"58","postcode":"2060","district":"Antwerpen","status":"5.  Gevraagd","reguliere_ophaling":"ja","budgetjaar":"2014","realisatie":"2014","point_lng":"4.4240379310000435","point_lat":"51.221344556000076"},{"objectid_1":"124","dossier_nummer":"2011123","naam":"PARK SPOOR NOORD","straatnaam":"Halenstraat","locatie":"over nr 71","postcode":"2060","district":"Antwerpen","status":"5.  Gevraagd","reguliere_ophaling":"ja","budgetjaar":"2014","realisatie":"2014","point_lng":"4.4340654630000245","point_lat":"51.22796280600005"},{"objectid_1":"125","dossier_nummer":"2011124","naam":"Sint_Norbertusstraat","straatnaam":"St Norbertusstraat","locatie":"over nr 16","postcode":"2060","district":"Antwerpen","status":"4.  In Onderzoek","reguliere_ophaling":"ja","budgetjaar":"2014","realisatie":"2014","point_lng":"4.4234128070000338","point_lat":"51.226055657000074"},{"objectid_1":"126","dossier_nummer":"2011125","naam":"Stuivenbergplein","straatnaam":"Stuivenbergplein","locatie":"over nr 74-85","postcode":"2060","district":"Antwerpen","status":"6.  Uitgesteld","reguliere_ophaling":"ja","budgetjaar":"2014","realisatie":"2014","point_lng":"4.4288433730000634","point_lat":"51.226305977000038"},{"objectid_1":"127","dossier_nummer":"2011130","naam":"Gloriantlaan_62_64","straatnaam":"Gloriantlaan","locatie":"62-64","postcode":"2050","district":"Antwerpen","status":"5.  Gevraagd","reguliere_ophaling":"nee","budgetjaar":"2014","realisatie":"2014","point_lng":"4.3852098250000608","point_lat":"51.224637679000068"},{"objectid_1":"128","dossier_nummer":"2011131","naam":"Dageraadplaats","straatnaam":"Dageraadplaats","locatie":"over nr 29","postcode":"2018","district":"Antwerpen","status":"5.  Gevraagd","reguliere_ophaling":"ja","budgetjaar":"2014","realisatie":"2014","point_lng":"4.4296981370000594","point_lat":"51.206960977000051"},{"objectid_1":"129","dossier_nummer":"2011159","naam":"Lange_Lozannastraat_101_103","straatnaam":"Lange Lozanastraat","locatie":"101-103","postcode":"2018","district":"Antwerpen","status":"5.  Gevraagd","reguliere_ophaling":"ja","budgetjaar":"2020","realisatie":"2020","point_lng":"4.4050484560000314","point_lat":"51.203671652000025"},{"objectid_1":"130","dossier_nummer":"2011160","naam":"Wittestraat","straatnaam":"Wittestraat","locatie":"hoek Boomsesteenweg","postcode":"2020","district":"Antwerpen","status":"5.  Gevraagd","reguliere_ophaling":"ja","budgetjaar":"2020","realisatie":"2020","point_lng":"4.3865565840000613","point_lat":"51.189718915000071"},{"objectid_1":"131","dossier_nummer":"2011161","naam":"De_Bosschaertstraat_186","straatnaam":"De Bosschaertstraat","locatie":"naast nr 186","postcode":"2020","district":"Antwerpen","status":"5.  Gevraagd","reguliere_ophaling":"ja","budgetjaar":"2020","realisatie":"2020","point_lng":"4.3819055340000546","point_lat":"51.18660449500004"},{"objectid_1":"132","dossier_nummer":"2011162","naam":"De_Bosschaertstraat_Pierenbergstraat","straatnaam":"Pierenbergstraat","locatie":"63","postcode":"2020","district":"Antwerpen","status":"5.  Gevraagd","reguliere_ophaling":"ja","budgetjaar":"2020","realisatie":"2020","point_lng":"4.3799023020000618","point_lat":"51.187557955000045"},{"objectid_1":"133","dossier_nummer":"2011166","naam":"LUCHTBAL","straatnaam":"Canadalaan","locatie":"naast nr 213","postcode":"2030","district":"Antwerpen","status":"6.  Uitgesteld","reguliere_ophaling":"nee","budgetjaar":"2020","realisatie":"2020","point_lng":"4.4212114560000373","point_lat":"51.25537225100004"},{"objectid_1":"134","dossier_nummer":"2011167","naam":"Canadalaan_233_235","straatnaam":"Canadalaan","locatie":"naast nr 233-235","postcode":"2030","district":"Antwerpen","status":"6.  Uitgesteld","reguliere_ophaling":"nee","budgetjaar":"2020","realisatie":"2020","point_lng":"4.4213585530000614","point_lat":"51.256646076000038"},{"objectid_1":"135","dossier_nummer":"2011168","naam":"Kattendijkdok_Westkaai_16","straatnaam":"Kattendijkdok Westkaai","locatie":"over nr 16","postcode":"2000","district":"Antwerpen","status":"4.  In Onderzoek","reguliere_ophaling":"ja","budgetjaar":"2020","realisatie":"2020","point_lng":"4.4053177830000436","point_lat":"51.232626527000036"},{"objectid_1":"136","dossier_nummer":"2011171","naam":"VIS\u00c9STRAAT - STUIVENBERGPLEIN","straatnaam":"Vis\u00e9straat","locatie":"naast Stuivenbergplein 38","postcode":"2060","district":"Antwerpen","status":"5.  Gevraagd","reguliere_ophaling":"ja","budgetjaar":"2020","realisatie":"2020","point_lng":"4.4320963280000569","point_lat":"51.227159844000028"},{"objectid_1":"137","dossier_nummer":"2011180","naam":"Gloriantlaan_46","straatnaam":"Gloriantlaan","locatie":"46","postcode":"2050","district":"Antwerpen","status":"5.  Gevraagd","reguliere_ophaling":"nee","budgetjaar":"2020","realisatie":"2020","point_lng":"4.3858005410000374","point_lat":"51.228534524000054"},{"objectid_1":"138","dossier_nummer":"2011182","naam":"Victor_Delhezstraat","straatnaam":"Victor Delhezstraat","locatie":"naast nr 6","postcode":"2050","district":"Antwerpen","status":"5.  Gevraagd","reguliere_ophaling":"nee","budgetjaar":"2020","realisatie":"2020","point_lng":"4.3733920530000319","point_lat":"51.218747586000063"},{"objectid_1":"139","dossier_nummer":"2011188","naam":"Adriaan_Brouwerstraat","straatnaam":"Adriaan Brouwerstraat","locatie":"19","postcode":"2000","district":"Antwerpen","status":"5.  Gevraagd","reguliere_ophaling":"ja","budgetjaar":"2020","realisatie":"2020","point_lng":"4.4036289990000341","point_lat":"51.227179942000078"},{"objectid_1":"140","dossier_nummer":"2011190","naam":"Carnotstraat","straatnaam":"Carnotstraat","locatie":"65","postcode":"2060","district":"Antwerpen","status":"5.  Gevraagd","reguliere_ophaling":"ja","budgetjaar":"2020","realisatie":"2020","point_lng":"4.4249834950000491","point_lat":"51.218410948000042"},{"objectid_1":"141","dossier_nummer":"2011191","naam":"Kattendijkdok_Westkaai_midden","straatnaam":"Kattendijdok-Westkaai","locatie":"midden tussen Montevideostraat en Limastraat","postcode":"2000","district":"Antwerpen","status":"5.  Gevraagd","reguliere_ophaling":"ja","budgetjaar":"2020","realisatie":"2020","point_lng":"4.4049038150000683","point_lat":"51.233738234000043"},{"objectid_1":"142","dossier_nummer":"2011195","naam":"Kempenstraat_midden","straatnaam":"Kempenstraat","locatie":"midden tussen Spitsenstraat en Binnenvaartstraat","postcode":"2030","district":"Antwerpen","status":"5.  Gevraagd","reguliere_ophaling":"ja","budgetjaar":"2020","realisatie":"2020","point_lng":"4.4156998170000747","point_lat":"51.231746114000032"},{"objectid_1":"143","dossier_nummer":"2011196","naam":"Sint_Aldegondiskaai","straatnaam":"Sint-Aldegondiskaai","locatie":"30","postcode":"2000","district":"Antwerpen","status":"5.  Gevraagd","reguliere_ophaling":"ja","budgetjaar":"2020","realisatie":"2020","point_lng":"4.403542567000045","point_lat":"51.227844781000044"},{"objectid_1":"144","dossier_nummer":"2011132","naam":"Ringlaan","straatnaam":"Ringlaan","locatie":"hoek Bourcetstraat","postcode":"2600","district":"Berchem","status":"5.  Gevraagd","reguliere_ophaling":"Ja","budgetjaar":"2014","realisatie":"2014","point_lng":"4.4313729300000659","point_lat":"51.179204372000072"},{"objectid_1":"145","dossier_nummer":"2011133","naam":"FRUITHOFLAAN - SINT-THERESIASTRAAT","straatnaam":"Fruithoflaan","locatie":"11","postcode":"2600","district":"Berchem","status":"4.  In Onderzoek","reguliere_ophaling":"Ja","budgetjaar":"2014","realisatie":"2014","point_lng":"4.4345598060000384","point_lat":"51.180518848000077"},{"objectid_1":"146","dossier_nummer":"2011135","naam":"FRUITHOFLAAN - 98","straatnaam":"Fruithoflaan","locatie":"98","postcode":"2600","district":"Berchem","status":"4.  In Onderzoek","reguliere_ophaling":"Ja","budgetjaar":"2014","realisatie":"2014","point_lng":"4.4388160690000404","point_lat":"51.183543710000038"},{"objectid_1":"147","dossier_nummer":"2011137","naam":"FRUITHOFLAAN - 118-122","straatnaam":"Fruithoflaan","locatie":"tussen nr 118 en 122","postcode":"2600","district":"Berchem","status":"4.  In Onderzoek","reguliere_ophaling":"Ja","budgetjaar":"2014","realisatie":"2014","point_lng":"4.4422695460000341","point_lat":"51.185693169000047"},{"objectid_1":"148","dossier_nummer":"2011189","naam":"Jos_Ratinckxstraat","straatnaam":"Jos Ratinckxstraat","locatie":"1","postcode":"2600","district":"Berchem","status":"5.  Gevraagd","reguliere_ophaling":"ja","budgetjaar":"2020","realisatie":"2020","point_lng":"4.4417693100000406","point_lat":"51.183994407000057"},{"objectid_1":"149","dossier_nummer":"2011198","naam":"Grote_Steenweg-Uitbreidingsstraat","straatnaam":"Grote Steenweg","locatie":"hoek Uitbreidingstraat","postcode":"2600","district":"Berchem","status":"5.  Gevraagd","reguliere_ophaling":"Ja","budgetjaar":"2020","realisatie":"2020","point_lng":"4.4216138950000641","point_lat":"51.19326307800003"},{"objectid_1":"150","dossier_nummer":"2011199","naam":"Frans_De_Vriendtstraat","straatnaam":"Frans De Vriendtstraat","locatie":"48","postcode":"2600","district":"Berchem","status":"5.  Gevraagd","reguliere_ophaling":"ja","budgetjaar":"2020","realisatie":"2020","point_lng":"4.4442092800000523","point_lat":"51.204531144000043"},{"objectid_1":"151","dossier_nummer":"2011242","naam":"STUDENTENBUURT","straatnaam":"Stadswaag","locatie":"tegenover 4","postcode":"2000","district":"Antwerpen","status":"6.  Uitgesteld","reguliere_ophaling":"ja","budgetjaar":"2050","realisatie":"2050","point_lng":"4.407176163000031","point_lat":"51.224056008000048"},{"objectid_1":"152","dossier_nummer":"2011244","naam":"STUDENTENBUURT","straatnaam":"Grote Kauwenberg","locatie":"2","postcode":"2000","district":"Antwerpen","status":"6.  Uitgesteld","reguliere_ophaling":"ja","budgetjaar":"2050","realisatie":"2050","point_lng":"4.4114783050000597","point_lat":"51.223436998000068"},{"objectid_1":"153","dossier_nummer":"2011245","naam":"Driesnellenstraat","straatnaam":"Driesnellenstraat","locatie":"9","postcode":"2060","district":"Antwerpen","status":"6.  Uitgesteld","reguliere_ophaling":"ja","budgetjaar":"2050","realisatie":"2050","point_lng":"4.4240807460000724","point_lat":"51.234169618000067"},{"objectid_1":"154","dossier_nummer":"2011246","naam":"Onderwijsstraat","straatnaam":"Onderwijsstraat","locatie":"rechtover 77","postcode":"2060","district":"Antwerpen","status":"4.  In Onderzoek","reguliere_ophaling":"ja","budgetjaar":"2050","realisatie":"2050","point_lng":"4.4364642150000577","point_lat":"51.226256019000061"},{"objectid_1":"155","dossier_nummer":"2011086","naam":"Kwekerijstraat","straatnaam":"Kwekerijstraat","locatie":"plein naast nr 112","postcode":"2140","district":"Borgerhout","status":"3.  In Wacht","reguliere_ophaling":"Ja","budgetjaar":"2013","realisatie":"2013","point_lng":"4.4439231610000434","point_lat":"51.21970023800003"},{"objectid_1":"156","dossier_nummer":"2011229","naam":"Moorkensplein","straatnaam":"Moorkensplein","locatie":"Mareestraat 19","postcode":"2140","district":"Borgerhout","status":"4.  In Onderzoek","reguliere_ophaling":"Ja","budgetjaar":"2016","realisatie":"2016","point_lng":"4.4340431880000324","point_lat":"51.213226648000045"},{"objectid_1":"157","dossier_nummer":"2011087","naam":"Laar","straatnaam":"Laar","locatie":"plein","postcode":"2140","district":"Borgerhout","status":"6.  Uitgesteld","reguliere_ophaling":"ja","budgetjaar":"2013","realisatie":"2013","point_lng":"4.4331281040000476","point_lat":"51.216053892000048"},{"objectid_1":"158","dossier_nummer":"2011201","naam":"Vercammenstraat","straatnaam":"Vercammenstraat","locatie":"1B","postcode":"2140","district":"Borgerhout","status":"5.  Gevraagd","reguliere_ophaling":"Ja","budgetjaar":"2020","realisatie":"2020","point_lng":"4.4385726780000709","point_lat":"51.218575961000056"},{"objectid_1":"159","dossier_nummer":"2011092","naam":"KRONENBURG","straatnaam":"Van Amstelstraat","locatie":"pleintje met Albert Bevernagelei","postcode":"2100","district":"Deurne","status":"6.  Uitgesteld","reguliere_ophaling":"Ja","budgetjaar":"2013","realisatie":"2013","point_lng":"4.4484393470000327","point_lat":"51.232592995000061"},{"objectid_1":"160","dossier_nummer":"2011207","naam":"EKSTERLAER","straatnaam":"Constant Jorislaan","locatie":"33","postcode":"2100","district":"Deurne","status":"4.  In Onderzoek","reguliere_ophaling":"nee","budgetjaar":"0","realisatie":"2013","point_lng":"4.4692846880000729","point_lat":"51.20044641100003"},{"objectid_1":"161","dossier_nummer":"2011211","naam":"EKSTERLAER","straatnaam":"Kerkhofweg","locatie":"40D","postcode":"2100","district":"Deurne","status":"4.  In Onderzoek","reguliere_ophaling":"nee","budgetjaar":"0","realisatie":"2013","point_lng":"4.473331321000046","point_lat":"51.203993187000037"},{"objectid_1":"162","dossier_nummer":"2011076","naam":"Dordrechtlaan","straatnaam":"Dordrechtlaan","locatie":"58W-58Z","postcode":"2100","district":"Deurne","status":"5.  Gevraagd","reguliere_ophaling":"Ja","budgetjaar":"2012","realisatie":"2012","point_lng":"4.4593494610000448","point_lat":"51.205628955000066"},{"objectid_1":"163","dossier_nummer":"2011146","naam":"Gabri\u00ebl Vervoortstraat_91","straatnaam":"Gabri\u00ebl Vervoortstraat","locatie":"over nr 91","postcode":"2100","district":"Deurne","status":"5.  Gevraagd","reguliere_ophaling":"Ja","budgetjaar":"2014","realisatie":"2014","point_lng":"4.4623733510000534","point_lat":"51.206594464000034"},{"objectid_1":"164","dossier_nummer":"2011147","naam":"Wouter Haecklaan_12","straatnaam":"Wouter Haecklaan","locatie":"over nr 12","postcode":"2100","district":"Deurne","status":"5.  Gevraagd","reguliere_ophaling":"Ja","budgetjaar":"2014","realisatie":"2014","point_lng":"4.462160610000069","point_lat":"51.211245603000066"},{"objectid_1":"165","dossier_nummer":"2011149","naam":"Drakenhoflaan","straatnaam":"Drakenhoflaan","locatie":"160","postcode":"2100","district":"Deurne","status":"6.  Uitgesteld","reguliere_ophaling":"ja","budgetjaar":"2014","realisatie":"2014","point_lng":"4.4622538450000206","point_lat":"51.194458780000048"},{"objectid_1":"166","dossier_nummer":"2011212","naam":"EKSTERLAER","straatnaam":"Klein-Eksterlaer","locatie":"achter Van Den Hautelei 196-198","postcode":"2100","district":"Deurne","status":"4.  In Onderzoek","reguliere_ophaling":"nee","budgetjaar":"2020","realisatie":"2020","point_lng":"4.4659808820000535","point_lat":"51.200585416000081"},{"objectid_1":"167","dossier_nummer":"2011247","naam":"VALAAR","straatnaam":"Jules Draeyersstraat","locatie":"rechtover 1","postcode":"2610","district":"Wilrijk","status":"6.  Uitgesteld","reguliere_ophaling":"ja","budgetjaar":"2012","realisatie":"2012","point_lng":"4.3795382290000475","point_lat":"51.176881250000065"},{"objectid_1":"168","dossier_nummer":"2011213","naam":"Herentalsebaan","straatnaam":"Herentalsebaan","locatie":"achter nr 146","postcode":"2100","district":"Deurne","status":"5.  Gevraagd","reguliere_ophaling":"ja","budgetjaar":"2020","realisatie":"2020","point_lng":"4.4597919990000605","point_lat":"51.209002535000081"},{"objectid_1":"169","dossier_nummer":"2011233","naam":"Schoonbroek","straatnaam":"Tractaatstraat","locatie":"11","postcode":"2180","district":"Ekeren","status":"6.  Uitgesteld","reguliere_ophaling":"ja","budgetjaar":"2050","realisatie":"2050","point_lng":"4.4111826010000641","point_lat":"51.279813998000066"},{"objectid_1":"170","dossier_nummer":"2011234","naam":"Statiestraat","straatnaam":"Statiestraat","locatie":"16-17","postcode":"2180","district":"Ekeren","status":"6.  Uitgesteld","reguliere_ophaling":"ja","budgetjaar":"2050","realisatie":"2050","point_lng":"4.4350983440000391","point_lat":"51.285541155000033"},{"objectid_1":"171","dossier_nummer":"2011151","naam":"Scanfil_81","straatnaam":"Berkenrodelei","locatie":"100 m achter nr 81","postcode":"2660","district":"Hoboken","status":"4.  In Onderzoek","reguliere_ophaling":"nee","budgetjaar":"2014","realisatie":"2014","point_lng":"4.3473621730000218","point_lat":"51.180306772000051"},{"objectid_1":"172","dossier_nummer":"2011152","naam":"Scanfil_61","straatnaam":"Berkenrodelei","locatie":"100 m achter nr 61","postcode":"2660","district":"Hoboken","status":"4.  In Onderzoek","reguliere_ophaling":"nee","budgetjaar":"2014","realisatie":"2014","point_lng":"4.3476980610000737","point_lat":"51.179552808000039"},{"objectid_1":"173","dossier_nummer":"2011094","naam":"Adolf Greinerstraat","straatnaam":"Adolf Greinerstraat","locatie":"hoek Kapelstraat\/Baron Sadoinestraat","postcode":"2660","district":"Hoboken","status":"6.  Uitgesteld","reguliere_ophaling":"ja","budgetjaar":"2013","realisatie":"2013","point_lng":"4.335221428000068","point_lat":"51.171937725000078"},{"objectid_1":"174","dossier_nummer":"2011215","naam":"Sint-Bartholomeusstraat","straatnaam":"Sint-Bartholomeusstraat","locatie":"tussen Oostkaai en Westkaai","postcode":"2170","district":"Merksem","status":"6.  Uitgesteld","reguliere_ophaling":"Ja","budgetjaar":"2020","realisatie":"2020","point_lng":"4.4476206950000687","point_lat":"51.243150343000082"},{"objectid_1":"175","dossier_nummer":"2011097","naam":"NEERLAND","straatnaam":"Krijgslaan -> Galleitlaan","locatie":"over nr 220","postcode":"2610","district":"Wilrijk","status":"4.  In Onderzoek","reguliere_ophaling":"nee","budgetjaar":"2013","realisatie":"2013","point_lng":"4.3910837860000242","point_lat":"51.162369402000081"},{"objectid_1":"176","dossier_nummer":"2011098","naam":"NEERLAND","straatnaam":"Krijgslaan","locatie":"over nr 170","postcode":"2610","district":"Wilrijk","status":"4.  In Onderzoek","reguliere_ophaling":"nee","budgetjaar":"2013","realisatie":"0","point_lng":"4.3897463970000672","point_lat":"51.16249257100003"},{"objectid_1":"177","dossier_nummer":"2011154","naam":"Sporthalplein","straatnaam":"Sporthalplein","locatie":"naast nr 3","postcode":"2610","district":"Wilrijk","status":"5.  Gevraagd","reguliere_ophaling":"Ja","budgetjaar":"2014","realisatie":"2014","point_lng":"4.3918179140000575","point_lat":"51.171419821000029"},{"objectid_1":"178","dossier_nummer":"2011248","naam":"VALAAR","straatnaam":"Pastoor Bauwenslaan","locatie":"rechtover 2","postcode":"2610","district":"Wilrijk","status":"6.  Uitgesteld","reguliere_ophaling":"ja","budgetjaar":"2012","realisatie":"2012","point_lng":"4.3815682900000752","point_lat":"51.177492037000036"},{"objectid_1":"179","dossier_nummer":"2011249","naam":"VALAAR","straatnaam":"Rooiboslaan","locatie":"200","postcode":"2610","district":"Wilrijk","status":"6.  Uitgesteld","reguliere_ophaling":"ja","budgetjaar":"2012","realisatie":"2012","point_lng":"4.3821959120000429","point_lat":"51.176972909000028"},{"objectid_1":"180","dossier_nummer":"2011250","naam":"VALAAR","straatnaam":"Primulalei","locatie":"rechtover 14","postcode":"2610","district":"Wilrijk","status":"6.  Uitgesteld","reguliere_ophaling":"ja","budgetjaar":"2012","realisatie":"2012","point_lng":"4.3812496500000293","point_lat":"51.176381637000077"},{"objectid_1":"181","dossier_nummer":"2011251","naam":"VALAAR","straatnaam":"Bosheidelaan","locatie":"rechtover 32","postcode":"2610","district":"Wilrijk","status":"6.  Uitgesteld","reguliere_ophaling":"ja","budgetjaar":"2012","realisatie":"2012","point_lng":"4.3802978930000336","point_lat":"51.17618991300003"},{"objectid_1":"182","dossier_nummer":"2011253","naam":"BREDERODE","straatnaam":"Cuylitsstraat","locatie":"22a","postcode":"2018","district":"Antwerpen","status":"2.  In Aanleg","reguliere_ophaling":"ja","budgetjaar":"2012","realisatie":"2012","point_lng":"4.3934665900000596","point_lat":"51.204767708000077"},{"objectid_1":"183","dossier_nummer":"2011254","naam":"BREDERODE","straatnaam":"Montignystraat","locatie":"43 - 51","postcode":"2018","district":"Antwerpen","status":"6.  Uitgesteld","reguliere_ophaling":"ja","budgetjaar":"2012","realisatie":"2012","point_lng":"4.3921539780000671","point_lat":"51.203794623000078"},{"objectid_1":"184","dossier_nummer":"2011255","naam":"BREDERODE","straatnaam":"Troonplaats","locatie":"rechtover 2","postcode":"2018","district":"Antwerpen","status":"3.  In Wacht","reguliere_ophaling":"ja","budgetjaar":"2012","realisatie":"2013","point_lng":"4.3921952130000363","point_lat":"51.203418213000077"},{"objectid_1":"185","dossier_nummer":"2011256","naam":"BREDERODE","straatnaam":"Paleisstraat","locatie":"122","postcode":"2018","district":"Antwerpen","status":"6.  Uitgesteld","reguliere_ophaling":"ja","budgetjaar":"","realisatie":"2012","point_lng":"4.3972695050000539","point_lat":"51.205640558000027"},{"objectid_1":"186","dossier_nummer":"2011258","naam":"Frederik Van Eedenpein","straatnaam":"Frederik Van Eedenpein","locatie":"17","postcode":"2050","district":"Antwerpen","status":"4.  In Onderzoek","reguliere_ophaling":"nee","budgetjaar":"2012","realisatie":"2012","point_lng":"4.3862651820000451","point_lat":"51.220993370000031"},{"objectid_1":"187","dossier_nummer":"2011259","naam":"August Vermeylenlaan","straatnaam":"August Vermeylenlaan","locatie":"21","postcode":"2050","district":"Antwerpen","status":"4.  In Onderzoek","reguliere_ophaling":"nee","budgetjaar":"2012","realisatie":"2012","point_lng":"4.3788825820000739","point_lat":"51.229754297000056"},{"objectid_1":"188","dossier_nummer":"2011260","naam":"Esmoreitlaan","straatnaam":"Esmoreitlaan","locatie":"3","postcode":"2050","district":"Antwerpen","status":"4.  In Onderzoek","reguliere_ophaling":"nee","budgetjaar":"2012","realisatie":"2012","point_lng":"4.3848665590000451","point_lat":"51.233300997000072"},{"objectid_1":"189","dossier_nummer":"2011262","naam":"Plantin en Moretuslei","straatnaam":"Plantin en Moretuslei","locatie":"331 - 335","postcode":"2140","district":"Borgerhout","status":"6.  Uitgesteld","reguliere_ophaling":"Ja","budgetjaar":"2012","realisatie":"2012","point_lng":"4.4369783820000634","point_lat":"51.209099996000077"},{"objectid_1":"190","dossier_nummer":"2011243","naam":"STUDENTENBUURT","straatnaam":"Academie","locatie":"tegenover 2","postcode":"2000","district":"Antwerpen","status":"6.  Uitgesteld","reguliere_ophaling":"ja","budgetjaar":"2050","realisatie":"2050","point_lng":"4.4059968030000505","point_lat":"51.222983244000034"},{"objectid_1":"191","dossier_nummer":"2011265","naam":"Professor Claraplein","straatnaam":"Professor Claraplein","locatie":"2","postcode":"2018","district":"Antwerpen","status":"6.  Uitgesteld","reguliere_ophaling":"ja","budgetjaar":"2012","realisatie":"0","point_lng":"4.4196551620000264","point_lat":"51.20097652100003"},{"objectid_1":"192","dossier_nummer":"2011077","naam":"STUDENTENBUURT","straatnaam":"Kleine Kauwenberg","locatie":"over nr 22","postcode":"2000","district":"Antwerpen","status":"3.  In Wacht","reguliere_ophaling":"ja","budgetjaar":"2013","realisatie":"2013","point_lng":"4.411983770000063","point_lat":"51.223987951000026"},{"objectid_1":"193","dossier_nummer":"2011275","naam":"August Vermeylenlaan","straatnaam":"August Vermeylenlaan","locatie":"naast 1 - 3","postcode":"2050","district":"Antwerpen","status":"4.  In Onderzoek","reguliere_ophaling":"nee","budgetjaar":"","realisatie":"","point_lng":"4.3790336800000205","point_lat":"51.232422932000077"},{"objectid_1":"194","dossier_nummer":"2011276","naam":"Esmoreitlaan","straatnaam":"Esmoreitlaan","locatie":"7","postcode":"2050","district":"Antwerpen","status":"4.  In Onderzoek","reguliere_ophaling":"nee","budgetjaar":"","realisatie":"","point_lng":"4.3827983380000433","point_lat":"51.232973320000042"},{"objectid_1":"195","dossier_nummer":"2011277","naam":"Esmoreitlaan","straatnaam":"Esmoreitlaan","locatie":"29","postcode":"2050","district":"Antwerpen","status":"4.  In Onderzoek","reguliere_ophaling":"nee","budgetjaar":"","realisatie":"","point_lng":"4.3814366900000437","point_lat":"51.232594254000048"},{"objectid_1":"196","dossier_nummer":"2011263","naam":"LUCHTBAL","straatnaam":"Bristolstraat","locatie":"8","postcode":"2030","district":"Antwerpen","status":"4.  In Onderzoek","reguliere_ophaling":"nee","budgetjaar":"2013","realisatie":"2012","point_lng":"4.4237263770000368","point_lat":"51.255185657000027"},{"objectid_1":"197","dossier_nummer":"2011264","naam":"LUCHTBAL","straatnaam":"Belfaststraat","locatie":"11","postcode":"2030","district":"Antwerpen","status":"6.  Uitgesteld","reguliere_ophaling":"nee","budgetjaar":"2013","realisatie":"2012","point_lng":"4.4243967300000691","point_lat":"51.255361074000064"},{"objectid_1":"198","dossier_nummer":"2011266","naam":"De Coninckplein","straatnaam":"Van Arteveldestraat","locatie":"nr 64 - voor apotheek De Coninckplein 9-10","postcode":"2060","district":"Antwerpen","status":"4.  In Onderzoek","reguliere_ophaling":"ja","budgetjaar":"2012","realisatie":"2012","point_lng":"4.4203891680000424","point_lat":"51.221653543000059"},{"objectid_1":"199","dossier_nummer":"2011270","naam":"Ellermanstraat","straatnaam":"Ellermanstraat","locatie":"toren 2 (over De Pretstraat)","postcode":"2060","district":"Antwerpen","status":"4.  In Onderzoek","reguliere_ophaling":"nee","budgetjaar":"","realisatie":"","point_lng":"4.4172337890000222","point_lat":"51.229927339000028"},{"objectid_1":"200","dossier_nummer":"2011222","naam":"Uitbreidingsstraat","straatnaam":"Uitbreidingsstraat","locatie":"hoek De Villegasstraat","postcode":"2600","district":"Berchem","status":"6.  Uitgesteld","reguliere_ophaling":"Ja","budgetjaar":"2050","realisatie":"2050","point_lng":"4.4249510250000412","point_lat":"51.194999730000063"},{"objectid_1":"201","dossier_nummer":"2011224","naam":"Van Couwervenstraat","straatnaam":"Van Couwervenstraat","locatie":"128","postcode":"2040","district":"BeZaLi","status":"6.  Uitgesteld","reguliere_ophaling":"Ja","budgetjaar":"2050","realisatie":"2050","point_lng":"4.3255651070000454","point_lat":"51.344504358000052"},{"objectid_1":"202","dossier_nummer":"2011225","naam":"Luitenant_Naeyaertplein","straatnaam":"Luitenant Naeyaertplein","locatie":"op pleintje","postcode":"2140","district":"Borgerhout","status":"6.  Uitgesteld","reguliere_ophaling":"Ja","budgetjaar":"2050","realisatie":"2050","point_lng":"4.4401563520000309","point_lat":"51.209937225000033"},{"objectid_1":"203","dossier_nummer":"2011226","naam":"Joe_Englishstraat","straatnaam":"Joe Englishstraat","locatie":"42","postcode":"2140","district":"Borgerhout","status":"6.  Uitgesteld","reguliere_ophaling":"Ja","budgetjaar":"2050","realisatie":"2050","point_lng":"4.4475821790000509","point_lat":"51.211114644000077"},{"objectid_1":"204","dossier_nummer":"2011227","naam":"Luisbekelaar","straatnaam":"Luisbekelaar","locatie":"4","postcode":"2140","district":"Borgerhout","status":"6.  Uitgesteld","reguliere_ophaling":"Ja","budgetjaar":"2050","realisatie":"2050","point_lng":"4.4455861430000709","point_lat":"51.205513014000076"},{"objectid_1":"205","dossier_nummer":"2011228","naam":"Koxplein","straatnaam":"Koxplein","locatie":"thv De Shelter","postcode":"2140","district":"Borgerhout","status":"6.  Uitgesteld","reguliere_ophaling":"Ja","budgetjaar":"2050","realisatie":"2050","point_lng":"4.4339029960000289","point_lat":"51.21143726400004"},{"objectid_1":"206","dossier_nummer":"2011230","naam":"Bosuil","straatnaam":"Bosuil","locatie":"tussen Kerkeveldlaan 77-79","postcode":"2100","district":"Deurne","status":"6.  Uitgesteld","reguliere_ophaling":"Ja","budgetjaar":"2050","realisatie":"2050","point_lng":"4.4629306430000497","point_lat":"51.230033964000029"},{"objectid_1":"207","dossier_nummer":"2011231","naam":"Clara Snellingstraat","straatnaam":"Clara Snellingsstraat","locatie":"hoek Eikblokstraat","postcode":"2100","district":"Deurne","status":"6.  Uitgesteld","reguliere_ophaling":"ja","budgetjaar":"2050","realisatie":"2050","point_lng":"4.4630329870000764","point_lat":"51.223920675000045"},{"objectid_1":"208","dossier_nummer":"2011232","naam":"Veltwijcklaan","straatnaam":"Veltwijcklaan","locatie":"48","postcode":"2180","district":"Ekeren","status":"6.  Uitgesteld","reguliere_ophaling":"ja","budgetjaar":"2050","realisatie":"2050","point_lng":"4.4219665060000466","point_lat":"51.277745914000036"},{"objectid_1":"209","dossier_nummer":"2011235","naam":"Van Stralenlei","straatnaam":"Van Stralenlei","locatie":"hoek Sint Bartholomeusstraat","postcode":"2170","district":"Merksem","status":"6.  Uitgesteld","reguliere_ophaling":"ja","budgetjaar":"2050","realisatie":"2050","point_lng":"4.4453366300000425","point_lat":"51.242809798000053"},{"objectid_1":"210","dossier_nummer":"2011175","naam":"REGATTA","straatnaam":"","locatie":"verlengde Aalscholverlaan","postcode":"2050","district":"Antwerpen","status":"4.  In Onderzoek","reguliere_ophaling":"nee","budgetjaar":"2020","realisatie":"2020","point_lng":"4.3660493620000693","point_lat":"51.217137907000051"},{"objectid_1":"211","dossier_nummer":"2011269","naam":"Edison","straatnaam":"Edisonlaan","locatie":"0","postcode":"2030","district":"Antwerpen","status":"4.  In Onderzoek","reguliere_ophaling":"nee","budgetjaar":"0","realisatie":"0","point_lng":"4.4119291760000579","point_lat":"51.291986541000028"},{"objectid_1":"212","dossier_nummer":"2011261","naam":"Lombarden","straatnaam":"Pandstraat","locatie":"","postcode":"2000","district":"Antwerpen","status":"6.  Uitgesteld","reguliere_ophaling":"ja","budgetjaar":"0","realisatie":"0","point_lng":"4.4009918540000399","point_lat":"51.21778783600007"},{"objectid_1":"213","dossier_nummer":"2011223","naam":"EILANDJE","straatnaam":"Kempischdok-Westkaai","locatie":"0","postcode":"2000","district":"Antwerpen","status":"4.  In Onderzoek","reguliere_ophaling":"nee","budgetjaar":"0","realisatie":"0","point_lng":"4.412756742000056","point_lat":"51.234047757000042"},{"objectid_1":"214","dossier_nummer":"2011278","naam":"VALAAR","straatnaam":"Kolonel Slaterplein","locatie":"over nr 1","postcode":"2610","district":"Wilrijk","status":"3.  In Wacht","reguliere_ophaling":"ja","budgetjaar":"","realisatie":"","point_lng":"4.3774473600000761","point_lat":"51.176788599000076"},{"objectid_1":"215","dossier_nummer":"2011279","naam":"VALAAR","straatnaam":"Ridderveld","locatie":"over nr 1","postcode":"2610","district":"Wilrijk","status":"4.  In Onderzoek","reguliere_ophaling":"ja","budgetjaar":"","realisatie":"","point_lng":"4.3745939530000442","point_lat":"51.177485030000071"},{"objectid_1":"216","dossier_nummer":"2011280","naam":"Belgi\u00eblei","straatnaam":"Belgi\u00eblei","locatie":"34","postcode":"2018","district":"Antwerpen","status":"4.  In Onderzoek","reguliere_ophaling":"ja","budgetjaar":"","realisatie":"","point_lng":"4.4213032290000456","point_lat":"51.208346977000076"},{"objectid_1":"217","dossier_nummer":"2011281","naam":"Belgi\u00eblei","straatnaam":"Belgi\u00eblei","locatie":"94","postcode":"2018","district":"Antwerpen","status":"4.  In Onderzoek","reguliere_ophaling":"ja","budgetjaar":"","realisatie":"","point_lng":"4.4184849110000641","point_lat":"51.206312162000074"},{"objectid_1":"218","dossier_nummer":"2011282","naam":"Belgi\u00eblei","straatnaam":"Belgi\u00eblei","locatie":"142","postcode":"2018","district":"Antwerpen","status":"4.  In Onderzoek","reguliere_ophaling":"ja","budgetjaar":"","realisatie":"","point_lng":"4.4156438990000311","point_lat":"51.204320609000035"},{"objectid_1":"219","dossier_nummer":"2011283","naam":"Belgi\u00eblei","straatnaam":"Belgi\u00eblei","locatie":"204","postcode":"2018","district":"Antwerpen","status":"4.  In Onderzoek","reguliere_ophaling":"ja","budgetjaar":"","realisatie":"","point_lng":"4.4129871270000649","point_lat":"51.202444437000054"},{"objectid_1":"220","dossier_nummer":"2011284","naam":"Belgi\u00eblei","straatnaam":"Van Den Nestlei","locatie":"10","postcode":"2018","district":"Antwerpen","status":"4.  In Onderzoek","reguliere_ophaling":"ja","budgetjaar":"","realisatie":"","point_lng":"4.4243795570000657","point_lat":"51.209729996000078"},{"objectid_1":"221","dossier_nummer":"2011268","naam":"Plantin en Moretuslei","straatnaam":"Plantin en Moretuslei","locatie":"123 - 135","postcode":"2140","district":"Borgerhout","status":"6.  Uitgesteld","reguliere_ophaling":"ja","budgetjaar":"2012","realisatie":"2012","point_lng":"4.4278921180000452","point_lat":"51.210143556000048"},{"objectid_1":"222","dossier_nummer":"2011257","naam":"Blancefloerlaan","straatnaam":" ","locatie":"4","postcode":"2050","district":"Antwerpen","status":"4.  In Onderzoek","reguliere_ophaling":"nee","budgetjaar":"2012","realisatie":"2012","point_lng":"4.3864874820000637","point_lat":"51.219858760000079"},{"objectid_1":"223","dossier_nummer":"2011287","naam":"Fodderiestraat","straatnaam":"Fodderiestraat","locatie":"89","postcode":"2660","district":"Hoboken","status":"4.  In Onderzoek","reguliere_ophaling":"NEE","budgetjaar":"","realisatie":"2020","point_lng":"4.3456743860000415","point_lat":"51.180548753000039"},{"objectid_1":"224","dossier_nummer":"2011288","naam":"Pijlstraat","straatnaam":"Pijlstraat","locatie":"1","postcode":"2060","district":"Antwerpen","status":"4.  In Onderzoek","reguliere_ophaling":"0","budgetjaar":"","realisatie":"2012","point_lng":"4.4189122920000727","point_lat":"51.221379196000044"},{"objectid_1":"225","dossier_nummer":"2011289","naam":"Kroonstraat","straatnaam":"Kroonstraat","locatie":"80","postcode":"2140","district":"Borgerhout","status":"4.  In Onderzoek","reguliere_ophaling":"0","budgetjaar":"","realisatie":"2012","point_lng":"4.4296547110000688","point_lat":"51.213808269000026"},{"objectid_1":"226","dossier_nummer":"2011290","naam":"kievit fase II","straatnaam":"van Immerseelstraat","locatie":"1","postcode":"2018","district":"Antwerpen","status":"4.  In Onderzoek","reguliere_ophaling":"nee","budgetjaar":"","realisatie":"2014","point_lng":"4.4226534040000729","point_lat":"51.213048835000052"},{"objectid_1":"227","dossier_nummer":"2011185","naam":"EILANDJE","straatnaam":"Kempischdok-Westkaai","locatie":"26-28","postcode":"2000","district":"Antwerpen","status":"4.  In Onderzoek","reguliere_ophaling":"nee","budgetjaar":"2020","realisatie":"2020","point_lng":"4.4128326030000267","point_lat":"51.233713943000055"},{"objectid_1":"228","dossier_nummer":"2011144","naam":"Jos Van Geellaan","straatnaam":"Deurne","locatie":"over nr 15bis","postcode":"2100","district":"Deurne","status":"5.  Gevraagd","reguliere_ophaling":"Ja","budgetjaar":"2014","realisatie":"2014","point_lng":"4.4688872390000256","point_lat":"51.208336641000074"},{"objectid_1":"229","dossier_nummer":"2011286","naam":"Breedsteert","straatnaam":"verkaveling","locatie":"0","postcode":"2040","district":"Bezali","status":"6.  Uitgesteld","reguliere_ophaling":"NEE","budgetjaar":"","realisatie":"","point_lng":"4.3253164570000422","point_lat":"51.349949861000027"},{"objectid_1":"230","dossier_nummer":"2011291","naam":"BREDERODE","straatnaam":"Fransenplaats","locatie":"3","postcode":"2018","district":"Antwerpen","status":"6.  Uitgesteld","reguliere_ophaling":"0","budgetjaar":"","realisatie":"","point_lng":"4.3978125890000683","point_lat":"51.200572253000075"},{"objectid_1":"231","dossier_nummer":"2011292","naam":"Sint-Vincentius","straatnaam":"Sint-Vincentiusstraat","locatie":"20","postcode":"2018","district":"Antwerpen","status":"6.  Uitgesteld","reguliere_ophaling":"0","budgetjaar":"","realisatie":"","point_lng":"4.4135684950000496","point_lat":"51.205714940000064"},{"objectid_1":"232","dossier_nummer":"2011293","naam":"BREDERODE","straatnaam":"Stockmansstraat","locatie":"7","postcode":"2018","district":"Antwerpen","status":"6.  Uitgesteld","reguliere_ophaling":"ja","budgetjaar":"","realisatie":"2012","point_lng":"4.4050180820000264","point_lat":"51.208916711000029"},{"objectid_1":"233","dossier_nummer":"2011294","naam":"BREDERODE","straatnaam":"Solvynsstraat","locatie":"9","postcode":"2018","district":"Antwerpen","status":"6.  Uitgesteld","reguliere_ophaling":"ja","budgetjaar":"","realisatie":"2012","point_lng":"4.4022601110000323","point_lat":"51.207551558000034"},{"objectid_1":"234","dossier_nummer":"2011295","naam":"BREDERODE","straatnaam":"Bolwerkstraat","locatie":"26","postcode":"2018","district":"Antwerpen","status":"6.  Uitgesteld","reguliere_ophaling":"ja","budgetjaar":"","realisatie":"2012","point_lng":"4.399925473000053","point_lat":"51.207112695000035"},{"objectid_1":"235","dossier_nummer":"2011299","naam":"DAM","straatnaam":"Kalverstraat","locatie":"6","postcode":"2060","district":"Antwerpen","status":"6.  Uitgesteld","reguliere_ophaling":"0","budgetjaar":"","realisatie":"2012","point_lng":"4.4319971180000266","point_lat":"51.230721335000055"},{"objectid_1":"236","dossier_nummer":"2011300","naam":"Baron Dhanislaan","straatnaam":"Emiel Banningstraat","locatie":"15-17","postcode":"2000","district":"Antwerpen","status":"6.  Uitgesteld","reguliere_ophaling":"JA","budgetjaar":"","realisatie":"2013","point_lng":"4.3897224330000313","point_lat":"51.205824458000052"},{"objectid_1":"237","dossier_nummer":"2012301","naam":"0","straatnaam":"0","locatie":"0","postcode":"0","district":"0","status":"0","reguliere_ophaling":"0","budgetjaar":"","realisatie":"0","point_lng":"4.4314727380000249","point_lat":"51.230191540000078"},{"objectid_1":"238","dossier_nummer":"2012302","naam":"DE VELDEKENS","straatnaam":"Kanunnik Peetersstraat","locatie":"thv n\u00b0 70","postcode":"2600","district":"Berchem","status":"4.  In Onderzoek","reguliere_ophaling":"nee","budgetjaar":"0","realisatie":"2012","point_lng":"4.4330880500000376","point_lat":"51.189769045000048"},{"objectid_1":"239","dossier_nummer":"2012303","naam":"Nieuw Zuid - S1","straatnaam":"omgeving Van der Sweepstraat","locatie":"0","postcode":"2000","district":"Antwerpen","status":"4.  In Onderzoek","reguliere_ophaling":"NEE","budgetjaar":"","realisatie":"","point_lng":"4.384804306000035","point_lat":"51.206834021000077"},{"objectid_1":"240","dossier_nummer":"2012304","naam":"Nieuw Zuid - S2","straatnaam":"Striga 1","locatie":"Kant Ledeganckkaai","postcode":"2000","district":"Antwerpen","status":"4.  In Onderzoek","reguliere_ophaling":"NEE","budgetjaar":"","realisatie":"","point_lng":"4.3828589450000663","point_lat":"51.206369128000063"},{"objectid_1":"241","dossier_nummer":"2012305","naam":"Nieuw Zuid - S3","straatnaam":"Striga 1","locatie":"kant snelweg","postcode":"2000","district":"Antwerpen","status":"4.  In Onderzoek","reguliere_ophaling":"NEE","budgetjaar":"","realisatie":"","point_lng":"4.3838863820000711","point_lat":"51.205181786000026"},{"objectid_1":"242","dossier_nummer":"2012306","naam":"Nieuw Zuid - S4","straatnaam":"Striga 2","locatie":"kant  Ledeganckkaai","postcode":"2000","district":"Antwerpen","status":"4.  In Onderzoek","reguliere_ophaling":"NEE","budgetjaar":"","realisatie":"","point_lng":"4.3815988140000286","point_lat":"51.205779155000073"},{"objectid_1":"243","dossier_nummer":"2012308","naam":"Nieuw Zuid - S6","straatnaam":"Striga 3","locatie":"Kant Ledeganckkaai","postcode":"2000","district":"Antwerpen","status":"4.  In Onderzoek","reguliere_ophaling":"NEE","budgetjaar":"","realisatie":"","point_lng":"4.3798302140000374","point_lat":"51.204758774000027"},{"objectid_1":"244","dossier_nummer":"2012310","naam":"Nieuw Zuid  - S8","straatnaam":"Striga 4","locatie":"Kant Ledeganckkaai","postcode":"2020","district":"Antwerpen","status":"4.  In Onderzoek","reguliere_ophaling":"NEE","budgetjaar":"","realisatie":"","point_lng":"4.3784707920000301","point_lat":"51.204557569000031"},{"objectid_1":"245","dossier_nummer":"2012312","naam":"Nieuw Zuid - S10","straatnaam":"Striga 6","locatie":"Kant D'Herbouvillekaai","postcode":"2020","district":"Antwerpen","status":"4.  In Onderzoek","reguliere_ophaling":"NEE","budgetjaar":"","realisatie":"","point_lng":"4.3770892620000268","point_lat":"51.204273038000053"},{"objectid_1":"246","dossier_nummer":"2012307","naam":"Nieuw Zuid - S5","straatnaam":"Striga 2","locatie":"kant snelweg","postcode":"2000","district":"Antwerpen","status":"4.  In Onderzoek","reguliere_ophaling":"NEE","budgetjaar":"","realisatie":"","point_lng":"4.3823610380000559","point_lat":"51.204619628000046"},{"objectid_1":"247","dossier_nummer":"2012309","naam":"Nieuw Zuid - S7","straatnaam":"Striga 3","locatie":"kant snelweg","postcode":"2000","district":"Antwerpen","status":"4.  In Onderzoek","reguliere_ophaling":"NEE","budgetjaar":"","realisatie":"","point_lng":"4.3804931210000291","point_lat":"51.204036659000053"},{"objectid_1":"248","dossier_nummer":"2012311","naam":"Nieuw Zuid  - S9","straatnaam":"Striga 4","locatie":"kant snelweg","postcode":"2020","district":"Antwerpen","status":"4.  In Onderzoek","reguliere_ophaling":"NEE","budgetjaar":"","realisatie":"","point_lng":"4.3792994380000323","point_lat":"51.20362022200004"},{"objectid_1":"249","dossier_nummer":"2012313","naam":"Nieuw Zuid - S11","straatnaam":"Striga 6","locatie":"kant snelweg","postcode":"2020","district":"Antwerpen","status":"4.  In Onderzoek","reguliere_ophaling":"NEE","budgetjaar":"","realisatie":"","point_lng":"4.3782605420000209","point_lat":"51.203405097000029"},{"objectid_1":"250","dossier_nummer":"2011115","naam":"Rozemaai","straatnaam":"Herman Vosstraat","locatie":"7","postcode":"2030","district":"Antwerpen","status":"4.  In Onderzoek","reguliere_ophaling":"nee","budgetjaar":"2014","realisatie":"","point_lng":"4.4119888700000729","point_lat":"51.271610987000031"},{"objectid_1":"251","dossier_nummer":"2011116","naam":"Rozemaai","straatnaam":"Renaat Veremansstraat","locatie":"4","postcode":"2030","district":"Antwerpen","status":"4.  In Onderzoek","reguliere_ophaling":"nee","budgetjaar":"2014","realisatie":"","point_lng":"4.4175236060000316","point_lat":"51.269946284000071"},{"objectid_1":"252","dossier_nummer":"2012314","naam":"Rozemaai","straatnaam":"Jef Van Hoofstraat","locatie":"2","postcode":"2030","district":"Antwerpen","status":"4.  In Onderzoek","reguliere_ophaling":"nee","budgetjaar":"","realisatie":"","point_lng":"4.4178826320000439","point_lat":"51.268370683000057"},{"objectid_1":"253","dossier_nummer":"2012315","naam":"Rozemaai","straatnaam":"Gerard Walschapstraat","locatie":"1","postcode":"2030","district":"Antwerpen","status":"4.  In Onderzoek","reguliere_ophaling":"nee","budgetjaar":"","realisatie":"","point_lng":"4.4161888800000497","point_lat":"51.267387819000078"},{"objectid_1":"254","dossier_nummer":"2012316","naam":"Rozemaai","straatnaam":"100m westen van Renaat Veremanstraat 8","locatie":"0","postcode":"2030","district":"Antwerpen","status":"4.  In Onderzoek","reguliere_ophaling":"nee","budgetjaar":"","realisatie":"","point_lng":"4.4154274760000476","point_lat":"51.269050648000075"},{"objectid_1":"255","dossier_nummer":"2012317","naam":"Rozemaai","straatnaam":"Henry Van De Veldestraat","locatie":"2","postcode":"2030","district":"Antwerpen","status":"4.  In Onderzoek","reguliere_ophaling":"nee","budgetjaar":"","realisatie":"","point_lng":"4.4142649270000334","point_lat":"51.272036613000068"},{"objectid_1":"256","dossier_nummer":"2012319","naam":"Rozemaai","straatnaam":"Pater Strackestraat","locatie":"2","postcode":"2030","district":"Antwerpen","status":"4.  In Onderzoek","reguliere_ophaling":"nee","budgetjaar":"","realisatie":"","point_lng":"4.4121957500000235","point_lat":"51.270340105000059"},{"objectid_1":"257","dossier_nummer":"2012318","naam":"Rozemaai","straatnaam":"Ekersesteenweg","locatie":"4","postcode":"2030","district":"Antwerpen","status":"4.  In Onderzoek","reguliere_ophaling":"nee","budgetjaar":"","realisatie":"","point_lng":"4.417300932000046","point_lat":"51.272179140000048"},{"objectid_1":"258","dossier_nummer":"2012320","naam":"VALAAR","straatnaam":"Cliviastraat","locatie":"lotusstraat","postcode":"2610","district":"Wilrijk","status":"4.  In Onderzoek","reguliere_ophaling":"0","budgetjaar":"","realisatie":"","point_lng":"4.3845974720000527","point_lat":"51.178654144000063"},{"objectid_1":"259","dossier_nummer":"2012321","naam":"Krugerstraat","straatnaam":"Krugerstraat","locatie":"7","postcode":"2660","district":"Hoboken","status":"4.  In Onderzoek","reguliere_ophaling":"ja","budgetjaar":"","realisatie":"","point_lng":"4.3709602800000198","point_lat":"51.182425561000059"},{"objectid_1":"260","dossier_nummer":"2012323","naam":"EILANDJE","straatnaam":"Nassaustraat","locatie":"43","postcode":"2000","district":"Antwerpen","status":"6.  Uitgesteld","reguliere_ophaling":"JA","budgetjaar":"","realisatie":"2012","point_lng":"4.4056333050000376","point_lat":"51.229908794000039"},{"objectid_1":"261","dossier_nummer":"2012322","naam":"SINT-JAN","straatnaam":"Sint Jansplein","locatie":"Van De Wervestraat","postcode":"2060","district":"Antwerpen","status":"1.  Uitgevoerd","reguliere_ophaling":"ja","budgetjaar":"","realisatie":"2012","point_lng":"4.4170257100000754","point_lat":"51.225849868000068"},{"objectid_1":"262","dossier_nummer":"2012324","naam":"EILANDJE","straatnaam":"Bordeauxstraat","locatie":"1","postcode":"2000","district":"Antwerpen","status":"3.  In Wacht","reguliere_ophaling":"JA","budgetjaar":"","realisatie":"2013","point_lng":"4.4092238860000634","point_lat":"51.230746999000075"},{"objectid_1":"263","dossier_nummer":"2008006","naam":"DRAAIBOOM","straatnaam":"Alfred Nobellaan","locatie":"1","postcode":"2660","district":"Hoboken","status":"1.  Uitgevoerd","reguliere_ophaling":"nee","budgetjaar":"2008","realisatie":"2009","point_lng":"4.3608058410000581","point_lat":"51.177232225000068"},{"objectid_1":"264","dossier_nummer":"2009022","naam":"HOF TER LO","straatnaam":"Buurtspoorweglei","locatie":"0","postcode":"2140","district":"Borgerhout","status":"2.  In Aanleg","reguliere_ophaling":"nee","budgetjaar":"2009","realisatie":"2012","point_lng":"4.4462427220000222","point_lat":"51.218671638000046"},{"objectid_1":"265","dossier_nummer":"2009024","naam":"EKSTERLAER","straatnaam":"Vuurwerkstraat","locatie":"begin groen zone","postcode":"2100","district":"Deurne","status":"4.  In Onderzoek","reguliere_ophaling":"nee","budgetjaar":"2009","realisatie":"2013","point_lng":"4.4711798610000528","point_lat":"51.204054126000074"},{"objectid_1":"266","dossier_nummer":"2010027","naam":"STUDENTENBUURT","straatnaam":"Pieter van Hobokenstraat","locatie":"23","postcode":"2000","district":"Antwerpen","status":"6.  Uitgesteld","reguliere_ophaling":"ja","budgetjaar":"2010","realisatie":"2011","point_lng":"4.4130163550000248","point_lat":"51.221865239000067"},{"objectid_1":"267","dossier_nummer":"2009019","naam":"EILANDJE","straatnaam":"Kattendijkdok-Oostkaai","locatie":"hoek Madrasstraat","postcode":"2000","district":"Antwerpen","status":"4.  In Onderzoek","reguliere_ophaling":"ja","budgetjaar":"2009","realisatie":"2012","point_lng":"4.4092281360000243","point_lat":"51.235515787000054"},{"objectid_1":"268","dossier_nummer":"2009020","naam":"EILANDJE","straatnaam":"Madrasstraat","locatie":"tegenover gebouw kaai 20","postcode":"2000","district":"Antwerpen","status":"4.  In Onderzoek","reguliere_ophaling":"ja","budgetjaar":"2009","realisatie":"2012","point_lng":"4.4092112630000315","point_lat":"51.235676037000076"},{"objectid_1":"269","dossier_nummer":"2009021","naam":"TERLOPLEIN","straatnaam":"Statielei","locatie":"over nr 109 en Albrecht Rodenbachstraat 44","postcode":"2140","district":"Borgerhout","status":"3.  In Wacht","reguliere_ophaling":"Ja","budgetjaar":"2011","realisatie":"2012","point_lng":"4.4444290210000759","point_lat":"51.219008596000037"},{"objectid_1":"270","dossier_nummer":"2010030","naam":"MILITAIR HOSPITAAL","straatnaam":"Boomgaardstraat","locatie":"achter nr 143","postcode":"2018","district":"Antwerpen","status":"3.  In Wacht","reguliere_ophaling":"nee","budgetjaar":"2010","realisatie":"2013","point_lng":"4.4256042730000331","point_lat":"51.201379815000053"},{"objectid_1":"271","dossier_nummer":"2010031","naam":"MILITAIR HOSPITAAL","straatnaam":"Pater Pirestraat","locatie":"t.h.v. uitrit Lange Leemstraat","postcode":"2018","district":"Antwerpen","status":"3.  In Wacht","reguliere_ophaling":"nee","budgetjaar":"2010","realisatie":"2012","point_lng":"4.4262612990000321","point_lat":"51.203700332000039"},{"objectid_1":"272","dossier_nummer":"2010042","naam":"STUDENTENBUURT","straatnaam":"Paardenmarkt","locatie":"Venusstraat","postcode":"2000","district":"Antwerpen","status":"2.  In Aanleg","reguliere_ophaling":"ja","budgetjaar":"2010","realisatie":"2012","point_lng":"4.4094317180000644","point_lat":"51.225024305000034"},{"objectid_1":"273","dossier_nummer":"2011045","naam":"NATIONALESTRAAT","straatnaam":"Nationalestraat - Drukkerijstraat","locatie":"9 en tegenover nr 18","postcode":"2000","district":"Antwerpen","status":"2.  In Aanleg","reguliere_ophaling":"ja","budgetjaar":"2011","realisatie":"2012","point_lng":"4.3992736350000428","point_lat":"51.216999878000081"},{"objectid_1":"274","dossier_nummer":"2011046","naam":"NATIONALESTRAAT","straatnaam":"Schoytestraat","locatie":"2","postcode":"2000","district":"Antwerpen","status":"6.  Uitgesteld","reguliere_ophaling":"ja","budgetjaar":"2011","realisatie":"2012","point_lng":"4.3979003390000457","point_lat":"51.214056682000034"},{"objectid_1":"275","dossier_nummer":"2011047","naam":"NATIONALESTRAAT","straatnaam":"Kronenburgstraat","locatie":"43\/1","postcode":"2000","district":"Antwerpen","status":"4.  In Onderzoek","reguliere_ophaling":"ja","budgetjaar":"2011","realisatie":"2012","point_lng":"4.3977275310000437","point_lat":"51.212042046000079"},{"objectid_1":"276","dossier_nummer":"2011048","naam":"Kloosterstraat","straatnaam":"Kloosterstraat","locatie":"hoek met Oever","postcode":"2000","district":"Antwerpen","status":"5.  Gevraagd","reguliere_ophaling":"ja","budgetjaar":"2011","realisatie":"2011","point_lng":"4.3962392650000766","point_lat":"51.217496513000071"},{"objectid_1":"277","dossier_nummer":"2011049","naam":"BREDERODE","straatnaam":"Kielsevest","locatie":"thv nr 44-46","postcode":"2018","district":"Antwerpen","status":"6.  Uitgesteld","reguliere_ophaling":"Ja","budgetjaar":"2011","realisatie":"2011","point_lng":"4.393312844000036","point_lat":"51.19785063300003"},{"objectid_1":"278","dossier_nummer":"2011050","naam":"Broederminstraat","straatnaam":"Broederminstraat","locatie":"41","postcode":"2018","district":"Antwerpen","status":"6.  Uitgesteld","reguliere_ophaling":"Ja","budgetjaar":"2011","realisatie":"2011","point_lng":"4.3947147890000338","point_lat":"51.202481918000046"},{"objectid_1":"279","dossier_nummer":"2011051","naam":"Brialmontlei","straatnaam":"Brialmontlei","locatie":"hoek Plantin Moretuslei\/Charlottalei","postcode":"2018","district":"Antwerpen","status":"5.  Gevraagd","reguliere_ophaling":"Ja","budgetjaar":"2011","realisatie":"2011","point_lng":"4.4185399880000205","point_lat":"51.210005098000067"},{"objectid_1":"280","dossier_nummer":"2011052","naam":"Lange Leemstraat","straatnaam":"Lange Leemstr","locatie":"pleintje  met Isabellalei\/Sint Vincentiusstr","postcode":"2018","district":"Antwerpen","status":"5.  Gevraagd","reguliere_ophaling":"Ja","budgetjaar":"2011","realisatie":"2011","point_lng":"4.414985156000057","point_lat":"51.206806476000054"},{"objectid_1":"281","dossier_nummer":"2011298","naam":"BREDERODE","straatnaam":"Halve Maanstraat","locatie":"hoek met Lange Batterijstraat","postcode":"2018","district":"Antwerpen","status":"4.  In Onderzoek","reguliere_ophaling":"ja","budgetjaar":"","realisatie":"2012","point_lng":"4.3956963230000383","point_lat":"51.203584870000043"},{"objectid_1":"282","dossier_nummer":"2011054","naam":"DAM","straatnaam":"Weilandstraat","locatie":"hoek met Kalverstraat","postcode":"2060","district":"Antwerpen","status":"6.  Uitgesteld","reguliere_ophaling":"nee","budgetjaar":"2011","realisatie":"2011","point_lng":"4.4315271720000737","point_lat":"51.230854702000045"},{"objectid_1":"283","dossier_nummer":"2011296","naam":"DAM","straatnaam":"Eendrachtstraat","locatie":"29","postcode":"2060","district":"Antwerpen","status":"1.  Uitgevoerd","reguliere_ophaling":"nee","budgetjaar":"","realisatie":"2012","point_lng":"4.4377014440000266","point_lat":"51.228572112000052"},{"objectid_1":"284","dossier_nummer":"2012325","naam":"BORGERWEERT","straatnaam":"Antoon Marstboomstraat","locatie":"0","postcode":"2050","district":"Antwerpen","status":"2.  In Aanleg","reguliere_ophaling":"JA","budgetjaar":"","realisatie":"2012","point_lng":"4.3762235710000255","point_lat":"51.219355499000073"},{"objectid_1":"285","dossier_nummer":"2012326","naam":"BORGERWEERT","straatnaam":"Edmond De Coussemakerstraat","locatie":"41","postcode":"2050","district":"Antwerpen","status":"4.  In Onderzoek","reguliere_ophaling":"JA","budgetjaar":"","realisatie":"2012","point_lng":"4.3751480220000758","point_lat":"51.217896678000045"},{"objectid_1":"286","dossier_nummer":"2012328","naam":"DAM","straatnaam":"Dijlestraat","locatie":"tegenover nr 1","postcode":"2060","district":"Antwerpen","status":"6.  Uitgesteld","reguliere_ophaling":"0","budgetjaar":"","realisatie":"","point_lng":"4.4301670950000585","point_lat":"51.230913624000038"},{"objectid_1":"287","dossier_nummer":"2012327","naam":"Oude Luchtbal","straatnaam":"Bostonstraat","locatie":"0","postcode":"2030","district":"Antwerpen","status":"5.  Gevraagd","reguliere_ophaling":"JA","budgetjaar":"","realisatie":"","point_lng":"4.4301086900000541","point_lat":"51.229916096000068"},{"objectid_1":"288","dossier_nummer":"2012329","naam":"Oude Stadscentrum","straatnaam":"Groenkerkhofstraat","locatie":"2","postcode":"2000","district":"Antwerpen","status":"4.  In Onderzoek","reguliere_ophaling":"0","budgetjaar":"","realisatie":"","point_lng":"4.4006881390000672","point_lat":"51.218711475000077"},{"objectid_1":"289","dossier_nummer":"2012330","naam":"Oude Stadscentrum","straatnaam":"Wisselstraat","locatie":"op hoek met Grote Markt nr 15","postcode":"2000","district":"Antwerpen","status":"4.  In Onderzoek","reguliere_ophaling":"0","budgetjaar":"","realisatie":"","point_lng":"4.4003912940000305","point_lat":"51.221488417000046"},{"objectid_1":"290","dossier_nummer":"2012331","naam":"Oude Stadscentrum","straatnaam":"Zand","locatie":"tegenover nr 1","postcode":"2000","district":"Antwerpen","status":"4.  In Onderzoek","reguliere_ophaling":"0","budgetjaar":"","realisatie":"","point_lng":"4.396385925000061","point_lat":"51.219720982000069"},{"objectid_1":"291","dossier_nummer":"2012332","naam":"Scanfil_extra locatie","straatnaam":"Fodderiestraat (kant Hertoglei)","locatie":"0","postcode":"2660","district":"Hoboken","status":"4.  In Onderzoek","reguliere_ophaling":"nee","budgetjaar":"2014","realisatie":"2014","point_lng":"4.3457614820000572","point_lat":"51.18046428100007"},{"objectid_1":"292","dossier_nummer":"2012333","naam":"Sint-Elisabethstraat","straatnaam":"Sint-Elisabethstraat","locatie":"59","postcode":"2060","district":"Antwerpen","status":"4.  In Onderzoek","reguliere_ophaling":"0","budgetjaar":"","realisatie":"","point_lng":"4.4240315710000573","point_lat":"51.222841448000054"},{"objectid_1":"293","dossier_nummer":"2009023","naam":"HOF TER LO","straatnaam":"Hof ter Lo","locatie":"11","postcode":"2140","district":"Borgerhout","status":"2.  In Aanleg","reguliere_ophaling":"nee","budgetjaar":"2009","realisatie":"2012","point_lng":"4.4468882770000278","point_lat":"51.220564425000077"},{"objectid_1":"294","dossier_nummer":"2010041","naam":"KRUGERPARK","straatnaam":"Borsbeekstraat","locatie":"Gijselsstraat","postcode":"2140","district":"Borgerhout","status":"2.  In Aanleg","reguliere_ophaling":"Ja","budgetjaar":"2010","realisatie":"2012","point_lng":"4.4428327990000298","point_lat":"51.21627268800006"},{"objectid_1":"295","dossier_nummer":"2012334","naam":"Koxplein","straatnaam":"Bleekhofstraat","locatie":"60","postcode":"2140","district":"Borgerhout","status":"5.  Gevraagd","reguliere_ophaling":"JA","budgetjaar":"2014","realisatie":"2014","point_lng":"4.4326656720000415","point_lat":"51.211335197000039"},{"objectid_1":"296","dossier_nummer":"2012335","naam":"Lt. Lippenslaan","straatnaam":"Te Boelaarlei","locatie":"1-3","postcode":"2140","district":"Borgerhout","status":"5.  Gevraagd","reguliere_ophaling":"ja","budgetjaar":"","realisatie":"2014","point_lng":"4.4523439310000299","point_lat":"51.210222291000036"},{"objectid_1":"297","dossier_nummer":"2012336","naam":"Hulkstraat","straatnaam":"Hulkstraat","locatie":"26","postcode":"2040","district":"Bezali","status":"6.  Uitgesteld","reguliere_ophaling":"ja","budgetjaar":"","realisatie":"2014","point_lng":"4.3070870070000637","point_lat":"51.35746105700008"},{"objectid_1":"298","dossier_nummer":"2011056","naam":"DAM","straatnaam":"Lange Lobroekstraat","locatie":"De Marbaixstraat","postcode":"2060","district":"Antwerpen","status":"1.  Uitgevoerd","reguliere_ophaling":"ja","budgetjaar":"2011","realisatie":"2012","point_lng":"4.4374205890000553","point_lat":"51.227290807000031"},{"objectid_1":"299","dossier_nummer":"2011274","naam":"ROZEMAAI","straatnaam":"Pater Strackestraat","locatie":"9","postcode":"2030","district":"Antwerpen","status":"1.  Uitgevoerd","reguliere_ophaling":"nee","budgetjaar":"","realisatie":"2010","point_lng":"4.4145567730000721","point_lat":"51.270230259000073"},{"objectid_1":"300","dossier_nummer":"2011142","naam":"KRONENBURG","straatnaam":"Van Duyststraat","locatie":"255","postcode":"2100","district":"Deurne","status":"1.  Uitgevoerd","reguliere_ophaling":"Ja","budgetjaar":"2012","realisatie":"2012","point_lng":"4.4530942070000492","point_lat":"51.232802136000032"},{"objectid_1":"301","dossier_nummer":"2008001","naam":"TER WILGEN","straatnaam":"Urbain Renierstraat","locatie":"hoek Adolf Menystraat","postcode":"2050","district":"Antwerpen","status":"1.  Uitgevoerd","reguliere_ophaling":"nee","budgetjaar":"2008","realisatie":"2009","point_lng":"4.3765061670000591","point_lat":"51.22663835600008"},{"objectid_1":"302","dossier_nummer":"2008003","naam":"HALEWIJNLAAN","straatnaam":"Halewijnlaan","locatie":"45-47","postcode":"2050","district":"Antwerpen","status":"1.  Uitgevoerd","reguliere_ophaling":"nee","budgetjaar":"2008","realisatie":"2009","point_lng":"4.3786723630000211","point_lat":"51.224695660000066"},{"objectid_1":"303","dossier_nummer":"2008002","naam":"HALEWIJNLAAN","straatnaam":"Halewijnlaan","locatie":"41-43","postcode":"2050","district":"Antwerpen","status":"1.  Uitgevoerd","reguliere_ophaling":"nee","budgetjaar":"2008","realisatie":"2009","point_lng":"4.3787062960000753","point_lat":"51.225545129000068"},{"objectid_1":"304","dossier_nummer":"2008004","naam":"COSTER\/ELSSCHOT","straatnaam":"Willem Elsschotstraat","locatie":"5","postcode":"2050","district":"Antwerpen","status":"1.  Uitgevoerd","reguliere_ophaling":"nee","budgetjaar":"2008","realisatie":"2009","point_lng":"4.3805545890000417","point_lat":"51.226112150000063"},{"objectid_1":"305","dossier_nummer":"2008005","naam":"COSTER - ELSSCHOT","straatnaam":"Charles de Costerlaan","locatie":"15","postcode":"2050","district":"Antwerpen","status":"1.  Uitgevoerd","reguliere_ophaling":"nee","budgetjaar":"2008","realisatie":"2009","point_lng":"4.3799850490000267","point_lat":"51.226720690000036"},{"objectid_1":"306","dossier_nummer":"2008007","naam":"DRAAIBOOM","straatnaam":"Gandhilaan","locatie":"overzijde nr 40","postcode":"2660","district":"Hoboken","status":"1.  Uitgevoerd","reguliere_ophaling":"nee","budgetjaar":"2008","realisatie":"2009","point_lng":"4.3636673050000354","point_lat":"51.177840091000064"},{"objectid_1":"307","dossier_nummer":"2008009","naam":"VINKENVELDEN","straatnaam":"Moretusstraat","locatie":"154","postcode":"2660","district":"Hoboken","status":"1.  Uitgevoerd","reguliere_ophaling":"nee","budgetjaar":"2008","realisatie":"2009","point_lng":"4.3490059230000497","point_lat":"51.169060456000068"},{"objectid_1":"308","dossier_nummer":"2009010","naam":"STUDENTENBUURT","straatnaam":"Molenbergstraat","locatie":"10","postcode":"2000","district":"Antwerpen","status":"1.  Uitgevoerd","reguliere_ophaling":"ja","budgetjaar":"2009","realisatie":"2010","point_lng":"4.4155686310000419","point_lat":"51.220574158000034"},{"objectid_1":"309","dossier_nummer":"2009011","naam":"SINT-ANDRIES","straatnaam":"Willem Lepelstraat","locatie":"19","postcode":"2000","district":"Antwerpen","status":"1.  Uitgevoerd","reguliere_ophaling":"ja","budgetjaar":"2009","realisatie":"2010","point_lng":"4.3958627890000344","point_lat":"51.213238453000031"},{"objectid_1":"310","dossier_nummer":"2009012","naam":"SINT-ANDRIES","straatnaam":"Prekersstraat","locatie":"18","postcode":"2000","district":"Antwerpen","status":"1.  Uitgevoerd","reguliere_ophaling":"ja","budgetjaar":"2009","realisatie":"2010","point_lng":"4.3966450780000628","point_lat":"51.214053903000035"},{"objectid_1":"311","dossier_nummer":"2009013","naam":"SILVERTOP","straatnaam":"Jan Denuc\u00e9straat","locatie":"11","postcode":"2020","district":"Antwerpen","status":"1.  Uitgevoerd","reguliere_ophaling":"nee","budgetjaar":"2009","realisatie":"2010","point_lng":"4.3889133600000605","point_lat":"51.19572592600008"},{"objectid_1":"312","dossier_nummer":"2009014","naam":"SILVERTOP","straatnaam":"Ontmoetingsplein","locatie":"0","postcode":"2020","district":"Antwerpen","status":"1.  Uitgevoerd","reguliere_ophaling":"nee","budgetjaar":"2009","realisatie":"2010","point_lng":"4.3906195980000575","point_lat":"51.194874501000072"},{"objectid_1":"313","dossier_nummer":"2009015","naam":"SILVERTOP","straatnaam":"Volhardingstraat","locatie":"91","postcode":"2020","district":"Antwerpen","status":"1.  Uitgevoerd","reguliere_ophaling":"nee","budgetjaar":"2009","realisatie":"2010","point_lng":"4.3903956810000295","point_lat":"51.194189713000071"},{"objectid_1":"314","dossier_nummer":"2009016","naam":"SINT-JAN","straatnaam":"Ellermanstraat","locatie":"Dambruggestraat","postcode":"2060","district":"Antwerpen","status":"1.  Uitgevoerd","reguliere_ophaling":"nee","budgetjaar":"2009","realisatie":"2010","point_lng":"4.4210258920000456","point_lat":"51.230006062000029"},{"objectid_1":"315","dossier_nummer":"2009017","naam":"GROENINGERPLEIN","straatnaam":"Groeningerplein","locatie":"7 - 8 - 9","postcode":"2140","district":"Borgerhout","status":"1.  Uitgevoerd","reguliere_ophaling":"ja","budgetjaar":"2009","realisatie":"2010","point_lng":"4.438791836000064","point_lat":"51.219920721000051"},{"objectid_1":"316","dossier_nummer":"2009018","naam":"FONTEINSTRAAT","straatnaam":"Fonteinstraat","locatie":"31","postcode":"2140","district":"Borgerhout","status":"1.  Uitgevoerd","reguliere_ophaling":"Ja","budgetjaar":"2009","realisatie":"2010","point_lng":"4.44254588900003","point_lat":"51.212077994000026"},{"objectid_1":"317","dossier_nummer":"2010026","naam":"STUDENTENBUURT","straatnaam":"Gratiekapelstraat","locatie":"9","postcode":"2000","district":"Antwerpen","status":"1.  Uitgevoerd","reguliere_ophaling":"ja","budgetjaar":"2010","realisatie":"2011","point_lng":"4.4084510600000613","point_lat":"51.221970402000068"},{"objectid_1":"318","dossier_nummer":"2010028","naam":"ZUIDERVELODROOM","straatnaam":"Zuidervelodroom","locatie":"over nr 34","postcode":"2018","district":"Antwerpen","status":"1.  Uitgevoerd","reguliere_ophaling":"nee","budgetjaar":"2010","realisatie":"2012","point_lng":"4.3983776050000642","point_lat":"51.201874881000037"},{"objectid_1":"319","dossier_nummer":"2010034","naam":"DAM","straatnaam":"Noordschippersdok","locatie":"achter nr 29-31-33","postcode":"2060","district":"Antwerpen","status":"1.  Uitgevoerd","reguliere_ophaling":"nee","budgetjaar":"2010","realisatie":"2011","point_lng":"4.4294495250000523","point_lat":"51.234167274000072"},{"objectid_1":"320","dossier_nummer":"2010035","naam":"DUINSTRAAT","straatnaam":"Duinstraat","locatie":"Geelhandsplaats","postcode":"2060","district":"Antwerpen","status":"1.  Uitgevoerd","reguliere_ophaling":"ja","budgetjaar":"2010","realisatie":"2012","point_lng":"4.4306923210000377","point_lat":"51.222515849000047"},{"objectid_1":"321","dossier_nummer":"2010044","naam":"SINT-JAN","straatnaam":"Sint-Jansplein","locatie":"Oudesteenweg","postcode":"2060","district":"Antwerpen","status":"1.  Uitgevoerd","reguliere_ophaling":"ja","budgetjaar":"2010","realisatie":"2012","point_lng":"4.41828694000003","point_lat":"51.224824789000081"},{"objectid_1":"322","dossier_nummer":"2011053","naam":"DAM","straatnaam":"Maasstraat","locatie":"2","postcode":"2060","district":"Antwerpen","status":"1.  Uitgevoerd","reguliere_ophaling":"nee","budgetjaar":"2011","realisatie":"2011","point_lng":"4.4261507580000625","point_lat":"51.232990931000074"},{"objectid_1":"323","dossier_nummer":"2008008","naam":"VINKENVELDEN","straatnaam":"Paul Henri Spaaklaan","locatie":"1","postcode":"2660","district":"Hoboken","status":"1.  Uitgevoerd","reguliere_ophaling":"nee","budgetjaar":"2008","realisatie":"2009","point_lng":"4.3480807300000492","point_lat":"51.170145777000073"},{"objectid_1":"324","dossier_nummer":"2009025","naam":"VALAAR","straatnaam":"Gebroeders De Wachterstraat","locatie":"21-199","postcode":"2610","district":"Wilrijk","status":"1.  Uitgevoerd","reguliere_ophaling":"Ja","budgetjaar":"2009","realisatie":"2011","point_lng":"4.3798249840000381","point_lat":"51.17670128900005"},{"objectid_1":"325","dossier_nummer":"2010029","naam":"MILITAIR HOSPITAAL","straatnaam":"Albert Claudestraat","locatie":"11","postcode":"2018","district":"Antwerpen","status":"1.  Uitgevoerd","reguliere_ophaling":"nee","budgetjaar":"2010","realisatie":"2011","point_lng":"4.4224635290000265","point_lat":"51.201743631000056"},{"objectid_1":"326","dossier_nummer":"2010032","naam":"DAM","straatnaam":"Twee Netenstraat","locatie":"1","postcode":"2060","district":"Antwerpen","status":"1.  Uitgevoerd","reguliere_ophaling":"nee","budgetjaar":"2010","realisatie":"2011","point_lng":"4.4283593790000282","point_lat":"51.231726389000073"},{"objectid_1":"327","dossier_nummer":"2010033","naam":"DAM","straatnaam":"Rupelstraat","locatie":"83","postcode":"2060","district":"Antwerpen","status":"1.  Uitgevoerd","reguliere_ophaling":"nee","budgetjaar":"2010","realisatie":"2011","point_lng":"4.430593373000022","point_lat":"51.232882506000067"},{"objectid_1":"328","dossier_nummer":"2010036","naam":"DUINSTRAAT","straatnaam":"Pesthofstraat","locatie":"35","postcode":"2060","district":"Antwerpen","status":"1.  Uitgevoerd","reguliere_ophaling":"ja","budgetjaar":"2010","realisatie":"2012","point_lng":"4.4334818480000422","point_lat":"51.222910220000074"},{"objectid_1":"329","dossier_nummer":"2010037","naam":"DUINSTRAAT","straatnaam":"Duinstraat","locatie":"Lange Zavelstraat","postcode":"2060","district":"Antwerpen","status":"1.  Uitgevoerd","reguliere_ophaling":"ja","budgetjaar":"2010","realisatie":"2012","point_lng":"4.4273114080000369","point_lat":"51.22201810100006"},{"objectid_1":"330","dossier_nummer":"2010038","naam":"NIJVERHEIDSTRAAT","straatnaam":"Nijverheidstraat","locatie":"Wilgenstraat","postcode":"2060","district":"Antwerpen","status":"1.  Uitgevoerd","reguliere_ophaling":"ja","budgetjaar":"2010","realisatie":"2011","point_lng":"4.4283738450000669","point_lat":"51.225522380000029"},{"objectid_1":"331","dossier_nummer":"2010039","naam":"REGATTA","straatnaam":"Emile Dancolaan","locatie":"hoek Hugues C. Pernathlaan","postcode":"2050","district":"Antwerpen","status":"1.  Uitgevoerd","reguliere_ophaling":"nee","budgetjaar":"2010","realisatie":"2011","point_lng":"4.3674772990000292","point_lat":"51.219387821000055"},{"objectid_1":"332","dossier_nummer":"2010040","naam":"REGATTA","straatnaam":"Hugues C. Pernathlaan","locatie":"hoek Cornellielaan","postcode":"2050","district":"Antwerpen","status":"1.  Uitgevoerd","reguliere_ophaling":"nee","budgetjaar":"2010","realisatie":"2011","point_lng":"4.3677861770000277","point_lat":"51.218257243000039"},{"objectid_1":"333","dossier_nummer":"2011055","naam":"DAM","straatnaam":"Lange Lobroekstraat","locatie":"Ceulemansstraat","postcode":"2060","district":"Antwerpen","status":"1.  Uitgevoerd","reguliere_ophaling":"ja","budgetjaar":"2011","realisatie":"2012","point_lng":"4.4347642420000284","point_lat":"51.228491602000076"},{"objectid_1":"334","dossier_nummer":"2011285","naam":"VENNEBORG","straatnaam":"Venneborglaan","locatie":"Alfons Schneiderlaan","postcode":"2100","district":"Deurne","status":"1.  Uitgevoerd","reguliere_ophaling":"ja","budgetjaar":"","realisatie":"2012","point_lng":"4.475758115000076","point_lat":"51.223929431000045"},{"objectid_1":"335","dossier_nummer":"2011297","naam":"DAM","straatnaam":"Lange Lobroekstraat","locatie":"Lange Slachterijstraat","postcode":"2060","district":"Antwerpen","status":"1.  Uitgevoerd","reguliere_ophaling":"ja","budgetjaar":"","realisatie":"2012","point_lng":"4.4331851180000399","point_lat":"51.229194926000048"},{"objectid_1":"336","dossier_nummer":"2010043","naam":"STUDENTENBUURT","straatnaam":"Paardenmarkt","locatie":"Rodestraat","postcode":"2000","district":"Antwerpen","status":"2.  In Aanleg","reguliere_ophaling":"ja","budgetjaar":"2010","realisatie":"2012","point_lng":"4.4133438330000558","point_lat":"51.224645098000053"},{"objectid_1":"337","dossier_nummer":"2012338","naam":"Kloosterstraat","straatnaam":"Driehoekstraat","locatie":"2","postcode":"2180","district":"Ekeren","status":"6.  Uitgesteld","reguliere_ophaling":"0","budgetjaar":"","realisatie":"2014","point_lng":"4.4191514010000219","point_lat":"51.279657375000056"},{"objectid_1":"338","dossier_nummer":"2012337","naam":"Kloosterstraat","straatnaam":"Kristus Koningplein","locatie":"9","postcode":"2180","district":"Ekeren","status":"6.  Uitgesteld","reguliere_ophaling":"0","budgetjaar":"","realisatie":"2014","point_lng":"4.4186317300000724","point_lat":"51.278333320000058"},{"objectid_1":"339","dossier_nummer":"2012339","naam":"Kloosterstraat","straatnaam":"Kloosterstraat","locatie":"83","postcode":"2180","district":"Ekeren","status":"6.  Uitgesteld","reguliere_ophaling":"0","budgetjaar":"","realisatie":"2014","point_lng":"4.417561987000056","point_lat":"51.282150374000082"},{"objectid_1":"340","dossier_nummer":"2012340","naam":"Kloosterstraat","straatnaam":"Kloosterstraat","locatie":"149","postcode":"2180","district":"Ekeren","status":"6.  Uitgesteld","reguliere_ophaling":"0","budgetjaar":"","realisatie":"2014","point_lng":"4.4159998460000338","point_lat":"51.284148320000043"},{"objectid_1":"341","dossier_nummer":"2012341","naam":"Operaplein","straatnaam":"Frankrijklei","locatie":"nog niet bepaalt","postcode":"2000","district":"Antwerpen","status":"4.  In Onderzoek","reguliere_ophaling":"0","budgetjaar":"","realisatie":"","point_lng":"4.4156300710000664","point_lat":"51.219495105000078"}]}