"data_type";"title";"description";"street";"postal";"district";"long";"lat"
"glascontainer";"382";;"maccabilaan null";"2660";;"4.3381984030000353";"51.175783092000074"
"glascontainer";"279";;"grotebaan 23";"2660";;"4.3415041210000709";"51.172884624000062"
"glascontainer";"208";;"jozef leemanslaan null";"2660";;"4.3440383540000198";"51.173974972000053"
"glascontainer";"041";;"smallandlaan 7";"2660";;"4.3370690070000251";"51.181813671000043"
"glascontainer";"033";;"smallandlaan 7";"2660";;"4.3371768510000379";"51.181860322000034"
"glascontainer";"116";;"smallandlaan 7";"2660";;"4.3372712270000306";"51.181902727000079"
"glascontainer";"196";;"smallandlaan 7";"2660";;"4.3373723550000705";"51.181940891000067"
"glascontainer";"244";;"restringenlaan null";"2660";;"4.3419018410000376";"51.18514164100003"
"glascontainer";"098";;"schroeilaan null";"2660";;"4.3478369860000612";"51.182850028000075"
"glascontainer";"114";;"schroeilaan null";"2660";;"4.3479178900000761";"51.182883937000042"
"glascontainer";"253";;"berkenrodelei 126";"2660";;"4.3488084230000368";"51.181744066000078"
"glascontainer";"201";;"commandant weynsstraat 116";"2660";;"4.3526513440000372";"51.183384712000077"
"glascontainer";"212";;"van de perrelei 9";"2660";;"4.3555721750000203";"51.179274190000058"
"glascontainer";"194";;"steynstraat 330";"2660";;"4.3663129160000267";"51.183978951000029"
"glascontainer";"013";;"steynstraat 330";"2660";;"4.3663870850000421";"51.184021332000043"
"glascontainer";"448";;"weerstandlaan 6A";"2660";;"4.3690299470000582";"51.185691718000044"
"glascontainer";"010";;"zeelandstraat null";"2660";;"4.3711002840000219";"51.18524059300006"
"glascontainer";"198";;"zeelandstraat null";"2660";;"4.3710708380000369";"51.185261258000025"
"glascontainer";"630";;"voetbalstraat 32";"2660";;"4.3733034030000226";"51.183848182000077"
"glascontainer";"183";;"huisblokstraat null";"2610";;"4.3852461070000572";"51.176420101000076"
"glascontainer";"088";;"huisblokstraat null";"2610";;"4.3852575500000626";"51.176390842000046"
"glascontainer";"032";;"gebroeders de wachterstraat null";"2610";;"4.3806672660000459";"51.176705288000051"
"glascontainer";"149";;"gebroeders de wachterstraat null";"2610";;"4.380725324000025";"51.176707717000056"
"glascontainer";"080";;"pastoor bauwenslaan 67";"2610";;"4.3782719600000632";"51.179058166000061"
"glascontainer";"192";;"pastoor bauwenslaan 67";"2610";;"4.3783106660000612";"51.179036267000072"
"glascontainer";"441";;"ridderveld 11";"2610";;"4.3747218030000568";"51.177158322000082"
"glascontainer";"325";;"schoonselhoflei null";"2660";;"4.3676588150000271";"51.176158469000029"
"glascontainer";"235";;"alfred nobellaan 16";"2660";;"4.3608060830000568";"51.177176216000078"
"glascontainer";"014";;"paul vekemanslaan null";"2660";;"4.3632608890000597";"51.176051250000057"
"glascontainer";"104";;"paul vekemanslaan null";"2660";;"4.3632439780000709";"51.176001147000079"
"glascontainer";"348";;"salesianenlaan null";"2660";;"4.3673412150000672";"51.173118539000029"
"glascontainer";"021";;"oudestraat 130";"2660";;"4.3543853450000256";"51.17351431700007"
"glascontainer";"109";;"oudestraat 130";"2660";;"4.3544592100000727";"51.173521471000072"
"glascontainer";"xxx";;"herentalsebaan 141";"2100";;"4.4585007480000627";"51.209608101000072"
"glascontainer";"260";;"herentalsebaan 141";"2100";;"4.4586335120000626";"51.209628842000029"
"glascontainer";"269";;"van amstelstraat 44";"2660";;"4.3516238210000324";"51.17314248100007"
"glascontainer";"190";;"moretusstraat null";"2660";;"4.3495166230000564";"51.170666719000053"
"glascontainer";"026";;"moretusstraat null";"2660";;"4.3495166400000471";"51.170623853000052"
"glascontainer";"215";;"nachtegaallaan 6";"2660";;"4.35731210900002";"51.172035762000064"
"glascontainer";"243";;"oudstrijderslaan 49";"2660";;"4.3602671240000745";"51.170299936000049"
"glascontainer";"652";;"karel meyvisstraat 8";"2660";;"4.362105083000074";"51.172843852000028"
"glascontainer";"430";;"verengde natieslaan 59";"2660";;"4.353503981000074";"51.164060183000061"
"glascontainer";"227";;"klaverbladdreef null";"2660";;"4.3554595730000756";"51.161609243000044"
"glascontainer";"011";;"sint-bernardsesteenweg 1400";"2660";;"4.3501591480000457";"51.159743108000043"
"glascontainer";"111";;"sint-bernardsesteenweg 1400";"2660";;"4.3502511120000236";"51.159800963000066"
"glascontainer";"241";;"lageweg 152";"2660";;"4.3595093530000213";"51.184058533000041"
"glascontainer";"610";;"michel willemslaan 80";"2610";;"4.3752740580000591";"51.180714721000072"
"glascontainer";"036";;"letterkundestraat 29";"2610";;"4.3822544600000697";"51.180796622000059"
"glascontainer";"145";;"letterkundestraat 29";"2610";;"4.382309193000026";"51.180803492000052"
"glascontainer";"458";;"karel mestdaghplein null";"2610";;"4.3857205720000252";"51.179864997000038"
"glascontainer";"266";;"overwinningstraat null";"2610";;"4.3916658940000275";"51.17495552500003"
"glascontainer";"xxx";;"mastplein null";"2610";;"4.3928658740000515";"51.17159891700004"
"glascontainer";"xxx";;"mastplein null";"2610";;"4.3928749350000658";"51.171565577000081"
"glascontainer";"001";;"bist 151";"2610";;"4.3947320390000755";"51.170489276000069"
"glascontainer";"124";;"bist 151";"2610";;"4.3947497640000392";"51.170455816000072"
"glascontainer";"234";;"valkenveld null";"2610";;"4.3872030480000603";"51.168918744000052"
"glascontainer";"444";;"valkstraat 86";"2610";;"4.3842372100000375";"51.169415335000053"
"glascontainer";"333";;"berkenveldplein 29";"2610";;"4.3827603620000559";"51.167971718000047"
"glascontainer";"435";;"krijgslaan 27";"2610";;"4.3988940890000663";"51.163338704000068"
"glascontainer";"211";;"krijgslaan 245";"2610";;"4.3890419660000362";"51.162805949000074"
"glascontainer";"489";;"boeksveldplein 8";"2610";;"4.3902194950000535";"51.163823345000026"
"glascontainer";"xxx";;"kernenergiestraat 43";"2610";;"4.3874436650000348";"51.160714357000074"
"glascontainer";"xxx";;"kernenergiestraat 43";"2610";;"4.3874856950000662";"51.160720013000059"
"glascontainer";"xxx";;"kernenergiestraat 43";"2610";;"4.3875277390000633";"51.16072755600004"
"glascontainer";"xxx";;"kernenergiestraat 43";"2610";;"4.3875727850000317";"51.160735099000078"
"glascontainer";"375";;"edenplein 4";"2610";;"4.3898810860000594";"51.153190321000068"
"glascontainer";"447";;"schuurveldlaan 62";"2610";;"4.3937266650000311";"51.153163093000046"
"glascontainer";"251";;"moerenlei 153";"2610";;"4.363349597000024";"51.159300808000069"
"glascontainer";"334";;"terbekehofdreef 1";"2610";;"4.3806232770000406";"51.153245809000055"
"glascontainer";"412";;"klaproosstraat null";"2610";;"4.4088924740000266";"51.17072581900004"
"glascontainer";"428";;"dokter donnyplein 30";"2610";;"4.4056218090000243";"51.168079947000081"
"glascontainer";"408";;"steytelincklei null";"2610";;"4.3991431640000656";"51.169958281000049"
"glascontainer";"471";;"goudenregenlaan 2";"2610";;"4.4001454810000382";"51.175116393000053"
"glascontainer";"364";;"cederlaan 68";"2610";;"4.4020179130000656";"51.174673506000033"
"glascontainer";"459";;"groenengorgerlaan 129";"2610";;"4.4091685520000397";"51.17487096900004"
"glascontainer";"416";;"jos op de beecklaan 19";"2610";;"4.3954963730000713";"51.163580786000068"
"glascontainer";"456";;"jos op de beecklaan 44";"2610";;"4.3919399600000588";"51.17622424800004"
"glascontainer";"446";;"heistraat 321";"2610";;"4.391374158000076";"51.179556257000058"
"glascontainer";"268";;"kruishofstraat 227";"2610";;"4.3939530320000699";"51.183387025000059"
"glascontainer";"267";;"eglantierlaan 1";"2610";;"4.4037748110000621";"51.186266819000082"
"glascontainer";"340";;"groenengorgerlaan 173";"2610";;"4.4154832910000437";"51.178892531000031"
"glascontainer";"415";;"oudestraat 27";"2610";;"4.3927980270000262";"51.167826544000036"
"glascontainer";"022";;"rucaplein null";"2610";;"4.4222993230000611";"51.177963645000034"
"glascontainer";"108";;"rucaplein null";"2610";;"4.422428210000021";"51.177963585000043"
"glascontainer";"432";;"ringlaan 82";"2610";;"4.4275623960000416";"51.177970091000077"
"glascontainer";"464";;"vierbunderplein 3";"2610";;"4.4324583310000207";"51.176581213000077"
"glascontainer";"245";;"gemzenstraat null";"2610";;"4.4217012780000573";"51.174763771000073"
"glascontainer";"378";;"beeckmanslaan null";"2610";;"4.4214596640000536";"51.170163937000041"
"glascontainer";"384";;"parklaan 44";"2610";;"4.4274323620000473";"51.171511338000073"
"glascontainer";"356";;"hof van tichelen 30";"2020";;"4.3853307340000356";"51.182516441000075"
"glascontainer";"466";;"julius de geyterstraat 93";"2020";;"4.3783489070000314";"51.184506685000031"
"glascontainer";"485";;"de bosschaertstraat 249";"2020";;"4.3861983720000239";"51.185279856000079"
"glascontainer";"484";;"jan ligthartplein null";"2020";;"4.3880613140000264";"51.187291446000074"
"glascontainer";"344";;"alfred coolstraat 31";"2020";;"4.3917646600000353";"51.188393462000079"
"glascontainer";"481";;"jan de voslei 23";"2020";;"4.3890570250000565";"51.188236410000059"
"glascontainer";"478";;"vlaamsekunstlaan 1";"2020";;"4.394602419000023";"51.189144662000047"
"glascontainer";"082";;"kielpark null";"2020";;"4.3862999560000731";"51.190796242000033"
"glascontainer";"180";;"kielpark null";"2020";;"4.3863787720000573";"51.190796230000046"
"glascontainer";"505";;"jan denucestraat null";"2020";;"4.3896694840000237";"51.195648770000048"
"glascontainer";"501";;"volhardingstraat 89";"2020";;"4.3905067910000639";"51.193627234000076"
"glascontainer";"094";;"camille huysmanslaan 39";"2020";;"4.3956139450000364";"51.191456179000056"
"glascontainer";"181";;"camille huysmanslaan 39";"2020";;"4.3955207850000306";"51.191438197000082"
"glascontainer";"636";;"zaanstraat 2";"2020";;"4.3790856620000227";"51.191382431000079"
"glascontainer";"237";;"pieter rottierstraat null";"2020";;"4.3791577410000286";"51.193151693000061"
"glascontainer";"465";;"vert larockstraat 8";"2020";;"4.3753890690000503";"51.192706311000052"
"glascontainer";"473";;"alfons de cockstraat 60";"2020";;"4.3738196170000379";"51.18973511300004"
"glascontainer";"625";;"alfons de cockstraat 1";"2020";;"4.3764630150000698";"51.188897581000049"
"glascontainer";"626";;"alfons de cockstraat 1";"2020";;"4.3765489740000589";"51.188870564000069"
"glascontainer";"377";;"jan davidlei 72";"2020";;"4.3743208600000685";"51.188055851000058"
"glascontainer";"008";;"kielsbroek null";"2020";;"4.371534979000046";"51.198090834000027"
"glascontainer";"197";;"kielsbroek null";"2020";;"4.371406008000065";"51.198095342000045"
"glascontainer";"193";;"kielsbroek null";"2020";;"4.3715063180000584";"51.198027808000063"
"glascontainer";"005";;"kielsbroek null";"2020";;"4.3713916670000685";"51.198027812000078"
"glascontainer";"381";;"kielsbroek 22";"2020";;"4.3763716380000233";"51.198090569000044"
"glascontainer";"030";;"kronenburgstraat 55";"2000";;"4.4000705120000703";"51.211790161000067"
"glascontainer";"144";;"kronenburgstraat 55";"2000";;"4.4001502650000361";"51.211790139000072"
"glascontainer";"406";;"nationalstraat 111";"2000";;"4.398018511000032";"51.214078129000029"
"glascontainer";"418";;"kloosterstraat 143";"2000";;"4.3942969340000673";"51.214367048000042"
"glascontainer";"209";;"sint-andriestraat 24";"2000";;"4.3960850780000555";"51.214959352000051"
"glascontainer";"623";;"maria-henriettalei 2";"2018";;"4.4100767500000302";"51.211168017000034"
"glascontainer";"048";;"brialmontlei 7";"2018";;"4.4185759180000446";"51.210032537000075"
"glascontainer";"134";;"brialmontlei 7";"2018";;"4.4185220530000606";"51.209964985000056"
"glascontainer";"250";;"hemelstraat 37";"2018";;"4.4104344030000675";"51.20931493900008"
"glascontainer";"256";;"jacob jordaensstraat 91";"2018";;"4.4131944660000499";"51.207956694000075"
"glascontainer";"624";;"isabellalei 1";"2018";;"4.4150669280000443";"51.206694481000056"
"glascontainer";"204";;"sint-vincentiusstraat 45";"2018";;"4.4136045970000737";"51.205653218000066"
"glascontainer";"255";;"belgielei 132";"2018";;"4.4164635700000758";"51.204886179000027"
"glascontainer";"213";;"mechelsesteenweg 216";"2018";;"4.4119964670000513";"51.202072150000049"
"glascontainer";"273";;"boomgaardstraat 27";"2018";;"4.4183316940000736";"51.199839491000034"
"glascontainer";"257";;"prins albertlei 15";"2018";;"4.4129163950000247";"51.198602744000027"
"glascontainer";"392";;"victor jacobslei null";"2600";;"4.4251149340000211";"51.197972320000076"
"glascontainer";"476";;"weidestraat 1";"2600";;"4.4285150920000547";"51.200302089000047"
"glascontainer";"629";;"de villegasstraat 41";"2600";;"4.4241531680000321";"51.195770831000061"
"glascontainer";"627";;"vredestraat 150";"2600";;"4.4276502990000495";"51.196991159000049"
"glascontainer";"369";;"helenalei 1";"2018";;"4.4215339710000308";"51.20175843800007"
"glascontainer";"305";;"uitbreidingstraat 184";"2600";;"4.4212543190000702";"51.192451792000043"
"glascontainer";"317";;"de wittestraat 52";"2600";;"4.415681090000021";"51.193743830000074"
"glascontainer";"290";;"frans van hombeeckplein 12";"2600";;"4.4173223230000644";"51.194756845000029"
"glascontainer";"633";;"viaduct-dam 2";"2060";;"4.4210839090000604";"51.229986283000073"
"glascontainer";"643";;"frans halsplein 1";"2000";;"4.4115843250000353";"51.220607405000067"
"glascontainer";"363";;"hogeweg 4";"2600";;"4.4183993630000487";"51.196141754000053"
"glascontainer";"615";;"uitbreidingstraat 552";"2600";;"4.4348816550000265";"51.201855199000079"
"glascontainer";"1158";;"kielsbroek 22";"2020";;"4.3763429690000635";"51.198018538000042"
"glascontainer";"409";;"kielsevest null";"2020";;"4.3927731810000523";"51.197930628000051"
"glascontainer";"366";;"desguinlei 244";"2020";;"4.3988876550000668";"51.196885185000042"
"glascontainer";"258";;"markgravelei 90";"2020";;"4.4024541150000687";"51.198589945000037"
"glascontainer";"274";;"bosmanslei 35";"2020";;"4.4027235280000241";"51.194776716000035"
"glascontainer";"619";;"fransenplaats 3";"2020";;"4.3979268620000198";"51.200621577000049"
"glascontainer";"236";;"broederminstraat 36";"2020";;"4.3945957740000381";"51.202369135000026"
"glascontainer";"401";;"lange elsenstraat 3";"2020";;"4.3938146910000455";"51.202391828000032"
"glascontainer";"226";;"troonplaats null";"2020";;"4.3918087080000419";"51.203382678000025"
"glascontainer";"460";;"monyignystraat 115";"2020";;"4.3914704580000716";"51.200609555000028"
"glascontainer";"020";;"haantjeslei 128";"2020";;"4.4022699180000586";"51.20140821800004"
"glascontainer";"117";;"haantjeslei 128";"2020";;"4.4023343920000571";"51.201376685000071"
"glascontainer";"047";;"lange lozanastraat 72";"2020";;"4.4045726580000633";"51.204527358000064"
"glascontainer";"153";;"lange lozanastraat 72";"2020";;"4.4045941200000698";"51.204473331000031"
"glascontainer";"472";;"solvynstraat 48";"2020";;"4.4012344670000516";"51.206387656000061"
"glascontainer";"461";;"vogelzanglaan null";"2020";;"4.4017885240000396";"51.189919383000074"
"glascontainer";"207";;"van der zweepstraat 12";"2000";;"4.3852774810000597";"51.206934965000073"
"glascontainer";"285";;"verviersstraat null";"2000";;"4.3883127480000326";"51.208208841000044"
"glascontainer";"078";;"waalsekaai null";"2000";;"4.3904824360000703";"51.210637825000049"
"glascontainer";"142";;"waalsekaai null";"2000";;"4.390532768000071";"51.21067292400005"
"glascontainer";"031";;"vlaamsekaai 1";"2000";;"4.3935126020000439";"51.212083588000041"
"glascontainer";"130";;"vlaamsekaai 1";"2000";;"4.3935461530000453";"51.212122195000063"
"glascontainer";"605";;"verschansingstraat 2";"2000";;"4.3922363270000346";"51.208527552000078"
"glascontainer";"639";;"kasteelstraat null";"2000";;"4.3927101230000289";"51.206189350000045"
"glascontainer";"631";;"baron dhanislaan null";"2000";;"4.3900735430000282";"51.205951582000068"
"glascontainer";"632";;"baron dhanislaan null";"2000";;"4.3901168780000717";"51.20596869600007"
"glascontainer";"282";;"tolstraat 45A";"2000";;"4.3995978250000576";"51.209758032000082"
"glascontainer";"233";;"begijnenvest 79";"2000";;"4.4057580190000749";"51.210984926000037"
"glascontainer";"519";;"burchtse weel 104";"2050";;"4.3534505290000425";"51.212222419000057"
"glascontainer";"608";;"varkensmarkt 1";"2000";;"4.4074613280000676";"51.224873720000062"
"glascontainer";"407";;"bataviastraat null";"2000";;"4.4039145430000417";"51.231076610000059"
"glascontainer";"191";;"maria pijpelincxstraat 1";"2000";;"4.4093273160000308";"51.216220031000034"
"glascontainer";"062";;"maria pijpelincxstraat 1";"2000";;"4.4093290200000297";"51.216204993000076"
"glascontainer";"638";;"entrepotplaats null";"2000";;"4.4116608930000325";"51.228060044000074"
"glascontainer";"371";;"napelsstraat 37";"2000";;"4.4109401400000365";"51.232655082000065"
"glascontainer";"380";;"londenstraat 24";"2000";;"4.409462248000068";"51.230954299000075"
"glascontainer";"396";;"spitsenstraat null";"2030";;"4.417272343000036";"51.232097671000076"
"glascontainer";"617";;"drukkerijstraat 36";"2000";;"4.3992143020000753";"51.216859127000077"
"glascontainer";"618";;"drukkerijstraat 38";"2000";;"4.3992142620000436";"51.216800765000073"
"glascontainer";"402";;"vrijdagmarkt 9";"2000";;"4.3990540110000325";"51.218259896000063"
"glascontainer";"038";;"sint-jansvliet 2";"2000";;"4.3955848820000369";"51.218645952000031"
"glascontainer";"137";;"sint-jansvliet 2";"2000";;"4.3956344370000693";"51.218630382000072"
"glascontainer";"370";;"vlasmarkt 26";"2000";;"4.3975122970000484";"51.219680412000059"
"glascontainer";"128";;"groenplaats 26";"2000";;"4.401743692000025";"51.219515852000029"
"glascontainer";"053";;"groenplaats 26";"2000";;"4.4018242310000346";"51.219515829000045"
"glascontainer";"607";;"oude koornmarkt 28";"2000";;"4.3998173530000599";"51.220158365000032"
"glascontainer";"600";;"suikerrui 34";"2000";;"4.3989565210000592";"51.220687726000051"
"glascontainer";"601";;"grote markt 25";"2000";;"4.4008660310000209";"51.22132147800005"
"glascontainer";"602";;"grote markt 25";"2000";;"4.4008845060000681";"51.22131603400004"
"glascontainer";"414";;"oudaan 5";"2000";;"4.402989147000028";"51.21591548300006"
"glascontainer";"045";;"orgelstraat 2";"2000";;"4.4078078580000692";"51.215827729000068"
"glascontainer";"147";;"orgelstraat 2";"2000";;"4.4078873170000747";"51.21582770200007"
"glascontainer";"620";;"lange gasthuisstraat 45";"2000";;"4.4050174430000766";"51.213750427000036"
"glascontainer";"379";;"sint-pietersvliet null";"2000";;"4.4005405900000483";"51.225987630000077"
"glascontainer";"647";;"frans halsplein 1";"2000";;"4.4115767860000688";"51.220596172000057"
"glascontainer";"410";;"jezusstraat 35";"2000";;"4.4134349470000416";"51.218918085000041"
"glascontainer";"604";;"keizerstraat 71";"2000";;"4.4100943320000283";"51.221356595000032"
"glascontainer";"276";;"franklin rooseveltplaats null";"2060";;"4.4165736290000268";"51.21991915600006"
"glascontainer";"611";;"korte winkelhaakstraat null";"2060";;"4.4233443100000613";"51.219526494000036"
"glascontainer";"606";;"offerandestraat 114";"2060";;"4.4273895760000528";"51.221321259000035"
"glascontainer";"616";;"duinstraat 15";"2060";;"4.4268878580000433";"51.221992388000047"
"glascontainer";"449";;"sint-elisabethstraat 57";"2060";;"4.4240036650000434";"51.222704874000044"
"glascontainer";"614";;"hollanstraat 5";"2060";;"4.4198060300000748";"51.224493779000056"
"glascontainer";"203";;"osystraat 16";"2060";;"4.4183164220000322";"51.222018020000064"
"glascontainer";"275";;"de coninckplein 6";"2060";;"4.4204080980000526";"51.221383321000076"
"glascontainer";"051";;"sint-jansplein 32";"2060";;"4.4185016460000384";"51.22482205700004"
"glascontainer";"044";;"blancefloerlaan 181";"2050";;"4.3709795860000327";"51.219120423000049"
"glascontainer";"143";;"blancefloerlaan 181";"2050";;"4.3710406020000505";"51.219120206000071"
"glascontainer";"648";;"breydelstraat 26";"2018";;"4.4192488300000718";"51.21829548200003"
"glascontainer";"387";;"achturendagstraat 27";"2660";;"4.3380639720000431";"51.171337793000077"
"glascontainer";"649";;"maria-henriettalei 113";"2660";;"4.3519180200000278";"51.181325426000058"
"glascontainer";"129";;"sint-jansplein 31";"2060";;"4.4185705740000571";"51.224825119000059"
"glascontainer";"152";;"sint-jansplein 61";"2060";;"4.4169616150000479";"51.225815128000079"
"glascontainer";"046";;"sint-jansplein 61";"2060";;"4.4170108530000221";"51.225824383000031"
"glascontainer";"231";;"van de wervestraat null";"2060";;"4.4157289190000597";"51.228867083000068"
"glascontainer";"206";;"ellermanstraat 36";"2060";;"4.417271233000065";"51.229892862000042"
"glascontainer";"442";;"oranjestraat 94";"2060";;"4.4231286520000594";"51.227951800000028"
"glascontainer";"436";;"everaertsstraat 72";"2060";;"4.4251465050000434";"51.227177923000056"
"glascontainer";"637";;"ossenmarkt 31";"2000";;"4.4134352560000707";"51.221903357000031"
"glascontainer";"228";;"maria-theresialei 1";"2018";;"4.4153352740000287";"51.215071629000079"
"glascontainer";"635";;"breydelstraat 26";"2018";;"4.4192543890000593";"51.218326795000053"
"glascontainer";"621";;"viaductdam 86";"2060";;"4.4244272700000238";"51.23213915000008"
"glascontainer";"622";;"damplein 27";"2060";;"4.4258509040000718";"51.231719410000039"
"glascontainer";"354";;"noordschippersdok null";"2060";;"4.4301063030000591";"51.233656579000069"
"glascontainer";"372";;"kalverstraat 4";"2060";;"4.4318903590000218";"51.230643216000033"
"glascontainer";"393";;"kalverstraat null";"2060";;"4.4323892730000694";"51.229598217000046"
"glascontainer";"475";;"kalverstraat 6";"2060";;"4.437404789000027";"51.227269687000046"
"glascontainer";"050";;"noordersingel null";"2140";;"4.446661104000043";"51.224022522000041"
"glascontainer";"148";;"noordersingel null";"2140";;"4.4467037890000256";"51.224039545000039"
"glascontainer";"425";;"guldensporenstraat 4";"2140";;"4.4414015620000669";"51.223050777000026"
"glascontainer";"628";;"groeningerplein null";"2140";;"4.4388466530000414";"51.219893715000069"
"glascontainer";"445";;"jan borluutplein 4";"2140";;"4.4410837230000766";"51.219915893000064"
"glascontainer";"431";;"helmstraat 163";"2140";;"4.4388496970000233";"51.218562539000061"
"glascontainer";"451";;"wijnegemstraat 40";"2140";;"4.4435803240000382";"51.218993567000041"
"glascontainer";"373";;"hof ter lo 6B";"2140";;"4.4462417850000406";"51.218983033000029"
"glascontainer";"389";;"hof ter lo null";"2140";;"4.4482801360000508";"51.22045660100008"
"glascontainer";"422";;"nijverheidstraat null";"2140";;"4.4277853070000219";"51.226395741000033"
"glascontainer";"390";;"carnotstraat 91";"2060";;"4.4256607760000293";"51.218274361000056"
"glascontainer";"417";;"carnotstraat 129";"2060";;"4.4274495730000467";"51.217812730000048"
"glascontainer";"650";;"ploegstraat 10";"2018";;"4.4236967870000399";"51.214523664000069"
"glascontainer";"603";;"kerkstraat 80";"2060";;"4.4315124210000363";"51.218739507000066"
"glascontainer";"642";;"maarschalk montgomeryplein 4";"2140";;"4.4377100090000567";"51.211774761000072"
"glascontainer";"355";;"luitenant naeyaertplein 30";"2140";;"4.4392113110000651";"51.210277402000031"
"glascontainer";"386";;"fonteinstraat 50";"2140";;"4.4422607380000727";"51.211642680000068"
"glascontainer";"398";;"gravinstraat 48";"2140";;"4.4438286960000255";"51.215027745000043"
"glascontainer";"443";;"delareystraat 3";"2140";;"4.4408300610000424";"51.215790010000035"
"glascontainer";"052";;"drink null";"2140";;"4.435067641000046";"51.214950673000033"
"glascontainer";"135";;"drink null";"2140";;"4.4350915530000634";"51.214988123000069"
"glascontainer";"453";;"laar 29";"2140";;"4.4343127700000764";"51.21671905200003"
"glascontainer";"424";;"lange beeldekensstraat 322";"2060";;"4.4364978210000459";"51.222563667000031"
"glascontainer";"609";;"pothoekstraat 98";"2060";;"4.4365879390000487";"51.223460296000042"
"glascontainer";"612";;"frans de cortstraat 3";"2060";;"4.4333476310000606";"51.224201153000081"
"glascontainer";"613";;"lange stuivenbergstraat 82";"2060";;"4.4317826900000341";"51.224387895000064"
"glascontainer";"440";;"pompoenstraat 2";"2060";;"4.4334107590000258";"51.226975356000025"
"glascontainer";"281";;"stuivenbergplein null";"2060";;"4.4308650880000755";"51.227151015000061"
"glascontainer";"029";;"wilgenstraat null";"2060";;"4.4271104500000433";"51.225305792000029"
"glascontainer";"132";;"wilgenstraat null";"2060";;"4.4271511670000336";"51.225310419000039"
"glascontainer";"651";;"coremansstraat  ";"2600";;"4.4213786580000374";"51.189830157000074"
"glascontainer";"367";;"elisabethlaan 42";"2600";;"4.4233309270000518";"51.187850708000042"
"glascontainer";"400";;"floralienlaan null";"2600";;"4.418650446000072";"51.186703062000049"
"glascontainer";"221";;"floralienlaan 298";"2600";;"4.4239535490000321";"51.181994002000067"
"glascontainer";"644";;"strijdhoflaan 116";"2600";;"4.4282625270000722";"51.183138647000078"
"glascontainer";"263";;"fruithoflaan 11";"2600";;"4.4345968910000693";"51.180485757000042"
"glascontainer";"202";;"ringlaan 1";"2600";;"4.4326919820000512";"51.17981111000006"
"glascontainer";"054";;"de roest d'alkemadelaan null";"2600";;"4.4328376410000487";"51.183379039000044"
"glascontainer";"175";;"de roest d'alkemadelaan null";"2600";;"4.4328476320000618";"51.18334430200008"
"glascontainer";"286";;"rooiplein 6";"2600";;"4.4355218790000208";"51.185010802000079"
"glascontainer";"056";;"flor alpaertsstraat null";"2600";;"4.4388605980000762";"51.182854560000067"
"glascontainer";"163";;"flor alpaertsstraat null";"2600";;"4.4388957220000407";"51.182826117000047"
"glascontainer";"055";;"fruithoflaan 99";"2600";;"4.4414154170000302";"51.184535947000029"
"glascontainer";"169";;"fruithoflaan 99";"2600";;"4.4414455260000523";"51.184510670000066"
"glascontainer";"374";;"spoorwegstraat 79";"2600";;"4.4408711360000552";"51.189856708000036"
"glascontainer";"069";;"kanunnik peetersstraat 82";"2600";;"4.4329325200000653";"51.190139234000071"
"glascontainer";"171";;"kanunnik peetersstraat 82";"2600";;"4.4329525820000413";"51.190104491000056"
"glascontainer";"352";;"henri prostlaan 5";"2600";;"4.4297799800000348";"51.188600074000078"
"glascontainer";"357";;"polygoonstraat 49";"2600";;"4.4325100110000335";"51.19343275600005"
"glascontainer";"058";;"arbeidersstraat null";"2600";;"4.4374861410000221";"51.19430453800004"
"glascontainer";"158";;"arbeidersstraat null";"2600";;"4.4374308990000486";"51.194326673000035"
"glascontainer";"057";;"arbeidersstraat null";"2600";;"4.4374509220000391";"51.19427614600005"
"glascontainer";"172";;"arbeidersstraat null";"2600";;"4.4373956850000695";"51.194301436000046"
"glascontainer";"261";;"corneel van reethstraat 7";"2600";;"4.4377225930000463";"51.197821863000058"
"glascontainer";"278";;"edelgesteentenstraat 85";"2600";;"4.4414452070000721";"51.196995482000034"
"glascontainer";"316";;"dianalaan 176";"2600";;"4.4443123420000461";"51.19553804800006"
"glascontainer";"397";;"passendalestraat 40";"2600";;"4.4466285490000246";"51.195268132000081"
"glascontainer";"176";;"dianalaan 82";"2600";;"4.444315930000073";"51.197716720000074"
"glascontainer";"071";;"dianalaan 82";"2600";;"4.4442959030000679";"51.197760938000044"
"glascontainer";"324";;"diksmuidelaan 24";"2600";;"4.4390082640000514";"51.200527081000075"
"glascontainer";"365";;"vosstraat 338";"2100";;"4.4487912960000244";"51.190577749000056"
"glascontainer";"498";;"potvlietlaan 7";"2600";;"4.4424216210000509";"51.204165565000039"
"glascontainer";"074";;"frans de vriendtstraat 59";"2140";;"4.4444268310000439";"51.204012713000054"
"glascontainer";"162";;"frans de vriendtstraat 59";"2140";;"4.4443865730000311";"51.203981163000037"
"glascontainer";"156";;"ter heydelaan 235";"2100";;"4.4688409120000756";"51.228267046000042"
"glascontainer";"018";;"ter heydelaan 235";"2100";;"4.4687719360000528";"51.228245461000029"
"glascontainer";"025";;"baron leroystraat 142";"2100";;"4.4723007210000674";"51.225665829000036"
"glascontainer";"103";;"baron leroystraat 142";"2100";;"4.472368958000061";"51.225690739000072"
"glascontainer";"070";;"ter rivierenlaan 111";"2100";;"4.469359612000062";"51.223866929000053"
"glascontainer";"119";;"ter rivierenlaan 111";"2100";;"4.4693540230000508";"51.223909745000071"
"glascontainer";"012";;"venneborglaan 148";"2100";;"4.4756541960000504";"51.223893444000055"
"glascontainer";"126";;"venneborglaan 148";"2100";;"4.4757054090000565";"51.223929072000033"
"glascontainer";"016";;"ruggeveldlaan 618";"2100";;"4.4790740960000335";"51.223875992000046"
"glascontainer";"118";;"ruggeveldlaan 618";"2100";;"4.4791479430000436";"51.223875922000047"
"glascontainer";"075";;"ruggeveldlaan 664";"2100";;"4.4790613170000597";"51.225659643000029"
"glascontainer";"146";;"ruggeveldlaan 664";"2100";;"4.4791408640000441";"51.225659568000026"
"glascontainer";"063";;"ruggeveldlaan 711";"2100";;"4.4789991570000325";"51.228171066000073"
"glascontainer";"115";;"ruggeveldlaan 711";"2100";;"4.4790786940000658";"51.22817099100007"
"glascontainer";"295";;"eugeen fahylaan null";"2100";;"4.4830488730000297";"51.232273103000068"
"glascontainer";"019";;"ter heydelaan null";"2100";;"4.479315118000045";"51.231991312000048"
"glascontainer";"122";;"ter heydelaan null";"2100";;"4.4793152380000265";"51.232041252000045"
"glascontainer";"318";;"bisschoppenhoflaan 533";"2100";;"4.4741518610000526";"51.235192353000059"
"glascontainer";"323";;"keesinglaan 13";"2100";;"4.4647646200000395";"51.235193310000056"
"glascontainer";"296";;"august van de wielelei 224";"2100";;"4.4833016460000295";"51.219796665000047"
"glascontainer";"302";;"august van de wielelei 263";"2100";;"4.4863117150000562";"51.220849483000052"
"glascontainer";"218";;"ter heydelaan 36";"2100";;"4.4580350010000416";"51.225398643000062"
"glascontainer";"495";;"lakborslei 10";"2100";;"4.4546361850000267";"51.220394741000064"
"glascontainer";"059";;"ten eekhovelei 32";"2100";;"4.4525196070000561";"51.225013226000044"
"glascontainer";"112";;"ten eekhovelei 32";"2100";;"4.4525320950000378";"51.225063849000037"
"glascontainer";"293";;"jozef nellenslei 1";"2100";;"4.4514855360000638";"51.226053957000033"
"glascontainer";"028";;"frank craeybeckxlaan 25";"2100";;"4.4592685280000524";"51.221779125000069"
"glascontainer";"113";;"frank craeybeckxlaan 25";"2100";;"4.4593491790000712";"51.221782955000037"
"glascontainer";"061";;"gallifortlei 39";"2100";;"4.4619779600000697";"51.221192727000073"
"glascontainer";"125";;"gallifortlei 39";"2100";;"4.4619344540000725";"51.221153806000075"
"glascontainer";"205";;"cornelis schutstraat 22";"2100";;"4.4622335160000262";"51.224857820000068"
"glascontainer";"315";;"bisschoppenhoflaan 68";"2100";;"4.4463499610000667";"51.230186305000075"
"glascontainer";"313";;"van amstelstraat 28";"2100";;"4.4444928970000319";"51.232672606000051"
"glascontainer";"307";;"van amstelstraat 129";"2100";;"4.4483893520000493";"51.232790754000064"
"glascontainer";"322";;"van duyststraat 255";"2100";;"4.4527632270000481";"51.232721463000075"
"glascontainer";"131";;"van heetveldelei 127";"2100";;"4.4513558350000721";"51.229812828000036"
"glascontainer";"060";;"van heetveldelei 129";"2100";;"4.4514178740000716";"51.229816676000041"
"glascontainer";"072";;"merksemsesteenweg null";"2100";;"4.4563697220000336";"51.236941096000066"
"glascontainer";"177";;"merksemsesteenweg null";"2100";;"4.4564068750000274";"51.236902112000053"
"glascontainer";"066";;"merksemsesteenweg null";"2100";;"4.4564502340000445";"51.236859232000029"
"glascontainer";"173";;"merksemsesteenweg null";"2100";;"4.4564811870000653";"51.236820263000027"
"glascontainer";"039";;"gijsbrecht van deurnelaan 19";"2100";;"4.4606595000000766";"51.231866374000049"
"glascontainer";"154";;"gijsbrecht van deurnelaan 19";"2100";;"4.4607277700000623";"51.231878005000056"
"glascontainer";"303";;"sint-fredegandusstraat 1";"2100";;"4.4590124960000708";"51.230379726000081"
"glascontainer";"223";;"bosuil 77";"2100";;"4.4643093480000289";"51.229756191000035"
"glascontainer";"291";;"confortalei 131";"2100";;"4.4570794950000732";"51.228519346000041"
"glascontainer";"023";;"blivensstraat 54";"2100";;"4.4614072860000533";"51.22733966900006"
"glascontainer";"170";;"blivensstraat 54";"2100";;"4.4614755590000641";"51.227355192000061"
"glascontainer";"219";;"haviklaan 67";"2100";;"4.4869739490000597";"51.224775813000065"
"glascontainer";"308";;"koningsarendlaan 48";"2100";;"4.4841711250000458";"51.223991957000067"
"glascontainer";"225";;"sint-bartholomeusstraat 118";"2100";;"4.4472280050000563";"51.243093099000077"
"glascontainer";"230";;"straalstraat 1";"2170";;"4.4532130420000726";"51.241839581000079"
"glascontainer";"239";;"dokter maurice timmermanslaan 15";"2170";;"4.4516520810000202";"51.248525645000029"
"glascontainer";"084";;"victor roosensplein 45";"2170";;"4.4551371500000414";"51.24927371900003"
"glascontainer";"178";;"victor roosensplein 45";"2170";;"4.4552253970000493";"51.249248468000076"
"glascontainer";"388";;"eethuisstraat 120";"2170";;"4.4646658580000462";"51.249593728000036"
"glascontainer";"002";;"van praetlei 252";"2170";;"4.4636065230000668";"51.253599499000075"
"glascontainer";"121";;"van praetlei 252";"2170";;"4.4636548060000223";"51.253654881000045"
"glascontainer";"338";;"bredabaan 783a";"2170";;"4.4570763590000411";"51.251720553000041"
"glascontainer";"004";;"bredabaan 833";"2170";;"4.459888061000072";"51.252781336000055"
"glascontainer";"188";;"bredabaan 833";"2170";;"4.4599603870000237";"51.252821574000052"
"glascontainer";"413";;"ringlaan 37";"2170";;"4.4568805350000389";"51.254249592000065"
"glascontainer";"331";;"ringlaan 110";"2170";;"4.4531157800000756";"51.254423658000064"
"glascontainer";"248";;"catershoflaan 52";"2170";;"4.4508343520000722";"51.253578968000056"
"glascontainer";"450";;"melgesdreef 42";"2170";;"4.45855300300002";"51.255623587000059"
"glascontainer";"360";;"catershoflaan 151";"2170";;"4.4527845020000427";"51.257637898000041"
"glascontainer";"426";;"lange bremstraat 70";"2170";;"4.4505240090000484";"51.259614247000059"
"glascontainer";"272";;"fortsteenweg 120";"2170";;"4.4593477720000578";"51.263753676000078"
"glascontainer";"265";;"fortsteenweg null";"2170";;"4.4618456090000223";"51.260119592000081"
"glascontainer";"438";;"laaglandlaan 307";"2170";;"4.4456339050000224";"51.25927501700005"
"glascontainer";"454";;"winterkoningstraat 54";"2170";;"4.4422364470000275";"51.258451047000051"
"glascontainer";"437";;"laarsebaan null";"2170";;"4.438522760000069";"51.260780711000052"
"glascontainer";"271";;"maantjessteenweg 92";"2170";;"4.4432349360000671";"51.255327094000052"
"glascontainer";"376";;"korte bremstraat 2";"2170";;"4.4472508740000762";"51.256452879000051"
"glascontainer";"089";;"kroonplein 35";"2170";;"4.4483939420000524";"51.251633502000061"
"glascontainer";"157";;"kroonplein 35";"2170";;"4.4484387280000419";"51.251641147000043"
"glascontainer";"346";;"terlindenhofstraat 296";"2170";;"4.443716241000061";"51.250193448000061"
"glascontainer";"347";;"rodeloopstraat 23";"2170";;"4.4412691650000511";"51.250955679000072"
"glascontainer";"090";;"maantjessteenweg 133";"2170";;"4.4379442300000278";"51.255179235000071"
"glascontainer";"200";;"maantjessteenweg 133";"2170";;"4.4379443070000661";"51.255229605000068"
"glascontainer";"433";;"zwaantjeslei 93";"2170";;"4.4502032780000604";"51.260410805000049"
"glascontainer";"229";;"van heybeeckstraat 9";"2170";;"4.4486167080000314";"51.247144879000075"
"glascontainer";"439";;"wulpstraat 41";"2170";;"4.4317410690000543";"51.259055507000028"
"glascontainer";"335";;"bergen op zoomlaan 41";"2170";;"4.4275515720000271";"51.249979518000032"
"glascontainer";"525";;"noorderlaan 29";"2030";;"4.4196796430000518";"51.242667570000037"
"glascontainer";"522";;"noorderlaan 100";"2030";;"4.4207553410000742";"51.243990611000072"
"glascontainer";"527";;"groenendaallaan 348";"2030";;"4.4220218880000743";"51.245136260000038"
"glascontainer";"488";;"canadalaan 154";"2030";;"4.4216538340000398";"51.250250720000054"
"glascontainer";"528";;"columbiastraat 112";"2030";;"4.4231773610000573";"51.253166758000077"
"glascontainer";"512";;"canadalaan 254";"2030";;"4.4218555470000638";"51.256016684000031"
"glascontainer";"507";;"liverpoollaan 10";"2030";;"4.4235757050000757";"51.256807497000068"
"glascontainer";"509";;"generaal simondslaan 8";"2030";;"4.4214934450000669";"51.259485468000037"
"glascontainer";"517";;"philadelphiastraat 36";"2030";;"4.4258165550000399";"51.260200112000064"
"glascontainer";"165";;"noorderlaan 500";"2030";;"4.4193918340000664";"51.262882594000075"
"glascontainer";"151";;"noorderlaan 500";"2030";;"4.4194395950000285";"51.262880083000027"
"glascontainer";"077";;"noorderlaan 500";"2030";;"4.419387812000025";"51.262847640000075"
"glascontainer";"065";;"noorderlaan 500";"2030";;"4.4194395580000219";"51.26284761800008"
"glascontainer";"403";;"renaat veremansstraat 8";"2030";;"4.4175383730000704";"51.268833265000069"
"glascontainer";"634";;"pater strackestraat 10";"2030";;"4.4143697910000697";"51.270218417000081"
"glascontainer";"482";;"herman vosstraat 1";"2030";;"4.411667115000057";"51.271924917000035"
"glascontainer";"350";;"ferdinand verbieststraat 71";"2030";;"4.4164955270000519";"51.272813119000034"
"glascontainer";"515";;"eduard van benedenstraat 4";"2030";;"4.4110012160000451";"51.274144758000034"
"glascontainer";"349";;"kruisboogstraat 29";"2030";;"4.4094589130000372";"51.277640044000066"
"glascontainer";"469";;"tweekronenstraat 106";"2030";;"4.4099252510000611";"51.282153790000052"
"glascontainer";"490";;"wilgehoevestraat 29";"2180";;"4.4149232310000457";"51.285397468000042"
"glascontainer";"353";;"vic heymanstraat 38";"2180";;"4.418645146000074";"51.28378332300008"
"glascontainer";"182";;"kloosterstraat 84";"2180";;"4.4170438480000485";"51.282504349000078"
"glascontainer";"083";;"kloosterstraat 84";"2180";;"4.41699688500006";"51.28249530800008"
"glascontainer";"179";;"geestenspoor 5";"2180";;"4.420606805000034";"51.281103101000042"
"glascontainer";"081";;"geestenspoor 5";"2180";;"4.4206537510000317";"51.281098550000081"
"glascontainer";"526";;"kristus-koningplein 6";"2180";;"4.4194224580000423";"51.278036974000031"
"glascontainer";"529";;"groot hagelkruis 6";"2180";;"4.4168659080000339";"51.278176226000028"
"glascontainer";"358";;"edisonlaan 1";"2030";;"4.4120925130000614";"51.290082333000043"
"glascontainer";"391";;"grotehondstraat 1";"2018";;"4.4265565850000712";"51.206179831000043"
"glascontainer";"640";;"dageraadplaats 5";"2018";;"4.4306296180000686";"51.207179640000049"
"glascontainer";"155";;"korte altaarstraat 1";"2018";;"4.43095364200002";"51.207060001000059"
"glascontainer";"037";;"korte altaarstraat 1";"2018";;"4.4309968480000634";"51.207043682000062"
"glascontainer";"470";;"door verstraeteplaats 1";"2018";;"4.4323372190000327";"51.207897108000054"
"glascontainer";"467";;"vandenpeereboomstraat 100";"2140";;"4.4363333020000368";"51.209307688000081"
"glascontainer";"368";;"koxplein null";"2140";;"4.4339411380000229";"51.211282801000038"
"glascontainer";"399";;"bleekhofstraat 119";"2140";;"4.4323721740000224";"51.211453860000063"
"glascontainer";"383";;"van der meydenstraat null";"2140";;"4.4276513040000509";"51.210225373000071"
"glascontainer";"306";;"korte lozanastraat null";"2018";;"4.4088526700000443";"51.195404598000039"
"glascontainer";"262";;"lange lozanastraat 187";"2018";;"4.4066092030000732";"51.200799213000039"
"glascontainer";"394";;"lange leemstraat 387";"2018";;"4.4257862400000363";"51.203761887000041"
"glascontainer";"645";;"oudeleeuwenrui 1";"2000";;"4.4055597660000672";"51.226986122000028"
"glascontainer";"646";;"oudeleeuwenrui 4";"2000";;"4.405555692000064";"51.226905606000059"
"glascontainer";"064";;"beatrijslaan null";"2050";;"4.38176849000007";"51.21457386600008"
"glascontainer";"141";;"beatrijslaan null";"2050";;"4.381801830000029";"51.214556334000065"
"glascontainer";"480";;"beatrijslaan null";"2050";;"4.3818379190000201";"51.214540645000056"
"glascontainer";"336";;"beatrijslaan 12";"2050";;"4.3866504350000355";"51.219441604000053"
"glascontainer";"332";;"hanegraefstraat 22";"2050";;"4.3806196440000349";"51.219186771000068"
"glascontainer";"099";;"blancefloerlaan 177";"2050";;"4.3727429010000378";"51.219859223000071"
"glascontainer";"159";;"blancefloerlaan 177";"2050";;"4.3728659780000498";"51.219859217000078"
"glascontainer";"530";;"lode zielenslaan null";"2050";;"4.3784995430000322";"51.221636515000057"
"glascontainer";"079";;"carel van manderstraat null";"2050";;"4.3828649460000406";"51.223871522000081"
"glascontainer";"189";;"carel van manderstraat null";"2050";;"4.3829974940000511";"51.223865563000061"
"glascontainer";"301";;"lode zielenslaan null";"2050";;"4.3818512170000758";"51.221838304000073"
"glascontainer";"136";;"frederik van edenplein null";"2050";;"4.3864626190000422";"51.223228895000034"
"glascontainer";"095";;"frederik van edenplein null";"2050";;"4.3864531890000649";"51.223306188000038"
"glascontainer";"337";;"halewijnlaan 43";"2050";;"4.3788223110000217";"51.225215652000031"
"glascontainer";"531";;"paul housmansstraat null";"2050";;"4.3778189360000397";"51.226482126000064"
"glascontainer";"342";;"julius vuylstekelaan 5";"2050";;"4.3788705220000566";"51.228729411000074"
"glascontainer";"277";;"august vermeylenlaan null";"2050";;"4.3770524160000264";"51.228670114000067"
"glascontainer";"259";;"august vermeylenlaan null";"2050";;"4.3783881740000652";"51.23125626500007"
"glascontainer";"503";;"august vermeylenlaan null";"2050";;"4.3778678220000415";"51.233414507000077"
"glascontainer";"093";;"esmoreitlaan null";"2050";;"4.3851503710000657";"51.23328284400003"
"glascontainer";"199";;"esmoreitlaan null";"2050";;"4.3852640060000567";"51.233282827000039"
"glascontainer";"092";;"gloriantlaan null";"2050";;"4.3858394900000235";"51.227705918000026"
"glascontainer";"185";;"gloriantlaan null";"2050";;"4.3858205180000596";"51.227622679000035"
"glascontainer";"524";;"thonetlaan 56";"2050";;"4.3919653990000711";"51.23072551100006"
"glascontainer";"341";;"jachthavenweg 2";"2050";;"4.3927361150000479";"51.233519281000042"
"glascontainer";"521";;"kastanjedreef null";"2050";;"4.3909659180000631";"51.234982221000053"
"glascontainer";"329";;"dwarslaan 9";"2050";;"4.350181156000076";"51.222010329000057"
"glascontainer";"284";;"berchemlei 226";"2140";;"4.446687207000025";"51.203174484000044"
"glascontainer";"017";;"berchemlei 69";"2140";;"4.4491198270000609";"51.206033523000031"
"glascontainer";"120";;"berchemlei 69";"2140";;"4.4490594790000273";"51.206020935000026"
"glascontainer";"404";;"bikschotelaan 230";"2140";;"4.4494049280000354";"51.196649226000034"
"glascontainer";"359";;"saffierstraat 129";"2600";;"4.4394713070000762";"51.194452069000079"
"glascontainer";"311";;"marsstraat null";"2600";;"4.4405890620000719";"51.202240952000068"
"glascontainer";"217";;"karel de preterlei 110";"2140";;"4.4501660300000481";"51.20359867600007"
"glascontainer";"003";;"karel de preterlei 222";"2140";;"4.4503057460000264";"51.200197952000053"
"glascontainer";"107";;"karel de preterlei 222";"2140";;"4.4503107150000574";"51.200160053000047"
"glascontainer";"076";;"vosstraat 19";"2140";;"4.4531614810000519";"51.198045656000033"
"glascontainer";"138";;"vosstraat 19";"2140";;"4.4531766150000749";"51.198083532000055"
"glascontainer";"493";;"kardinaal cardijnplein 17";"2140";;"4.4536544900000763";"51.195598227000062"
"glascontainer";"073";;"ruimtevaartlaan 29";"2100";;"4.4575210680000623";"51.194095524000033"
"glascontainer";"102";;"ruimtevaartlaan 29";"2100";;"4.4575712850000286";"51.194076538000047"
"glascontainer";"220";;"jozef verbovenlei 80";"2100";;"4.4566620910000552";"51.202147816000036"
"glascontainer";"506";;"unitaslaan 97";"2100";;"4.464601311000024";"51.196417002000032"
"glascontainer";"042";;"mortselsesteenweg 169";"2100";;"4.4674123960000429";"51.19495904300004"
"glascontainer";"110";;"mortselsesteenweg 169";"2100";;"4.4674024280000708";"51.194993783000029"
"glascontainer";"285";;"fort iii-straat 9";"2100";;"4.4730833220000363";"51.193820563000031"
"glascontainer";"096";;"eksterlaar null";"2100";;"4.4704022170000712";"51.199421194000081"
"glascontainer";"187";;"eksterlaar null";"2100";;"4.4703669740000578";"51.199392812000042"
"glascontainer";"504";;"dascottelei 114";"2100";;"4.4702915420000409";"51.203933369000026"
"glascontainer";"035";;"herentalsebaan 515";"2100";;"4.4757124480000243";"51.205077857000049"
"glascontainer";"123";;"herentalsebaan 515";"2100";;"4.47577274300005";"51.20507148300004"
"glascontainer";"328";;"jos van geellaan null";"2100";;"4.4697324490000483";"51.20797860600004"
"glascontainer";"351";;"ruggeveldlaan 12";"2100";;"4.4729882070000713";"51.20953871100005"
"glascontainer";"330";;"boterlaarbaan 400";"2100";;"4.4785841480000386";"51.207891681000035"
"glascontainer";"097";;"vaartweg null";"2100";;"4.464218742000071";"51.210654488000046"
"glascontainer";"184";;"vaartweg null";"2100";;"4.464263939000034";"51.210629193000045"
"glascontainer";"086";;"dascottelei 48";"2100";;"4.4672175390000461";"51.202538809000032"
"glascontainer";"186";;"dascottelei 48";"2100";;"4.4672728320000488";"51.202535598000054"
"glascontainer";"518";;"boekenberglei 129";"2100";;"4.4598624060000702";"51.19897680300005"
"glascontainer";"068";;"van havreplein null";"2100";;"4.4537956490000283";"51.206603385000051"
"glascontainer";"147";;"van havreplein null";"2100";;"4.4537990030000287";"51.206575644000054"
"glascontainer";"127";;"arenaplein null";"2100";;"4.4583355390000747";"51.206947872000057"
"glascontainer";"007";;"arenaplein null";"2100";;"4.4583218950000401";"51.206922274000078"
"glascontainer";"314";;"monseigneur van goethemplein 8";"2140";;"4.4515468230000579";"51.208703009000033"
"glascontainer";"287";;"luitenant lippenslaan 1";"2140";;"4.4524671000000353";"51.210281719000079"
"glascontainer";"309";;"joe englishstraat 42";"2140";;"4.4475177320000512";"51.211068454000042"
"glascontainer";"514";;"collegelaan 5";"2140";;"4.4504779100000746";"51.213301000000058"
"glascontainer";"511";;"griffier schobbenslaan 1";"2140";;"4.453573575000064";"51.215138528000068"
"glascontainer";"067";;"cornelissenlaan null";"2100";;"4.4590798810000365";"51.214001093000036"
"glascontainer";"168";;"cornelissenlaan null";"2100";;"4.4590356780000207";"51.213988319000066"
"glascontainer";"232";;"august van de wielelei 56";"2100";;"4.4773856240000214";"51.218735244000072"
"glascontainer";"362";;"sint-bernardsesteenweg 847";"2660";;"4.3634128250000686";"51.169284359000073"
"glascontainer";"238";;"deurnsebaan 52";"2170";;"4.4500290050000331";"51.244256496000048"
"glascontainer";"280";;"borrewaterstraat 123";"2170";;"4.4453561090000449";"51.239606605000063"
"glascontainer";"024";;"sint-bartholomeusstraat 15";"2170";;"4.4411710820000394";"51.241609101000051"
"glascontainer";"105";;"sint-bartholomeusstraat 15";"2170";;"4.4410876980000467";"51.241590133000045"
"glascontainer";"264";;"vuurkruisenlaan 16";"2170";;"4.4394479560000377";"51.244549577000043"
"glascontainer";"246";;"stella marisstraat 2";"2170";;"4.4376340430000596";"51.242705211000043"
"glascontainer";"216";;"jaak coveliersstraat 44";"2170";;"4.4342421540000601";"51.239449085000047"
"glascontainer";"343";;"ferdinandusdijkstraat 43";"2170";;"4.433213108000075";"51.240477028000043"
"glascontainer";"339";;"lambrechtshoekenlaan 44";"2170";;"4.4296961590000592";"51.245349414000032"
"glascontainer";"247";;"kluizeveldenstraat 240";"2170";;"4.4337683550000406";"51.247283024000069"
"glascontainer";"345";;"lambrechtshoekenlaan 135";"2170";;"4.4321173940000449";"51.248106781000047"
"glascontainer";"167";;"lambrechtshoekenlaan 238";"2170";;"4.4341989650000642";"51.251630054000032"
"glascontainer";"085";;"lambrechtshoekenlaan 238";"2170";;"4.4342898940000737";"51.251615738000055"
"glascontainer";"429";;"sluitberg null";"2170";;"4.4314412210000569";"51.25240210700008"
"glascontainer";"164";;"nieuwdreef 178";"2170";;"4.4380235120000293";"51.249701526000081"
"glascontainer";"091";;"nieuwdreef 178";"2170";;"4.4380537530000765";"51.249649196000064"
"glascontainer";"468";;"geertshoek 24";"2170";;"4.4289670740000702";"51.255628190000039"
"glascontainer";"434";;"victor govaerslaan 16";"2170";;"4.4336984000000257";"51.256719590000046"
"glascontainer";"420";;"klein heiken 2";"2180";;"4.4121309860000224";"51.296447034000039"
"glascontainer";"419";;"klein heiken 189";"2180";;"4.4225410700000225";"51.299586228000067"
"glascontainer";"502";;"schriek 129";"2180";;"4.4295515160000605";"51.287898282000072"
"glascontainer";"500";;"van de weyngaertplein 28";"2180";;"4.4379538690000686";"51.293773833000046"
"glascontainer";"474";;"maria-theresialei 4";"2180";;"4.4392650130000675";"51.297641042000066"
"glascontainer";"166";;"maria-theresialei 4";"2180";;"4.439135924000027";"51.297185009000032"
"glascontainer";"087";;"maria-theresialei 4";"2180";;"4.4391857960000607";"51.297153682000044"
"glascontainer";"326";;"lindenlei 39";"2180";;"4.4271201990000577";"51.277693107000061"
"glascontainer";"486";;"kardelaan 1";"2180";;"4.4330158270000766";"51.280491483000048"
"glascontainer";"516";;"kardelaan 8";"2180";;"4.4314279060000672";"51.283293832000027"
"glascontainer";"510";;"veltwijcklaan 238";"2180";;"4.4360177050000402";"51.281634419000056"
"glascontainer";"421";;"isabellalei 7";"2180";;"4.4444845350000719";"51.286307065000074"
"glascontainer";"463";;"pinksterbloemlaan 64";"2180";;"4.4467765610000356";"51.281366370000057"
"glascontainer";"483";;"prinshoeveweg 95";"2180";;"4.4471155030000205";"51.279761553000071"
"glascontainer";"479";;"weegbreelaan 24";"2180";;"4.4411151450000261";"51.279723625000031"
"glascontainer";"487";;"oudebaan 74";"2180";;"4.4510188430000426";"51.27686852000005"
"glascontainer";"491";;"gerardus stijnenlaan 60";"2180";;"4.4477807690000759";"51.274095400000078"
"glascontainer";"477";;"vazallaan 4";"2180";;"4.4428970510000454";"51.273643890000073"
"glascontainer";"520";;"notelaarlaan 5";"2180";;"4.4555999280000265";"51.27129878900007"
"glascontainer";"499";;"schouwvegerstraat null";"2040";;"4.3158226390000323";"51.340264649000062"
"glascontainer";"494";;"prelatenstraat 12";"2040";;"4.3123383810000746";"51.345939644000055"
"glascontainer";"513";;"cecilianenstraat 42";"2040";;"4.3245431770000664";"51.344050573000061"
"glascontainer";"497";;"dominicanenstraat null";"2040";;"4.3252545750000309";"51.345875038000031"
"glascontainer";"106";;"monnikenhofstraat 182";"2040";;"4.329574874000059";"51.347651983000048"
"glascontainer";"027";;"monnikenhofstraat 182";"2040";;"4.3295835390000548";"51.347622218000026"
"glascontainer";"496";;"frederik-hendrikstraat 11";"2040";;"4.3235267100000669";"51.34956341700007"
"glascontainer";"160";;"derdeweg null";"2040";;"4.3032703840000295";"51.351743762000069"
"glascontainer";"100";;"derdeweg null";"2040";;"4.3033179410000457";"51.351741083000036"
"glascontainer";"492";;"norbertijnenstraat 17";"2040";;"4.3352383330000634";"51.346773991000077"
"glascontainer";"224";;"steenovenstraat 66";"2040";;"4.3344595460000619";"51.354073729000049"
"glascontainer";"320";;"bremstraat 1";"2040";;"4.3260250090000341";"51.357192551000026"
"glascontainer";"319";;"antwerpsebaan 413";"2040";;"4.3313526710000474";"51.369542502000058"
"glascontainer";"300";;"armenstraatje null";"2040";;"4.3173642680000626";"51.35700203500005"
"glascontainer";"523";;"putsebaan 8";"2040";;"4.3154360780000616";"51.35929688300007"
"glascontainer";"508";;"de keyserhoeve 18";"2040";;"4.3084887650000496";"51.359816627000043"
"glascontainer";"304";;"magershoek null";"2040";;"4.2891563850000693";"51.34690665200003"
"glascontainer";"289";;"vestingstraat null";"2040";;"4.2880692510000245";"51.304364317000079"
"glascontainer";"297";;"wijtvliet null";"2040";;"4.328393510000069";"51.27450299800006"
"glascontainer";"641";;"tolstraat 87";"2000";;"4.4016857760000221";"51.208953422000036"
"glascontainer";"xxx";;"beatrijslaan null";"2050";;"4.3866606400000592";"51.219440623000025"
"glascontainer";;;"de keyserlei 43";"2018";;"4.4191652320000685";"51.217522515000041"