"data_type";"title";"description";"street";"postal";"district";"long";"lat"
"papiermand";"9427";;"provinciestraat 148";"2018";;"4.4259488840000358";"51.213101726000048"
"papiermand";"9297";;"lode zielenslaan null";"2050";;"4.3819773310000301";"51.221783271000049"
"papiermand";"9589";;"lange lozanastraat 76";"2018";;"4.4045203210000636";"51.204242638000039"
"papiermand";"9517";;"gravinstraat 48";"3000";;"4.4438159690000703";"51.21498153400006"
"papiermand";"9456";;"lange leemstraat 34";"2018";;"4.4103544320000765";"51.209523347000072"
"papiermand";"1243";;"grotesteenweg 154";"2600";;"4.4200074460000565";"51.194662066000035"
"papiermand";"1298";;"grotesteenweg 150";"2600";;"4.4194197780000763";"51.195258416000058"
"papiermand";"1781";;"gemeentestraat 32";"2060";;"4.4204541820000713";"51.218971964000048"
"papiermand";"2124";;"gemeentestraat 12";"2060";;"4.4191905560000464";"51.219166106000046"
"papiermand";"1264";;"franklin rooseveltplaats null";"2060";;"4.4182351040000754";"51.219294282000078"
"papiermand";;;"august van de wielelei null";"2100";;"4.4965968620000467";"51.222837451000032"
"papiermand";"0952";;"loosplaats plein";"2018";;"4.4182437000000618";"51.210153044000037"
"papiermand";"0923";;"quinten matsijslei 52";"2018";;"4.4180296680000311";"51.210485834000053"
"papiermand";"1005";;"van eycklei 48";"2018";;"4.4174680740000554";"51.210117736000029"
"papiermand";"1061";;"simonsstraat 58";"2018";;"4.4215560120000532";"51.210687385000028"
"papiermand";"0970";;"mercatorstraat 8";"2018";;"4.4216805490000297";"51.210424812000042"
"papiermand";"1040";;"plantin en moretuslei 91";"2018";;"4.4256335760000525";"51.210672515000056"
"papiermand";"1063";;"provinciestraat 241";"2018";;"4.4257278060000544";"51.210407166000039"
"papiermand";"0947";;"plantin en moretuslei 116";"2018";;"4.4281540720000407";"51.209796152000081"
"papiermand";"1776";;"gemeentestraat null";"2060";;"4.4196645330000592";"51.219289884000034"
"papiermand";"9524";;"gijselsstraat 177";"3000";;"4.4444636370000694";"51.215242183000043"
"papiermand";"2005";;"kerkhofblommenstraat t/o 25";"2170";;"4.4331578790000208";"51.247610107000071"
"papiermand";"2087";;"frankrijklei 166";"2000";;"4.4082407620000481";"51.211491915000067"
"papiermand";"9358";;"noordersingel null";"2140";;"4.4410132140000655";"51.208787134000033"
"papiermand";"9469";;"noordersingel null";"2140";;"4.446175510000046";"51.214407802000039"
"papiermand";"9571";;"noordersingel null";"2140";;"4.4465724760000285";"51.214086552000026"
"papiermand";"9426";;"noordersingel null";"2140";;"4.4479811210000548";"51.218674584000041"
"papiermand";"0904";;"houthulststraat 115";"2170";;"4.4374573310000756";"51.245096748000037"
"papiermand";"0940";;"vuurkruisenlaan 18";"2170";;"4.4392455690000361";"51.244627359000049"
"papiermand";"1206";;"vuurkruisenlaan 14";"2170";;"4.43999522200005";"51.244957923000072"
"papiermand";"0962";;"terlindenhofstraat 76";"2170";;"4.44158664400004";"51.24469189000007"
"papiermand";;;"nieuwdreef 57";"2170";;"4.441303534000042";"51.244941178000033"
"papiermand";;;"nieuwdreef 109";"2170";;"4.4398375310000233";"51.246992542000044"
"papiermand";"1147";;"nieuwdreef 131";"2170";;"4.4379668900000411";"51.249678433000042"
"papiermand";;;"nieuwdreef 192";"2170";;"4.4375906440000676";"51.250123497000061"
"papiermand";"1208";;"nieuwdreef 135";"2170";;"4.4370948040000258";"51.250907758000039"
"papiermand";;;"nieuwdreef 210";"2170";;"4.4370460280000543";"51.250633553000057"
"papiermand";"0373";;"narcisstraat 22";"2170";;"4.4361778290000302";"51.249330937000082"
"papiermand";"0310";;"krokusstraat 21";"2170";;"4.4366791600000397";"51.248879522000038"
"papiermand";"1146";;"nieuwdreef 136";"2170";;"4.4385652050000317";"51.248396667000065"
"papiermand";;;"nieuwdreef 126";"2170";;"4.4394369500000721";"51.247326684000029"
"papiermand";"0321";;"runcvoort 36";"2170";;"4.4385106450000649";"51.246587848000047"
"papiermand";;;"nieuwdreef 62";"2170";;"4.441036112000063";"51.245087881000075"
"papiermand";;;"groenendaallaan 16";"2170";;"4.4363653180000711";"51.240776334000032"
"papiermand";;;"groenendaallaan 132";"2170";;"4.4313741250000476";"51.242934276000028"
"papiermand";;;"lambrechtshoekenlaan 180";"2170";;"4.4332044220000739";"51.249537884000063"
"papiermand";;;"lambrechtshoekenlaan 266";"2170";;"4.4350283590000572";"51.252533517000074"
"papiermand";;;"lambrechtshoekenlaan 281";"2170";;"4.4345562770000697";"51.252497159000029"
"papiermand";"0316";;"schoonakkerpad  ";"2170";;"4.4306793610000454";"51.255681217000074"
"papiermand";;;"catershoflaan 150";"2170";;"4.452535125000054";"51.257567214000062"
"papiermand";"0407";;"hooimate 43";"2170";;"4.4297216800000569";"51.254334939000046"
"papiermand";"0285";;"klein beemdeke  ";"2170";;"4.430062390000046";"51.252902260000042"
"papiermand";"1257";;"bergen op zoomlaan 23";"2170";;"4.4275646260000485";"51.248929750000059"
"papiermand";;;"hendrik van boutersemstraat  ";"2170";;"4.4290329900000529";"51.250368066000078"
"papiermand";"0351";;"markiezenhof 1";"2170";;"4.4287314620000302";"51.249094051000043"
"papiermand";;;"lambrechtshoekenlaan 191";"2170";;"4.432970373000046";"51.249906417000034"
"papiermand";"1097";;"kerkhofblommenstraat 4-6";"2170";;"4.4332073890000743";"51.247823462000042"
"papiermand";"0377";;"wijngaardberg 59";"2170";;"4.4333005590000312";"51.245842028000027"
"papiermand";"0298";;"wijngaardberg 72";"2170";;"4.4337095860000204";"51.245513960000039"
"papiermand";;;"wijngaardberg 72";"2170";;"4.4333631620000347";"51.245461571000078"
"papiermand";"1141";;"constant de jongstraat 66";"2170";;"4.4378832330000364";"51.241733965000037"
"papiermand";"1184";;"constant de jongstraat 56";"2170";;"4.4383074750000446";"51.241728957000078"
"papiermand";"1196";;"constant de jongstraat 44";"2170";;"4.4385023110000361";"51.241984036000076"
"papiermand";"1175";;"stella marisstraat 3";"2170";;"4.4380132140000228";"51.242520096000078"
"papiermand";"0939";;"brederodestraat 184-188";"2018";;"4.3911103380000327";"51.200813657000026"
"papiermand";"0900";;"dendermondestraat 8";"2018";;"4.3946406000000593";"51.204408624000052"
"papiermand";"0896";;"brederodestraat 77";"2018";;"4.395168831000035";"51.204697741000075"
"papiermand";"0762";;"jachthavenweg 2";"2050";;"4.39225573300007";"51.233497945000067"
"papiermand";"0777";;"jachthavenweg 1";"2050";;"4.3945043240000246";"51.234326583000041"
"papiermand";"0723";;"jachthavenweg 44";"2050";;"4.3924488930000507";"51.232495577000066"
"papiermand";"1004";;"bredabaan 356";"2170";;"4.4407448600000521";"51.24260345600004"
"papiermand";"1267";;"bredabaan 374";"2170";;"4.4415612620000502";"51.242940477000047"
"papiermand";"0840";;"stella marisstraat 2";"2170";;"4.4376393800000642";"51.242464842000061"
"papiermand";"1027";;"stella marisstraat 45";"2170";;"4.437574484000038";"51.242970528000058"
"papiermand";"1190";;"maantjessteenweg 202";"2170";;"4.4372942980000403";"51.254862145000061"
"papiermand";"0981";;"frans adriaenssensstraat 152";"2170";;"4.44167709900006";"51.254957747000049"
"papiermand";"0919";;"frans adriaenssensstraat 12";"2170";;"4.442600513000059";"51.251140243000066"
"papiermand";"0895";;"terlindenhofstraat 183";"2170";;"4.4438881100000458";"51.247714013000063"
"papiermand";"1135";;"terlindenhofstraat null";"2170";;"4.4436345730000539";"51.250201203000074"
"papiermand";;;"hof van rosendael 310";"2170";;"4.4444362820000265";"51.250836310000068"
"papiermand";"1169";;"rodeloopstraat 27";"2170";;"4.4410165890000712";"51.250984311000082"
"papiermand";"0510";;"meeuwenplein 20";"2170";;"4.4398566670000719";"51.252240430000029"
"papiermand";;;"maantjessteenweg 16";"2170";;"4.4466930990000719";"51.254555055000026"
"papiermand";;;"maantjessteenweg 16";"2170";;"4.4466204200000448";"51.254900659000043"
"papiermand";;;"maantjessteenweg 89";"2170";;"4.4405660330000387";"51.255204133000063"
"papiermand";"1278";;"van heybeeckstraat  ";"2170";;"4.449934393000035";"51.247665569000048"
"papiermand";"1338";;"van heybeeckstraat  ";"2170";;"4.4501719860000435";"51.24777001800004"
"papiermand";"1176";;"parkweg 28";"2170";;"4.4489357650000443";"51.247050112000068"
"papiermand";;;"laarsebaan  ";"2170";;"4.4382247620000612";"51.26064051000003"
"papiermand";;;"leugenberg 60";"2180";;"4.411379666000073";"51.293285686000047"
"papiermand";;;"kloosterstraat 122";"2180";;"4.4161527730000216";"51.283591272000081"
"papiermand";;;"driehoekstraat 302";"2180";;"4.4290538360000369";"51.287947627000051"
"papiermand";;;"volkstuinlei null";"2170";;"4.4450011640000753";"51.259403408000026"
"papiermand";"1224";;"lindeboomplein 15";"2170";;"4.4467635510000605";"51.259804061000068"
"papiermand";;;"laaglandlaan 337";"2170";;"4.4459400170000549";"51.260363356000028"
"papiermand";;;"laaglandlaan 341";"2170";;"4.4457634640000379";"51.26052990900007"
"papiermand";"0935";;"kastanjeboomplein 27";"2170";;"4.4462662980000687";"51.257605072000047"
"papiermand";"0915";;"kastanjeboomplein 4";"2170";;"4.4462061540000377";"51.257887254000082"
"papiermand";"0914";;"kastanjeboomplein 8";"2170";;"4.4463326150000739";"51.257982274000028"
"papiermand";"0913";;"kastanjeboomplein 20";"2170";;"4.4468733290000273";"51.25804056100003"
"papiermand";;;"laaglandlaan 228";"2170";;"4.4455060310000363";"51.257354245000045"
"papiermand";;;"korte bremstraat 2";"2170";;"4.4472320020000211";"51.256540824000069"
"papiermand";"1122";;"korte bremstraat 26";"2170";;"4.4471041930000297";"51.257147987000053"
"papiermand";;;"lange bremstraat 75";"2170";;"4.4523270080000543";"51.25784498400003"
"papiermand";;;"lange bremstraat  ";"2170";;"4.456886174000033";"51.256874714000048"
"papiermand";;;"de lunden  ";"2170";;"4.4495020350000232";"51.256726310000033"
"papiermand";;;"bredabaan 762";"2170";;"4.4543595000000664";"51.249131792000071"
"papiermand";;;"bredabaan 750";"2170";;"4.4539320160000671";"51.248791313000027"
"papiermand";"1255";;"bredabaan 776";"2170";;"4.4544639410000286";"51.249610423000036"
"papiermand";"1690";;"bredabaan 715";"2170";;"4.4549209720000249";"51.249540337000042"
"papiermand";;;"bredabaan 785";"2170";;"4.4569713950000391";"51.251925970000059"
"papiermand";;;"bredabaan 875";"2170";;"4.459613981000075";"51.254754929000057"
"papiermand";;;"bredabaan  ";"2170";;"4.4626410050000231";"51.25870055200005"
"papiermand";;;"bredabaan  ";"2170";;"4.462835425000037";"51.258925444000056"
"papiermand";;;"bredabaan  ";"2170";;"4.462762620000035";"51.258922968000036"
"papiermand";;;"bredabaan  ";"2170";;"4.4629084930000431";"51.25888180100003"
"papiermand";;;"bredabaan  ";"2170";;"4.4627945210000348";"51.258663397000078"
"papiermand";"0296";;"vic heymanstraat  15";"2180";;"4.4190432980000764";"51.283930475000034"
"papiermand";"0206";;"bund  ";"2180";;"4.4249862080000639";"51.286247225000068"
"papiermand";"0221";;"bund  ";"2180";;"4.4253770310000391";"51.286173484000074"
"papiermand";"0748";;"biesheuvellaan  ";"2180";;"4.4337694490000672";"51.281141907000062"
"papiermand";"1379";;"essenstraat 19-25";"2060";;"4.4222144050000338";"51.229301400000054"
"papiermand";;;"komedieplaats null";"2000";;"4.406339259000049";"51.216120524000075"
"papiermand";;;"komedieplaats null";"2000";;"4.4068018730000631";"51.215812356000072"
"papiermand";;;"leopoldstraat null";"2000";;"4.4069105480000417";"51.215192847000026"
"papiermand";;;"leopoldstraat null";"2000";;"4.4072072480000202";"51.213942045000067"
"papiermand";"0905";;"bredabaan 431";"2170";;"4.4445203900000365";"51.24389295800006"
"papiermand";"0912";;"bredabaan 449";"2170";;"4.4455225060000316";"51.244357851000075"
"papiermand";;;"bredabaan  ";"2170";;"4.4627263250000624";"51.258714937000036"
"papiermand";;;"fortsteenweg  ";"2170";;"4.4610481780000555";"51.26012191500007"
"papiermand";;;"fortsteenweg 111";"2170";;"4.4601027190000764";"51.260085807000053"
"papiermand";;;"fortsteenweg 111";"2170";;"4.4600986630000534";"51.259890324000025"
"papiermand";;;"fortsteenweg 111";"2170";;"4.4601797720000604";"51.260250043000042"
"papiermand";;;"fortsteenweg null";"2170";;"4.4595757660000572";"51.260979642000052"
"papiermand";;;"fortsteenweg null";"2170";;"4.4590194280000333";"51.261539611000046"
"papiermand";;;"fortsteenweg  ";"2170";;"4.4589965390000543";"51.261125854000056"
"papiermand";"0315";;"bredabaan parking";"2170";;"4.4613050110000358";"51.258411784000032"
"papiermand";"0425";;"bredabaan parking";"2170";;"4.4607464240000354";"51.258602282000027"
"papiermand";;;"bredabaan 844";"2170";;"4.4583069110000224";"51.253533829000048"
"papiermand";;;"bredabaan 781";"2170";;"4.4563962460000539";"51.251655352000057"
"papiermand";;;"bredabaan 759";"2170";;"4.4559328100000357";"51.250918624000064"
"papiermand";"1139";;"du chastellei 48";"2170";;"4.4520268630000714";"51.250449117000073"
"papiermand";"1162";;"du chastellei 45";"2170";;"4.4522993760000418";"51.250299923000057"
"papiermand";;;"kroonplein 40";"2170";;"4.44907360600007";"51.251530649000074"
"papiermand";"1200";;"boerenkrijgplein 12";"2170";;"4.4540550220000341";"51.251101504000076"
"papiermand";"1237";;"eethuisstraat 8";"2170";;"4.4598188010000399";"51.247783114000072"
"papiermand";;;"catershoflaan 12";"2170";;"4.4490316480000729";"51.252091799000027"
"papiermand";"1212";;"melgesdreef 116";"2170";;"4.4553183240000749";"51.256005670000036"
"papiermand";"1172";;"bredabaan 894";"2170";;"4.4599124020000431";"51.255571021000037"
"papiermand";;;"schriek 269";"2180";;"4.438342017000025";"51.290624956000045"
"papiermand";"0747";;"statiestraat null";"2180";;"4.4341294970000718";"51.281925483000066"
"papiermand";"0676";;"dorpstraat 27";"2180";;"4.4188400580000575";"51.27921189500006"
"papiermand";;;"bilderdijkstraat  ";"2030";;"4.4144788920000337";"51.284221049000053"
"papiermand";"1008";;"bredabaan 1";"2170";;"4.4406969890000596";"51.242257678000044"
"papiermand";;;"bredabaan 412";"2170";;"4.4437445960000446";"51.24376045200006"
"papiermand";;;"bredabaan 425";"2170";;"4.4442212920000657";"51.243864920000078"
"papiermand";"1168";;"bredabaan 556";"2170";;"4.4480293890000553";"51.24574493800003"
"papiermand";"0231";;"bredabaan 39";"2170";;"4.4548434780000434";"51.249144621000028"
"papiermand";"0219";;"bredabaan 33";"2170";;"4.454617014000064";"51.249034664000078"
"papiermand";"0250";;"bredabaan 21";"2170";;"4.4544617200000403";"51.248926981000068"
"papiermand";;;"kapelsesteenweg 463";"2180";;"4.4491944400000421";"51.285002089000045"
"papiermand";;;"hof ter heyde 173";"2170";;"4.462323427000058";"51.252419518000067"
"papiermand";;;"hof ter heyde 62";"2170";;"4.4630745070000444";"51.251008174000049"
"papiermand";"0273";;"oudebareellei 9";"2170";;"4.4543887040000527";"51.247827423000047"
"papiermand";"1252";;"deurnsebaan 73";"2170";;"4.4505866940000374";"51.242308596000044"
"papiermand";"1148";;"deurnsebaan 62";"2170";;"4.4499878630000467";"51.243633814000077"
"papiermand";"1225";;"borrewaterstraat 129";"2170";;"4.4455915850000451";"51.239383953000072"
"papiermand";"1241";;"borrewaterstraat 135";"2170";;"4.4456822690000308";"51.239257085000077"
"papiermand";"1151";;"borrewaterstraat 141";"2170";;"4.4457728980000297";"51.239089006000029"
"papiermand";"1216";;"frans de l'arbrelaan 71";"2170";;"4.4414158940000448";"51.238397533000068"
"papiermand";"1229";;"borrewaterstraat 70";"2170";;"4.4446415940000747";"51.240595601000052"
"papiermand";"0395";;"burgemeester jozef nolfplein 1";"2170";;"4.4408367590000353";"51.242099118000056"
"papiermand";"1059";;"bredabaan null";"2170";;"4.439832134000028";"51.241321456000037"
"papiermand";;;"campiniastraat 40";"2170";;"4.4343076970000652";"51.240181840000048"
"papiermand";"0341";;"taxandriastraat 49";"2170";;"4.4338496200000463";"51.239464038000051"
"papiermand";;;"taxandriastraat  ";"2170";;"4.4344786810000301";"51.239672131000077"
"papiermand";"0339";;"winterling 64";"2170";;"4.4292249360000255";"51.240564234000033"
"papiermand";"0332";;"winterling 54";"2170";;"4.429455062000045";"51.240811391000079"
"papiermand";;;"laarsebaan 13";"2170";;"4.4328378940000448";"51.247294238000052"
"papiermand";"0681";;"markt 3";"2180";;"4.4183768820000751";"51.277699166000048"
"papiermand";"0196";;"schepelstraat 4";"2030";;"4.4140395450000369";"51.28447441000003"
"papiermand";"0200";;"schepelstraat 14";"2030";;"4.4140938470000606";"51.28479804400007"
"papiermand";"0176";;"tweekronenstraat 44";"2030";;"4.410843304000025";"51.284517203000064"
"papiermand";"0354";;"successiestraat 24";"2030";;"4.4126496150000207";"51.284471299000074"
"papiermand";"0148";;"groot hagelkruispark  ";"2180";;"4.4140262970000208";"51.277430565000031"
"papiermand";"0108";;"groot hagelkruispark  ";"2180";;"4.4141715740000222";"51.277866624000069"
"papiermand";"0141";;"groot hagelkruispark  ";"2180";;"4.4145527510000306";"51.278142420000052"
"papiermand";"0139";;"groot hagelkruispark  ";"2180";;"4.4146461670000576";"51.278177976000052"
"papiermand";;;"ekerseveldslagstraat  ";"2030";;"4.4087561170000527";"51.28121038200004"
"papiermand";"0198";;"dragondersstraat 5";"2030";;"4.4079544730000748";"51.278663901000073"
"papiermand";"0717";;"markt 20";"2180";;"4.4181020650000278";"51.277782047000073"
"papiermand";"0714";;"dorpstraat 29";"2180";;"4.4190383260000203";"51.279195504000029"
"papiermand";"1053";;"bredabaan 497";"2170";;"4.4473967960000209";"51.245188774000042"
"papiermand";;;"groenendaallaan 164";"2170";;"4.4296454020000624";"51.243414041000051"
"papiermand";;;"groenendaallaan 160";"2170";;"4.4298511750000671";"51.243418615000053"
"papiermand";"1185";;"groenendaallaan 15";"2170";;"4.4357227050000461";"51.240785749000054"
"papiermand";;;"ingenieur menneslaan  ";"2170";;"4.4337516980000373";"51.23986117000004"
"papiermand";;;"ingenieur menneslaan  ";"2170";;"4.4317601240000499";"51.238616369000056"
"papiermand";;;"groenendaallaan 4";"2170";;"4.4369921260000638";"51.240261134000036"
"papiermand";"0842";;"bredabaan 263";"2170";;"4.4378854150000393";"51.239832626000066"
"papiermand";;;"minister delbekelaan 52";"2170";;"4.4396691910000641";"51.238834519000079"
"papiermand";;;"minister delbekelaan 47";"2170";;"4.4396898450000322";"51.239134088000071"
"papiermand";;;"frans de l'arbrelaan  ";"2170";;"4.4407059520000303";"51.238155451000068"
"papiermand";"1218";;"frans de l'arbrelaan 14";"2170";;"4.4396693700000469";"51.240586058000076"
"papiermand";;;"frans de l'arbrelaan 1";"2170";;"4.4397608780000724";"51.24096959700006"
"papiermand";;;"frans de l'arbrelaan 4";"2170";;"4.4397051320000287";"51.240849170000047"
"papiermand";;;"bredabaan 328";"2170";;"4.4402093640000544";"51.241942578000078"
"papiermand";;;"bredabaan 330";"2170";;"4.4402700470000696";"51.241985344000057"
"papiermand";"0937";;"bredabaan 374";"2170";;"4.4417707610000434";"51.242677923000031"
"papiermand";"0903";;"bredabaan 387";"2170";;"4.442768453000042";"51.243167767000045"
"papiermand";"0886";;"bredabaan 401";"2170";;"4.4434341310000605";"51.243452747000049"
"papiermand";"1047";;"bredabaan 433";"2170";;"4.444861999000068";"51.244063675000064"
"papiermand";"1205";;"bredabaan 453";"2170";;"4.445733930000074";"51.244457796000063"
"papiermand";"1035";;"bredabaan 475";"2170";;"4.4465755380000473";"51.244831322000039"
"papiermand";"0897";;"bredabaan 525";"2170";;"4.4487238640000442";"51.245792020000067"
"papiermand";"1219";;"bredabaan 547";"2170";;"4.4496235300000535";"51.246162877000074"
"papiermand";"0901";;"bredabaan null";"2170";;"4.4501085580000677";"51.246382132000065"
"papiermand";"1209";;"bredabaan 561";"2170";;"4.4507677240000589";"51.246706543000073"
"papiermand";"0228";;"schoonbroek  ";"2030";;"4.4070294060000492";"51.277822694000065"
"papiermand";"0178";;"schoonbroek 226";"2030";;"4.4069965230000321";"51.277746350000029"
"papiermand";"0269";;"handboogstraat 4";"2030";;"4.4077107260000616";"51.276419272000055"
"papiermand";"0965";;"thomas greshamstraat 9";"2030";;"4.4067081150000718";"51.272658791000026"
"papiermand";"1249";;"herman vosstraat 3";"2030";;"4.411875933000033";"51.271625801000027"
"papiermand";;;"bredabaan 614";"2170";;"4.4503089030000638";"51.246651632000066"
"papiermand";;;"bredabaan 626";"2170";;"4.4507512100000213";"51.246833614000082"
"papiermand";"1182";;"bredabaan 664";"2170";;"4.4525199490000205";"51.247817366000049"
"papiermand";"0918";;"dokter maurice timmermanslaan 9";"2170";;"4.4518592080000303";"51.248070024000071"
"papiermand";"1014";;"sint-lutgardisstraat 5";"2170";;"4.4516105650000668";"51.248598813000058"
"papiermand";"1250";;"bredabaan 632";"2170";;"4.4509865550000427";"51.247099745000071"
"papiermand";"0268";;"van der delftstraat 2";"2100";;"4.4430411280000612";"51.230806192000045"
"papiermand";"0473";;"tweemontstraat 431";"2100";;"4.4430577310000672";"51.231121834000078"
"papiermand";"0611";;"tweemontstraat 421";"2100";;"4.443089986000075";"51.231351440000026"
"papiermand";"9117";;"bisschoppenhoflaan 68";"2100";;"4.4462237060000689";"51.230160557000033"
"papiermand";"0647";;"van deynsestraat 131";"2100";;"4.4509728210000503";"51.230266679000067"
"papiermand";"0569";;"van deynsestraat 134";"2100";;"4.4512152250000554";"51.230291864000037"
"papiermand";"9141";;"bisschoppenhoflaan 154";"2100";;"4.4507802010000432";"51.231262258000072"
"papiermand";"9306";;"bisschoppenhoflaan 266";"2100";;"4.4558439720000251";"51.23214624700006"
"papiermand";"9113";;"confortalei 237";"2100";;"4.4561672000000385";"51.230850970000063"
"papiermand";"0691";;"confortalei 179";"2100";;"4.4565436810000278";"51.229684042000031"
"papiermand";"0731";;"confortalei 173";"2100";;"4.4566415280000342";"51.229360602000042"
"papiermand";"9140";;"confortalei 132";"2100";;"4.4573335440000506";"51.228187095000067"
"papiermand";"0664";;"confortalei 57";"2100";;"4.4577443780000294";"51.227044449000061"
"papiermand";"0543";;"de bisthovenlei 110";"2100";;"4.4563149980000389";"51.227355829000032"
"papiermand";"0558";;"de manstraat 97";"2100";;"4.4562210020000634";"51.227174433000073"
"papiermand";"0618";;"de bisthovenlei 94";"2100";;"4.45649019800004";"51.227150726000048"
"papiermand";"9030";;"confortalei 12";"2100";;"4.4584695820000206";"51.226242876000072"
"papiermand";;;"ten eekhovelei  ";"2100";;"4.4494715560000486";"51.224976962000028"
"papiermand";"9282";;"de gryspeerstraat 22";"2100";;"4.4536591910000425";"51.226911431000076"
"papiermand";"0576";;"waterhoenlaan 8";"2050";;"4.3821189410000443";"51.220936717000029"
"papiermand";"0752";;"jozef nellenslei 13";"2100";;"4.4517241570000579";"51.22621537200007"
"papiermand";"1084";;"bredabaan 523";"2170";;"4.4485288090000381";"51.245682649000059"
"papiermand";"0820";;"turnhoutsebaan 22";"2100";;"4.4569428980000225";"51.220337739000058"
"papiermand";"0367";;"hof ter lo  ";"2140";;"4.4483257990000311";"51.220813365000026"
"papiermand";"1950";;"groeningerplein 1";"2060";;"4.4381588090000719";"51.220032693000064"
"papiermand";"1854";;"van montfortstraat 67-69";"2060";;"4.437843828000041";"51.219950682000047"
"papiermand";"0382";;"reuzenstraat 33";"2140";;"4.4413052280000329";"51.215972197000042"
"papiermand";"0305";;"delareystraat 7";"2140";;"4.4407984320000651";"51.215844104000041"
"papiermand";;;"mertensstraat 21";"2140";;"4.4405066640000541";"51.216533471000048"
"papiermand";"0638";;"ferdinand berckmansstraat 2";"2140";;"4.4370246430000293";"51.217239220000067"
"papiermand";"0736";;"ferdinand berckmansstraat 5";"2140";;"4.4378228460000742";"51.217105171000071"
"papiermand";"1269";;"ommeganckstraat 33";"2018";;"4.4245370560000765";"51.217558461000067"
"papiermand";"9333";;"provinciestraat 81";"2018";;"4.4257531250000284";"51.215392333000068"
"papiermand";"0153";;"griffier schobbenslaan 45";"2140";;"4.4557212920000211";"51.214797200000078"
"papiermand";"0742";;"lakborslei 339";"2100";;"4.4548505290000548";"51.228150045000064"
"papiermand";;;"cogelsplein 13";"2100";;"4.4547958680000761";"51.219847301000073"
"papiermand";;;"cogelsplein 24";"2100";;"4.4549750210000525";"51.219815466000057"
"papiermand";;;"cogelsplein 38";"2100";;"4.4556341680000742";"51.22000044300006"
"papiermand";"0806";;"turnhoutsebaan 50";"2100";;"4.4582748050000305";"51.220329254000035"
"papiermand";"0805";;"turnhoutsebaan 79";"2100";;"4.4593507140000384";"51.220520703000034"
"papiermand";"9093";;"hooftvunderlei null";"2100";;"4.4608131890000209";"51.218495350000069"
"papiermand";"9091";;"hooftvunderlei null";"2100";;"4.4607633780000242";"51.21882985700006"
"papiermand";"9257";;"sterckshoflei null";"2100";;"4.4633688980000557";"51.214966195000045"
"papiermand";"9073";;"sterckshoflei null";"2100";;"4.4632515300000364";"51.214861880000058"
"papiermand";"9014";;"frank craeybeckxlaan 31";"2100";;"4.4594650650000744";"51.222191334000058"
"papiermand";"9124";;"frank craeybeckxlaan 33";"2100";;"4.4589178160000529";"51.222450130000027"
"papiermand";"0730";;"hallershofstraat 9";"2100";;"4.4563137620000361";"51.221643698000037"
"papiermand";"0464";;"bosuil null";"2100";;"4.4614393750000545";"51.228622187000042"
"papiermand";"0548";;"bosuil null";"2100";;"4.4613626690000387";"51.229395787000044"
"papiermand";;;"bosuil  ";"2100";;"4.4629463920000489";"51.229778116000034"
"papiermand";;;"bosuil  ";"2100";;"4.4629933710000387";"51.229293030000065"
"papiermand";"0547";;"bosuil  ";"2100";;"4.4641719280000416";"51.229079667000065"
"papiermand";"9286";;"gallifortlei  ";"2100";;"4.4678060660000369";"51.229636184000071"
"papiermand";;;"gallifortlei 278";"2100";;"4.4678202020000413";"51.22916697900007"
"papiermand";"9288";;"gallifortlei null";"2100";;"4.4675142650000339";"51.230130990000077"
"papiermand";;;"gallifortlei  ";"2100";;"4.4675558930000534";"51.230709527000045"
"papiermand";;;"jan welterslaan  ";"2100";;"4.4689452060000576";"51.231038046000037"
"papiermand";;;"jan welterslaan  ";"2100";;"4.4699083780000706";"51.229307852000034"
"papiermand";"9064";;"ter heydelaan 274";"2100";;"4.4695126950000486";"51.228468087000067"
"papiermand";"9015";;"ter heydelaan 274";"2100";;"4.4695604410000556";"51.228371349000042"
"papiermand";;;"ter heydelaan 197";"2100";;"4.4646552250000582";"51.227181887000029"
"papiermand";"9061";;"ter heydelaan 197";"2100";;"4.4647459570000478";"51.227107317000048"
"papiermand";"9174";;"ter heydelaan 92";"2100";;"4.4602002760000232";"51.226323164000064"
"papiermand";"0665";;"clara snellingsstraat 109";"2100";;"4.4650341820000676";"51.226110034000044"
"papiermand";"0635";;"eikblokstraat tov 92";"2100";;"4.4628533120000498";"51.223769007000044"
"papiermand";"0503";;"jan brochovenstraat 28";"2100";;"4.4610426500000244";"51.222155221000037"
"papiermand";;;"molenveld null";"2100";;"4.4640558900000542";"51.220589867000058"
"papiermand";;;"molenveld null";"2100";;"4.4640943360000733";"51.220873573000063"
"papiermand";;;"molenveld 4";"2100";;"4.4648592060000283";"51.220891965000078"
"papiermand";;;"molenveld 1";"2100";;"4.4646820750000416";"51.22068446000003"
"papiermand";;;"molenveld 5";"2100";;"4.4648512600000458";"51.220720032000031"
"papiermand";;;"molenveld null";"2100";;"4.4651386510000748";"51.220539838000036"
"papiermand";;;"molenveld null";"2100";;"4.4654472140000507";"51.220839167000065"
"papiermand";"0609";;"gallifortlei 5";"2100";;"4.4609673150000617";"51.220462368000028"
"papiermand";"0648";;"gallifortlei 2";"2100";;"4.4615813650000291";"51.220796340000049"
"papiermand";"0531";;"gallifortlei 2";"2100";;"4.4621107470000538";"51.221278334000033"
"papiermand";"0524";;"lundenstraat 92";"2100";;"4.4635339630000317";"51.222711187000073"
"papiermand";"0454";;"gallifortlei 208";"2100";;"4.4660714170000233";"51.225360998000042"
"papiermand";"9066";;"ter heydelaan 260";"2100";;"4.4688866730000427";"51.227921754000079"
"papiermand";"0529";;"alfons schneiderlaan 192";"2100";;"4.4724656550000645";"51.226428617000067"
"papiermand";"0544";;"baron leroystraat 152";"2100";;"4.4725474720000307";"51.225764384000058"
"papiermand";"0568";;"boshovestraat 141";"2100";;"4.4705683270000236";"51.22303531700004"
"papiermand";"0622";;"louis van craenstraat 32";"2100";;"4.4708617310000704";"51.224892468000064"
"papiermand";"9150";;"alfons schneiderlaan 151";"2100";;"4.4747508890000631";"51.224008554000079"
"papiermand";"9019";;"alfons schneiderlaan 116";"2100";;"4.4751056900000208";"51.223993086000064"
"papiermand";"0696";;"frans versmissenlaan 21";"2100";;"4.4774064140000291";"51.227019455000061"
"papiermand";"1437";;"ruggeveldlaan 701";"2100";;"4.4787949660000663";"51.227669805000062"
"papiermand";"0616";;"lode sellaan 37";"2100";;"4.4769170500000541";"51.226921999000069"
"papiermand";"0343";;"wim saerensplein 7";"2100";;"4.4777420480000387";"51.228611165000075"
"papiermand";"0355";;"wim saerensplein 12";"2100";;"4.478105595000045";"51.228623562000053"
"papiermand";;;"ruggeveldlaan 748";"2100";;"4.4792935710000279";"51.229287136000039"
"papiermand";"9300";;"ruggeveldlaan 814";"2100";;"4.4791324820000682";"51.23156780000005"
"papiermand";;;"bremweide 20";"2100";;"4.4806532970000603";"51.231942032000063"
"papiermand";;;"ter heydelaan 448";"2100";;"4.4781797410000763";"51.232248711000068"
"papiermand";;;"bremweide 414";"2100";;"4.4770263910000381";"51.231772197000055"
"papiermand";;;"bremweide 362";"2100";;"4.4742512910000301";"51.230558177000034"
"papiermand";"9068";;"ter heydelaan 358";"2100";;"4.4739615170000206";"51.230345692000071"
"papiermand";"0456";;"prof. van den wildenberglaan  ";"2100";;"4.4841515820000382";"51.22395597700006"
"papiermand";"0267";;"zwarte-arendlaan  ";"2100";;"4.4843284660000222";"51.223637245000077"
"papiermand";"0450";;"zwarte-arendlaan  ";"2100";;"4.4847006660000375";"51.223160366000059"
"papiermand";"0474";;"zwarte-arendlaan  ";"2100";;"4.4855247140000643";"51.22191298000007"
"papiermand";"0507";;"zwarte-arendlaan  ";"2100";;"4.4850521690000278";"51.222527952000064"
"papiermand";;;"august van de wielelei 255";"2100";;"4.4858219350000468";"51.220671528000082"
"papiermand";"0867";;"venneborglaan 303";"2100";;"4.47051865800006";"51.21986159100004"
"papiermand";"9062";;"turnhoutsebaan 293";"2100";;"4.4698789110000234";"51.21992087700005"
"papiermand";"0680";;"ter rivierenlaan 8";"2100";;"4.4691572450000763";"51.220601437000028"
"papiermand";"9032";;"turnhoutsebaan 228";"2100";;"4.4660868970000251";"51.219902196000078"
"papiermand";;;"turnhoutsebaan 108";"2100";;"4.4613160930000504";"51.220054720000064"
"papiermand";;;"turnhoutsebaan 106";"2100";;"4.4611748430000375";"51.220107135000035"
"papiermand";"9024";;"turnhoutsebaan 106";"2100";;"4.4610384700000623";"51.220072377000065"
"papiermand";"9049";;"turnhoutsebaan 248";"2100";;"4.4737097510000581";"51.21901865600006"
"papiermand";"9111";;"ruggeveldlaan 475";"2100";;"4.481184441000039";"51.218352295000045"
"papiermand";"9301";;"ruggeveldlaan 489";"2100";;"4.4814074980000669";"51.218737261000058"
"papiermand";;;"august van de wielelei null";"2100";;"4.481573557000047";"51.219551856000066"
"papiermand";;;"august van de wielelei 292";"2100";;"4.4863995330000535";"51.220498173000067"
"papiermand";;;"august van de wielelei null";"2100";;"4.4967955650000704";"51.222877628000049"
"papiermand";"0751";;"de berlaimontstraat 11-15";"2100";;"4.4551489850000507";"51.227764717000071"
"papiermand";;;"jef van hoofstraat  ";"2030";;"4.4177287720000322";"51.26731367900004"
"papiermand";;;"ekersesteenweg null";"2030";;"4.4187123250000582";"51.268415403000063"
"papiermand";;;"ekersesteenweg null";"2030";;"4.4180718980000506";"51.268641598000045"
"papiermand";;;"ekersesteenweg null";"2030";;"4.4179742110000575";"51.272950826000056"
"papiermand";;;"de beukelaerlaan  ";"2180";;"4.419074351000063";"51.27696701800005"
"papiermand";;;"markt 7";"2180";;"4.418771548000052";"51.277449915000034"
"papiermand";;;"markt 20";"2180";;"4.4176110090000407";"51.277172165000081"
"papiermand";"0076";;"kristus-koningplein 2";"2180";;"4.4186926910000466";"51.278144359000066"
"papiermand";"0029";;"kristus-koningplein 2A";"2180";;"4.4190528910000353";"51.278125175000071"
"papiermand";"0081";;"kristus-koningplein 11";"2180";;"4.4195118580000212";"51.278284317000043"
"papiermand";"0134";;"kristus-koningplein 7";"2180";;"4.4191934450000758";"51.27836768700007"
"papiermand";"0109";;"kristus-koningplein 9";"2180";;"4.4188029660000439";"51.278429687000028"
"papiermand";"0072";;"markt 1";"2180";;"4.4179768590000208";"51.277136344000041"
"papiermand";"0127";;"groot hagelkruis 4";"2180";;"4.4172038430000384";"51.278146882000044"
"papiermand";"0207";;"tweekronenstraat 106";"2030";;"4.409896697000022";"51.282180288000063"
"papiermand";"0210";;"tweekronenstraat 90";"2030";;"4.4100405060000298";"51.283074794000072"
"papiermand";"0211";;"schoonbroek 62";"2180";;"4.4115842070000326";"51.282000897000046"
"papiermand";;;"schoonbroek 62";"2030";;"4.4114553030000252";"51.282029482000041"
"papiermand";;;"schoonbroek 162";"2180";;"4.4100766270000236";"51.279146757000035"
"papiermand";;;"sprangweelstraat null";"2030";;"4.4069977840000547";"51.274791093000033"
"papiermand";"1404";;"pater strackestraat 5";"2030";;"4.4136827610000751";"51.270454412000049"
"papiermand";"0961";;"krijgsbaan null";"2660";;"4.3624707190000436";"51.169169125000053"
"papiermand";"1198";;"krijgsbaan null";"2660";;"4.3634917860000542";"51.168824011000027"
"papiermand";"1526";;"ernest van dijckkaai null";"2000";;"4.3951434700000505";"51.21896582800008"
"papiermand";"0345";;"maccabilaan 11";"2660";;"4.3381004930000699";"51.178921519000028"
"papiermand";"9379";;"lindendreef null";"2020";;"4.4191479280000294";"51.180892086000028"
"papiermand";"9567";;"lindendreef null";"2020";;"4.4194170160000681";"51.180891968000026"
"papiermand";"1058";;"kruisboogstraat 1";"2030";;"4.4095337890000224";"51.276289433000045"
"papiermand";"0973";;"kruisboogstraat 49";"2030";;"4.4099490500000229";"51.276459512000031"
"papiermand";"0932";;"kruisboogstraat 20";"2030";;"4.4101922280000281";"51.277027803000067"
"papiermand";"0977";;"thomas greshamstraat 15";"2030";;"4.4070468950000645";"51.272348728000054"
"papiermand";;;"thomas greshamstraat 41";"2030";;"4.4079674080000473";"51.271470880000038"
"papiermand";;;"herman vosstraat null";"2030";;"4.4119932380000364";"51.271050889000037"
"papiermand";;;"groot hagelkruis 162";"2030";;"4.4120150850000641";"51.275301477000028"
"papiermand";;;"bilderdijkstraat 3";"2180";;"4.4148639550000439";"51.284192196000049"
"papiermand";"0110";;"kloosterstraat 69";"2180";;"4.4179290620000415";"51.281603530000041"
"papiermand";"0070";;"driehoekstraat 31";"2180";;"4.4199451210000689";"51.280468291000034"
"papiermand";"0126";;"driehoekstraat 73";"2180";;"4.4207487690000562";"51.281861119000041"
"papiermand";"0105";;"driehoekstraat 115";"2180";;"4.4215466560000323";"51.28321390900004"
"papiermand";"1261";;"renaat veremansstraat 4";"2030";;"4.4176733200000626";"51.26958323000008"
"papiermand";"1262";;"pater strackestraat  ";"2030";;"4.4145461790000695";"51.270237222000048"
"papiermand";"1322";;"pater strackestraat  ";"2030";;"4.4138495240000566";"51.269857178000052"
"papiermand";"1391";;"pater strackestraat  ";"2030";;"4.4140984360000743";"51.270358461000058"
"papiermand";"1357";;"pater strackestraat  ";"2030";;"4.4161973870000679";"51.269890543000031"
"papiermand";"0208";;"moerenhoutlaan 47";"2180";;"4.4280710610000256";"51.281924245000027"
"papiermand";"0187";;"moerenhoutlaan 46";"2180";;"4.4277107160000355";"51.281696066000052"
"papiermand";"0278";;"moerenhoutlaan 31";"2180";;"4.4291356860000519";"51.281077026000048"
"papiermand";"0184";;"moerenhoutlaan 25";"2180";;"4.4296209530000397";"51.280995915000062"
"papiermand";"0683";;"veltwijcklaan 125";"2180";;"4.4298659290000728";"51.279875687000072"
"papiermand";;;"veltwijcklaan 84";"2180";;"4.4239373790000514";"51.278342384000041"
"papiermand";;;"steenstraat  ";"2180";;"4.4174559510000222";"51.273553364000065"
"papiermand";;;"de beukelaerlaan  ";"2180";;"4.418169085000045";"51.273881247000077"
"papiermand";;;"veltwijcklaan 214";"2180";;"4.4332843100000332";"51.28122817600007"
"papiermand";;;"jos craeybeckxlaan 4";"2180";;"4.4323021860000722";"51.281223963000059"
"papiermand";"0097";;"bund 1/8";"2180";;"4.4262867580000602";"51.286164092000035"
"papiermand";"0335";;"alfons wensstraat 11";"2180";;"4.4173452210000619";"51.284988724000073"
"papiermand";;;"hof de bist  ";"2180";;"4.4421985500000574";"51.282060809000029"
"papiermand";;;"hof de bist  ";"2180";;"4.4418189950000624";"51.281837503000077"
"papiermand";;;"hof de bist  ";"2180";;"4.4425436580000337";"51.282072482000046"
"papiermand";;;"margrietlaan 16";"2180";;"4.4431865490000746";"51.280994785000075"
"papiermand";;;"kruidenlaan 33";"2180";;"4.4466713860000482";"51.281016279000028"
"papiermand";"0086";;"weegbreelaan 58";"2180";;"4.4399210660000676";"51.279390396000053"
"papiermand";"1288";;"schoutlaan 22";"2180";;"4.4500172150000594";"51.278551445000062"
"papiermand";"0185";;"hendrik kanorastraat  ";"2180";;"4.4338776780000444";"51.288163126000029"
"papiermand";"0180";;"willy staeslei 1";"2180";;"4.4384172230000445";"51.289349708000032"
"papiermand";;;"jos craeybeckxlaan 34";"2180";;"4.4277764020000632";"51.282738445000064"
"papiermand";;;"veltwijcklaan 221";"2180";;"4.437591654000073";"51.281499852000081"
"papiermand";;;"veltwijcklaan 221";"2180";;"4.4377755140000659";"51.281639464000079"
"papiermand";;;"veltwijcklaan 125";"2180";;"4.4298255780000204";"51.28004097400003"
"papiermand";;;"veltwijcklaan 84";"2180";;"4.4239831130000766";"51.278191756000069"
"papiermand";;;"jaak van haesendonckstraat 1";"2180";;"4.4234970640000597";"51.284539531000064"
"papiermand";;;"jaak van haesendonckstraat 1";"2180";;"4.4235904970000206";"51.28463200200008"
"papiermand";"0186";;"van de weyngaertplein  ";"2180";;"4.437963251000042";"51.293731295000043"
"papiermand";"0234";;"kapelsesteenweg 603";"2180";;"4.442436333000046";"51.294434854000031"
"papiermand";"0172";;"kapelsesteenweg 561";"2180";;"4.4437229390000539";"51.292588615000057"
"papiermand";"0173";;"kapelsesteenweg 505";"2180";;"4.4465836450000324";"51.288624789000039"
"papiermand";"0183";;"kapelsesteenweg 303";"2180";;"4.4535208290000696";"51.278672250000056"
"papiermand";;;"kapelsesteenweg 113";"2180";;"4.4578542480000465";"51.272509645000071"
"papiermand";;;"laar 226";"2180";;"4.4582239540000614";"51.271567622000077"
"papiermand";;;"burgemeester e. waghemansbrug  ";"2180";;"4.4481390790000432";"51.269203767000079"
"papiermand";;;"burgemeester e. waghemansbrug null";"2180";;"4.448303084000031";"51.269198442000061"
"papiermand";;;"de oude landen 56";"2180";;"4.4409387070000435";"51.27560580100004"
"papiermand";"9374";;"groenendaallaan 389";"2030";;"4.4226826790000473";"51.244957688000056"
"papiermand";"9365";;"noorderlaan null";"2030";;"4.419996488000038";"51.245158676000074"
"papiermand";"9498";;"noorderlaan null";"2030";;"4.4204705770000601";"51.245562759000052"
"papiermand";"9414";;"noorderlaan  ";"2030";;"4.4198506190000444";"51.246384145000036"
"papiermand";"9478";;"noorderlaan 63";"2030";;"4.4204587640000454";"51.24851168400005"
"papiermand";"9501";;"noorderlaan 63";"2030";;"4.4198297800000432";"51.248550012000067"
"papiermand";"9316";;"santiagostraat 15";"2030";;"4.4210428850000199";"51.249003701000049"
"papiermand";"0612";;"noorderlaan 2";"2030";;"4.420898151000074";"51.248356906000026"
"papiermand";"9609";;"noorderlaan 104a";"2030";;"4.4198311830000421";"51.249798549000047"
"papiermand";"1094";;"noorderlaan 104";"2030";;"4.4212902980000308";"51.249959602000047"
"papiermand";"1112";;"noorderlaan 104E";"2030";;"4.4211955730000341";"51.249962027000038"
"papiermand";"1021";;"noorderlaan 104A";"2030";;"4.4214115610000704";"51.249957174000031"
"papiermand";"0501";;"ruggeveldlaan skatepark";"2100";;"4.4824276840000721";"51.216296574000069"
"papiermand";;;"ruggeveldlaan 748-750";"2100";;"4.479136732000029";"51.229397257000073"
"papiermand";;;"turnhoutsebaan 327-329";"2100";;"4.4725061890000575";"51.219219894000048"
"papiermand";"9008";;"turnhoutsebaan 295-297";"2100";;"4.4698206610000284";"51.219798712000056"
"papiermand";"0824";;"turnhoutsebaan 269";"2100";;"4.4690969860000678";"51.219839370000045"
"papiermand";;;"molenveld 2-3";"2100";;"4.4646761320000223";"51.220868323000047"
"papiermand";"0383";;"groenendaallaan null";"2030";;"4.4220121430000745";"51.247345034000034"
"papiermand";"0340";;"groenendaallaan null";"2030";;"4.4214125330000229";"51.247096935000059"
"papiermand";"0312";;"groenendaallaan  ";"2030";;"4.4216475800000694";"51.247396902000048"
"papiermand";"0309";;"noorderlaan 2";"2030";;"4.4214953510000328";"51.248169741000027"
"papiermand";"0288";;"groenendaallaan null";"2030";;"4.4226424090000478";"51.247364947000051"
"papiermand";"0349";;"groenendaallaan null";"2030";;"4.4223413950000463";"51.247529330000077"
"papiermand";"0371";;"groenendaallaan null";"2030";;"4.422325307000051";"51.247391853000067"
"papiermand";"0281";;"santiagostraat  ";"2030";;"4.4216229760000374";"51.248617606000039"
"papiermand";"0289";;"santiagostraat  ";"2030";;"4.4222133420000205";"51.24873238400005"
"papiermand";"0930";;"columbiastraat 8";"2030";;"4.4229071280000198";"51.247883700000045"
"papiermand";"0995";;"columbiastraat 181";"2030";;"4.4231434220000665";"51.24962411100006"
"papiermand";"0963";;"columbiastraat 199";"2030";;"4.4231543740000347";"51.250387500000045"
"papiermand";"9335";;"canadalaan 154";"2030";;"4.4216965660000369";"51.250221704000069"
"papiermand";"1098";;"canadalaan 152";"2030";;"4.4216749940000568";"51.249911600000075"
"papiermand";"0573";;"venezuelastraat 2";"2030";;"4.4212230480000585";"51.253641704000074"
"papiermand";;;"canadalaan  ";"2030";;"4.4209957330000407";"51.253701264000028"
"papiermand";;;"unolaan 1";"2100";;"4.4595720780000647";"51.21871476900003"
"papiermand";"0733";;"lakborslei 200-202";"2100";;"4.4548880560000725";"51.228565335000042"
"papiermand";"9321";;"columbiastraat 6";"2030";;"4.4231556780000574";"51.253539746000058"
"papiermand";"9361";;"columbiastraat 3";"2030";;"4.4229784430000336";"51.254274675000033"
"papiermand";"0572";;"venezuelastraat 3";"2030";;"4.4221294060000673";"51.254170429000055"
"papiermand";"0256";;"venezuelastraat 3";"2030";;"4.4221406340000726";"51.254046763000076"
"papiermand";"1285";;"canadalaan 240";"2030";;"4.4217955020000659";"51.255440519000047"
"papiermand";"0800";;"solftplaats 2";"2040";;"4.3145152030000418";"51.343317910000053"
"papiermand";"0128";;"wollegrasstraat 7";"2040";;"4.3190978540000629";"51.343667072000073"
"papiermand";"9258";;"monnikenhofstraat 112";"2040";;"4.3229189950000659";"51.346282056000064"
"papiermand";"9005";;"monnikenhofstraat null";"2040";;"4.3226873490000344";"51.346303378000073"
"papiermand";"2088";;"triangel 1";"2040";;"4.3301718280000614";"51.346241759000065"
"papiermand";"0199";;"dominicanenstraat null";"2040";;"4.3236936610000498";"51.345907063000027"
"papiermand";;;"van couwervenstraat 46";"2040";;"4.3263218360000337";"51.342997879000052"
"papiermand";"0837";;"tongerlostraat 2";"2040";;"4.330338060000031";"51.347309560000042"
"papiermand";"0179";;"heiblokken null";"2040";;"4.3384830470000679";"51.347894456000063"
"papiermand";"9238";;"monnikenhofstraat null";"2040";;"4.3402293030000578";"51.348824689000026"
"papiermand";"9302";;"krommeweg 1";"2040";;"4.3378858070000206";"51.349532789000079"
"papiermand";"9296";;"krommeweg null";"2040";;"4.336318034000044";"51.354276612000035"
"papiermand";"0217";;"monnikenhofstraat 197";"2040";;"4.3315474580000455";"51.348263111000051"
"papiermand";"9106";;"monnikenhofstraat 234";"2040";;"4.3315634700000487";"51.348083978000034"
"papiermand";"0868";;"monnikenhofstraat 181";"2040";;"4.3299193930000683";"51.347716240000068"
"papiermand";"9283";;"antwerpsebaan 276";"2040";;"4.3231438900000398";"51.352664348000076"
"papiermand";"0214";;"burgemeester verhulstplein null";"2040";;"4.3246322740000664";"51.353050144000065"
"papiermand";"9261";;"steenovenstraat 13";"2040";;"4.3262658800000509";"51.352441936000048"
"papiermand";"0846";;"steenovenstraat 30A";"2040";;"4.3277962920000732";"51.352547095000034"
"papiermand";"0227";;"ruytermansweg 62";"2040";;"4.3295403310000324";"51.356164686000056"
"papiermand";"9261";;"ruytermansweg 81";"2040";;"4.329331393000075";"51.356219310000029"
"papiermand";;;"putsebaan 204";"2040";;"4.3322735210000474";"51.35804894100005"
"papiermand";"0209";;"bremstraat 1";"2040";;"4.3256495070000369";"51.357923135000078"
"papiermand";"9323";;"groenendaallaan 379";"2030";;"4.4233077050000702";"51.244670371000041"
"papiermand";"0745";;"cogelsplein 7";"2100";;"4.4545533470000578";"51.21981588500006"
"papiermand";"0871";;"putsebaan 112";"2040";;"4.3240843990000712";"51.358169893000081"
"papiermand";"0811";;"antwerpsebaan 337";"2040";;"4.3225540900000397";"51.357774566000046"
"papiermand";"9278";;"putsebaan 73";"2040";;"4.3220942340000761";"51.35804786500006"
"papiermand";"0792";;"putsebaan 16";"2040";;"4.3157043450000288";"51.359170065000058"
"papiermand";"9228";;"putsebaan 10";"2040";;"4.3156358810000484";"51.35926039900005"
"papiermand";"9065";;"de keyserhoeve 18";"2040";;"4.3085285010000689";"51.359806410000033"
"papiermand";;;"zoutestraat 162";"2040";;"4.3064672870000322";"51.355910123000058"
"papiermand";;;"zandvlietse dorpstraat 15";"2040";;"4.3032127760000662";"51.355601629000034"
"papiermand";"0082";;"zoutestraat  ";"2040";;"4.3059620720000567";"51.347346472000027"
"papiermand";"0166";;"zoutestraat 30";"2040";;"4.3053673860000572";"51.343381932000057"
"papiermand";"0090";;"sint-jan baptiststraat 72";"2040";;"4.3068945550000421";"51.339884583000071"
"papiermand";"0195";;"sint-jan baptiststraat 26";"2040";;"4.3109262050000439";"51.34030036200005"
"papiermand";;;"reigersbos  ";"2040";;"4.3137273550000259";"51.33702889500006"
"papiermand";;;"reigersbos  ";"2040";;"4.3135977170000501";"51.339898523000045"
"papiermand";"0171";;"vestingstraat  ";"2040";;"4.2882697940000298";"51.304188194000062"
"papiermand";"0071";;"stroomstraat  ";"2040";;"4.2886154380000221";"51.304414466000026"
"papiermand";"0068";;"haven - lillo  ";"2040";;"4.2908028440000407";"51.303138648000072"
"papiermand";"0106";;"haven - lillo  ";"2040";;"4.2898163630000568";"51.303224876000058"
"papiermand";"0119";;"haven - lillo  ";"2040";;"4.2902361470000301";"51.303160418000061"
"papiermand";"0159";;"haven - lillo  ";"2040";;"4.2911061050000399";"51.303077770000073"
"papiermand";"0096";;"marconistraat  ";"2030";;"4.4089586240000358";"51.29137512300008"
"papiermand";"0240";;"marconistraat  ";"2030";;"4.4088314510000259";"51.291528056000061"
"papiermand";"0235";;"bredestraat  ";"2180";;"4.4130927660000339";"51.303790215000049"
"papiermand";"0182";;"hendrik kanorastraat  ";"2180";;"4.4341259450000621";"51.288855974000057"
"papiermand";"0201";;"van de weyngaertplein 21";"2180";;"4.4381518190000406";"51.293520932000035"
"papiermand";"0229";;"van de weyngaertplein  ";"2180";;"4.4382914950000441";"51.293759106000039"
"papiermand";;;"kapelsesteenweg 246";"2180";;"4.4494041820000234";"51.285022050000066"
"papiermand";"0675";;"isabellalei 8";"2180";;"4.4429792450000605";"51.287679799000045"
"papiermand";"0115";;"vestingstraat null";"2040";;"4.2889510710000422";"51.304473391000045"
"papiermand";"0104";;"vestingstraat null";"2040";;"4.2889890740000283";"51.304411137000045"
"papiermand";"0113";;"tolhuisstraat  ";"2040";;"4.2893385170000329";"51.304247758000031"
"papiermand";"0111";;"stroomstraat 4";"2040";;"4.2899742450000531";"51.303965886000071"
"papiermand";"0077";;"kazerneplein 4";"2040";;"4.2902561360000391";"51.304447401000061"
"papiermand";"0161";;"kazerneplein  ";"2040";;"4.2908739210000704";"51.303905020000059"
"papiermand";"0112";;"kazerneplein 6-9";"2040";;"4.2910750560000679";"51.304269267000052"
"papiermand";"0118";;"havenmarkt 1";"2040";;"4.289908085000036";"51.304645631000028"
"papiermand";"0100";;"omwentelingstraat  ";"2040";;"4.2905221790000496";"51.305160088000036"
"papiermand";"0732";;"luitenant naeyaertplein 18";"2140";;"4.4401642080000556";"51.209840763000045"
"papiermand";"0726";;"luitenant naeyaertplein 16";"2140";;"4.4407931940000367";"51.209581697000033"
"papiermand";"0722";;"maarschalk montgomeryplein plein";"2140";;"4.4381504710000286";"51.211660507000033"
"papiermand";"0721";;"maarschalk montgomeryplein plein";"2140";;"4.4378611770000589";"51.211693110000056"
"papiermand";"0307";;"koxplein 12";"2140";;"4.4342236690000618";"51.211643833000039"
"papiermand";"0370";;"koxplein 25";"2140";;"4.4339704670000515";"51.211368327000059"
"papiermand";"0359";;"koxplein 5";"2140";;"4.4336576690000697";"51.211497730000076"
"papiermand";"1541";;"kronenburgstraat 31";"2000";;"4.3979807930000447";"51.211878428000034"
"papiermand";"1498";;"kasteelpleinstraat 52";"2000";;"4.4019653890000541";"51.209808725000073"
"papiermand";"9461";;"kasteelpleinstraat 59";"2000";;"4.4021880700000224";"51.209930076000035"
"papiermand";"0709";;"begijnenvest 79";"2000";;"4.4057911320000471";"51.211018874000047"
"papiermand";"1517";;"kasteelpleinstraat 5";"2000";;"4.4011057750000759";"51.211806823000074"
"papiermand";;;"kasteelpleinstraat 9";"2000";;"4.4012227550000489";"51.211578681000049"
"papiermand";;;"kasteelpleinstraat 9";"2000";;"4.4012286230000655";"51.211578680000059"
"papiermand";;;"nationalestraat 5";"2000";;"4.4007493310000427";"51.218188171000065"
"papiermand";;;"lange koepoortstraat 1";"2000";;"4.4024656170000753";"51.221705979000035"
"papiermand";;;"lange koepoortstraat 55";"2000";;"4.4024293750000538";"51.222202689000028"
"papiermand";;;"lange koepoortstraat 36";"2000";;"4.4023345870000412";"51.222773003000043"
"papiermand";"1857";;"grote kauwenberg 21";"2000";;"4.4113431760000594";"51.222889577000046"
"papiermand";"1497";;"frans halsplein 6";"2000";;"4.4122273440000299";"51.220769071000063"
"papiermand";"1559";;"frans halsplein 41";"2000";;"4.4125572930000203";"51.221169065000026"
"papiermand";;;"nationalestraat 18";"2000";;"4.4001438070000631";"51.217689232000055"
"papiermand";"0521";;"isabellalei 65";"2018";;"4.4172143840000331";"51.204520305000074"
"papiermand";"2190";;"keizerstraat 8";"2000";;"4.4090494980000585";"51.221473888000048"
"papiermand";"1625";;"keizerstraat 8";"2000";;"4.4084124150000434";"51.221566098000039"
"papiermand";"1406";;"korte zavelstraat 21";"2060";;"4.4263234930000408";"51.22313232700003"
"papiermand";"0820";;"de keyserlei 20-22";"2018";;"4.416576707000047";"51.217662912000037"
"papiermand";"1862";;"pelikaanstraat 2";"2018";;"4.4202294620000657";"51.217027242000029"
"papiermand";"1723";;"pelikaanstraat to 4-8";"2018";;"4.4204766500000687";"51.217030511000075"
"papiermand";"1657";;"koningin astridplein 29A";"2018";;"4.4204769400000714";"51.217524604000062"
"papiermand";"1672";;"koningin astridplein 31-32";"2018";;"4.4205127910000215";"51.21767525100006"
"papiermand";"1687";;"koningin astridplein 36";"2018";;"4.4209133390000375";"51.218115503000035"
"papiermand";"1752";;"koningin astridplein 36";"2018";;"4.4207140430000322";"51.218144104000032"
"papiermand";"1689";;"koningin astridplein 40";"2018";;"4.4209513400000446";"51.218466205000027"
"papiermand";"9097";;"koningin astridplein 40";"2018";;"4.4207235450000439";"51.218481507000035"
"papiermand";"9221";;"koningin astridplein 41-42";"2018";;"4.4207513520000248";"51.218567010000072"
"papiermand";"1646";;"koningin astridplein 43-44";"2018";;"4.4211551480000253";"51.218625000000031"
"papiermand";"1776";;"koningin astridplein 5";"2018";;"4.4208212710000225";"51.219156933000079"
"papiermand";"1732";;"koningin astridplein 7";"2060";;"4.4215862090000542";"51.21902721500004"
"papiermand";"1716";;"koningin astridplein 10-11";"2018";;"4.4214930530000629";"51.218686201000025"
"papiermand";"1868";;"koningin astridplein 14";"2018";;"4.4215980420000278";"51.218383001000063"
"papiermand";"1662";;"koningin astridplein 19-20";"2018";;"4.4213426420000701";"51.218326509000065"
"papiermand";"1009";;"quinten matsijslei 47-48";"2018";;"4.41764325500003";"51.211432598000044"
"papiermand";"1934";;"quellinstraat 51";"2018";;"4.4156513620000624";"51.215255844000069"
"papiermand";"1903";;"quellinstraat 18-22";"2018";;"4.4162580270000262";"51.216785829000059"
"papiermand";"1167";;"quellinstraat 1";"2018";;"4.4166959650000308";"51.217318022000029"
"papiermand";;;"de coninckplein 11";"2060";;"4.419988318000037";"51.221399903000076"
"papiermand";;;"de coninckplein 9-10";"2060";;"4.4201197840000646";"51.221384366000052"
"papiermand";;;"sint-paulusplaats plein";"2000";;"4.401351815000055";"51.225242417000061"
"papiermand";"0063";;"paardenmarkt 6";"2000";;"4.4077804700000343";"51.224956529000053"
"papiermand";"0050";;"paardenmarkt 32";"2000";;"4.409048877000032";"51.224998668000069"
"papiermand";"0022";;"paardenmarkt 56";"2000";;"4.4106465080000703";"51.225012036000066"
"papiermand";"0040";;"paardenmarkt 74";"2000";;"4.4119465890000242";"51.224866114000065"
"papiermand";"0051";;"paardenmarkt 82";"2000";;"4.4123939620000669";"51.224793228000067"
"papiermand";"1924";;"paardenmarkt 92";"2000";;"4.4131605440000499";"51.224688220000075"
"papiermand";"0013";;"paardenmarkt 106";"2000";;"4.4142518310000582";"51.224455354000042"
"papiermand";;;"lammekensraamveld null";"2000";;"4.4111285220000696";"51.215900183000031"
"papiermand";;;"lammekensraamveld null";"2000";;"4.4114206360000594";"51.215926824000064"
"papiermand";;;"graanmarkt null";"2000";;"4.4085545340000749";"51.216042511000069"
"papiermand";;;"graanmarkt null";"2000";;"4.4085969610000575";"51.215839942000059"
"papiermand";;;"graanmarkt null";"2000";;"4.4081103160000339";"51.216050314000029"
"papiermand";;;"graanmarkt null";"2000";;"4.4081222910000406";"51.215832457000033"
"papiermand";;;"de coninckplein 13";"2060";;"4.4200629340000432";"51.221463139000036"
"papiermand";"0337";;"kerkstraat 91";"2060";;"4.4320122700000297";"51.219097747000035"
"papiermand";"0277";;"kerkstraat 90";"2060";;"4.4314962670000568";"51.219077147000064"
"papiermand";"0410";;"kerkstraat 72-74";"2060";;"4.4310971530000529";"51.218739354000036"
"papiermand";"0284";;"kerkstraat 74-76";"2060";;"4.4309834370000658";"51.218926742000065"
"papiermand";"9515";;"van eycklei 7";"2018";;"4.4118159290000563";"51.210945947000027"
"papiermand";"1022";;"stadspark 3";"2018";;"4.4110362380000652";"51.211132846000055"
"papiermand";"1074";;"stadspark 3";"2018";;"4.4111422390000712";"51.211367747000054"
"papiermand";;;"stadspark  ";"2018";;"4.411553346000062";"51.21148714900005"
"papiermand";;;"stadspark  ";"2018";;"4.4115891490000649";"51.211590548000061"
"papiermand";;;"hof van tichelen 43-44";"2020";;"4.3865772860000334";"51.181962426000041"
"papiermand";;;"lange gasthuisstraat plein";"2000";;"4.4046909640000536";"51.213877285000081"
"papiermand";;;"lange gasthuisstraat plein";"2000";;"4.4045328610000638";"51.213975290000064"
"papiermand";;;"lange gasthuisstraat plein";"2000";;"4.4047857680000675";"51.214010589000054"
"papiermand";;;"mechelseplein 3-5";"2000";;"4.4051497040000527";"51.213500381000074"
"papiermand";;;"mechelseplein plein";"2000";;"4.4047289620000356";"51.213413686000081"
"papiermand";"9544";;"mechelseplein 9-11";"2000";;"4.4049668340000494";"51.213318171000026"
"papiermand";"9519";;"mechelseplein 8";"2000";;"4.4048500800000738";"51.21318632100008"
"papiermand";"1060";;"karel oomsstraat 5";"2018";;"4.4097643880000419";"51.196416990000046"
"papiermand";"0027";;"paardenmarkt 17";"2000";;"4.4080112180000697";"51.225134986000057"
"papiermand";"9351";;"paardenmarkt 109";"2000";;"4.4133662720000757";"51.224833923000062"
"papiermand";"0046";;"hessenbrug null";"2000";;"4.409601427000041";"51.225293210000075"
"papiermand";"1440";;"stadswaag 7";"2000";;"4.4074274130000504";"51.224050638000051"
"papiermand";"1528";;"stadswaag 15";"2000";;"4.4073671960000524";"51.223803073000056"
"papiermand";"1580";;"blindestraat 1";"2000";;"4.4063721370000621";"51.222901860000036"
"papiermand";"1629";;"verversrui 7";"2000";;"4.4034345910000638";"51.226054163000072"
"papiermand";"1605";;"verversrui 34";"2000";;"4.4044672530000639";"51.225730901000077"
"papiermand";"9400";;"ankerrui null";"2000";;"4.4134556620000467";"51.22651357400008"
"papiermand";"9433";;"ankerrui null";"2000";;"4.4138024700000642";"51.226166272000057"
"papiermand";"9463";;"italielei 44";"2000";;"4.4149791870000286";"51.224271215000044"
"papiermand";;;"herentalsebaan 154";"2100";;"4.459710666000035";"51.209379944000034"
"papiermand";"9326";;"herentalsebaan 147";"2100";;"4.4595096880000256";"51.209540589000028"
"papiermand";;;"herentalsebaan 145";"2100";;"4.4592275340000356";"51.209675321000077"
"papiermand";"1489";;"frankrijklei 8";"2000";;"4.4155364210000698";"51.219305548000079"
"papiermand";"1596";;"frankrijklei 36";"2000";;"4.4151721220000582";"51.218414666000058"
"papiermand";;;"teniersplaats 9";"2000";;"4.4149630920000504";"51.218180818000064"
"papiermand";;;"teniersplaats 4";"2000";;"4.4148514560000649";"51.217970947000026"
"papiermand";"2045";;"frankrijklei 46";"2000";;"4.4146582630000353";"51.217613097000026"
"papiermand";"1244";;"de keyserlei 6";"2018";;"4.4160410390000493";"51.217744775000028"
"papiermand";"1495";;"quellinstraat 36";"2018";;"4.4160667660000286";"51.216336900000044"
"papiermand";"1893";;"quellinstraat 52";"2018";;"4.4158132680000222";"51.21568304300007"
"papiermand";"1109";;"louiza-marialei 8";"2018";;"4.4126869370000463";"51.213057674000027"
"papiermand";;;"quinten matsijslei null";"2018";;"4.4155592670000487";"51.214534004000029"
"papiermand";;;"quinten matsijslei null";"2018";;"4.4172011700000553";"51.211250068000027"
"papiermand";"0922";;"quinten matsijslei 39";"2018";;"4.4173220540000671";"51.212111198000059"
"papiermand";"9425";;"van eycklei 42";"2018";;"4.4170459550000487";"51.210343200000068"
"papiermand";"9535";;"charlottalei plein";"2018";;"4.417857275000074";"51.209969387000058"
"papiermand";"0892";;"loosplaats plein";"2018";;"4.418251529000031";"51.20996991100003"
"papiermand";"0979";;"brialmontlei 28";"2018";;"4.4206268010000258";"51.209737432000054"
"papiermand";"0504";;"herentalsebaan tov 316";"2100";;"4.4652383770000483";"51.207599231000074"
"papiermand";"0505";;"herentalsebaan 326";"2100";;"4.4655932110000549";"51.207290399000044"
"papiermand";"0619";;"herentalsebaan 388";"2100";;"4.4676983310000651";"51.206426173000068"
"papiermand";"9354";;"herentalsebaan 517";"2100";;"4.476012145000027";"51.205043849000049"
"papiermand";"9438";;"herentalsebaan 545";"2100";;"4.477117382000074";"51.205005149000044"
"papiermand";"9578";;"plantin en moretuslei 12";"2018";;"4.4191333310000687";"51.210274965000053"
"papiermand";;;"stadspark  ";"2018";;"4.415021983000031";"51.214203636000036"
"papiermand";;;"stadspark  ";"2018";;"4.4155906880000657";"51.214069631000029"
"papiermand";;;"stadspark  ";"2018";;"4.4155319740000323";"51.213990728000056"
"papiermand";;;"stadspark  ";"2018";;"4.4156048700000383";"51.213805527000034"
"papiermand";;;"stadspark  ";"2018";;"4.4155903710000644";"51.21381763200003"
"papiermand";;;"stadspark  ";"2018";;"4.4155777780000562";"51.21366602900008"
"papiermand";;;"stadspark  ";"2018";;"4.4154954670000279";"51.21358873500003"
"papiermand";"9103";;"sint-jansplein 60";"2060";;"4.4169607370000676";"51.225527932000034"
"papiermand";"1290";;"sint-jansplein null";"2060";;"4.4171811360000675";"51.225496029000055"
"papiermand";"9128";;"sint-jansplein 56";"2060";;"4.4169955340000229";"51.225377937000076"
"papiermand";"1317";;"sint-jansplein null";"2060";;"4.4172747750000667";"51.225287738000077"
"papiermand";"9184";;"sint-jansplein 51";"2060";;"4.4170595310000635";"51.225172328000042"
"papiermand";"9056";;"sint-jansplein 51";"2060";;"4.4170915260000356";"51.225147030000073"
"papiermand";"1330";;"sint-jansplein null";"2060";;"4.4172183600000494";"51.225193456000056"
"papiermand";"9169";;"sint-jansplein 48";"2060";;"4.4171680930000434";"51.224997018000067"
"papiermand";"9250";;"sint-jansplein 49";"2060";;"4.4171483140000305";"51.225041608000026"
"papiermand";"1358";;"sint-jansplein plein";"2060";;"4.4173753330000523";"51.224938029000043"
"papiermand";"9196";;"sint-jansplein 45";"2060";;"4.4172230270000341";"51.224858133000055"
"papiermand";"1433";;"sint-jansplein null";"2060";;"4.4174932470000385";"51.224768980000078"
"papiermand";"1419";;"sint-jansplein null";"2060";;"4.4178812420000213";"51.224796320000053"
"papiermand";"9388";;"italielei 133";"2000";;"4.415634839000063";"51.22487976900004"
"papiermand";"9320";;"italielei 83";"2000";;"4.4148873780000599";"51.226709306000032"
"papiermand";"1316";;"van de wervestraat 8";"2060";;"4.4153723710000463";"51.229271274000041"
"papiermand";"1631";;"kempischdok-westkaai null";"2000";;"4.4129997170000479";"51.233216457000026"
"papiermand";"9462";;"orteliuskaai 2";"2000";;"4.3998752120000404";"51.22570756600004"
"papiermand";"1348";;"oudesteenweg 81";"2060";;"4.4211499700000445";"51.22675952600008"
"papiermand";"1432";;"trapstraat 10";"2060";;"4.4221268330000498";"51.227297383000064"
"papiermand";"1346";;"trapstraat 14";"2060";;"4.422202005000031";"51.227360222000073"
"papiermand";"9152";;"dambruggestraat 193";"2060";;"4.4218426710000358";"51.225108907000049"
"papiermand";"1019";;"offerandestraat 112";"2060";;"4.4273985660000221";"51.221333272000038"
"papiermand";"1161";;"offerandestraat 92";"2060";;"4.4268722720000255";"51.221049837000066"
"papiermand";"1211";;"offerandestraat 88";"2060";;"4.4267058220000308";"51.220937592000041"
"papiermand";"1195";;"offerandestraat 82";"2060";;"4.4263551750000261";"51.220745236000027"
"papiermand";"1194";;"offerandestraat 49";"2060";;"4.4259671400000684";"51.22066290600003"
"papiermand";"1137";;"offerandestraat 66";"2060";;"4.4258355230000461";"51.220486160000064"
"papiermand";"1150";;"offerandestraat 60";"2060";;"4.4254536190000522";"51.220301663000043"
"papiermand";"1179";;"offerandestraat 33";"2060";;"4.4252346430000671";"51.220325347000028"
"papiermand";"1217";;"offerandestraat 36";"2060";;"4.4249152170000343";"51.220058313000038"
"papiermand";"1136";;"offerandestraat 19";"2060";;"4.4243706820000739";"51.219921054000054"
"papiermand";"1180";;"offerandestraat 16";"2060";;"4.4241890160000708";"51.219740393000052"
"papiermand";"1227";;"offerandestraat 3";"2060";;"4.4237070910000398";"51.219626669000036"
"papiermand";"1159";;"dambruggestraat 17";"2060";;"4.4234313480000651";"51.219253520000052"
"papiermand";"0920";;"dambruggestraat 18";"2060";;"4.4236126880000484";"51.219166993000044"
"papiermand";"1302";;"dambruggestraat 1";"2060";;"4.4234746690000293";"51.218856643000038"
"papiermand";"9348";;"de coninckplein 27";"2060";;"4.421100195000065";"51.221568952000041"
"papiermand";"0323";;"de coninckplein null";"2060";;"4.4205247230000282";"51.221734247000029"
"papiermand";"0591";;"de coninckplein null";"2060";;"4.4207764930000621";"51.221404071000052"
"papiermand";"1671";;"franklin rooseveltplaats null";"2060";;"4.4183746020000285";"51.219522194000035"
"papiermand";"9139";;"franklin rooseveltplaats 11";"2060";;"4.4179350340000383";"51.219861821000052"
"papiermand";"9210";;"franklin rooseveltplaats 11";"2060";;"4.4179443680000645";"51.219770621000066"
"papiermand";"9218";;"franklin rooseveltplaats 11";"2060";;"4.4181580470000199";"51.219745676000059"
"papiermand";"9215";;"franklin rooseveltplaats 11";"2060";;"4.4179243100000463";"51.219726298000069"
"papiermand";"9052";;"franklin rooseveltplaats 11";"2060";;"4.4181307510000352";"51.219691173000058"
"papiermand";;;"van stralenstraat 38";"2060";;"4.419015479000052";"51.220587555000066"
"papiermand";"0870";;"mac leodplein 5";"2050";;"4.3798483860000488";"51.222852916000079"
"papiermand";"9069";;"lode zielenslaan null";"2050";;"4.3787749290000306";"51.221849317000078"
"papiermand";"9043";;"lode zielenslaan null";"2050";;"4.3787977240000373";"51.221704134000049"
"papiermand";"9079";;"blancefloerlaan 40";"2050";;"4.3798217830000681";"51.220501096000078"
"papiermand";"9188";;"blancefloerlaan 40";"2050";;"4.3793893370000205";"51.22049153200004"
"papiermand";;;"blancefloerlaan 42";"2050";;"4.3793415060000598";"51.220507159000078"
"papiermand";"9158";;"blancefloerlaan 42";"2050";;"4.3792132740000511";"51.220393010000066"
"papiermand";"9126";;"blancefloerlaan 69";"2050";;"4.3792629950000332";"51.220266835000075"
"papiermand";"9075";;"blancefloerlaan 69";"2050";;"4.3794294710000372";"51.220269227000074"
"papiermand";"9199";;"blancefloerlaan 69";"2050";;"4.3796374430000355";"51.220279111000082"
"papiermand";"9137";;"blancefloerlaan 69";"2050";;"4.3794150020000302";"51.220220619000031"
"papiermand";;;"blancefloerlaan 167";"2050";;"4.3746107570000277";"51.220504645000062"
"papiermand";"9166";;"blancefloerlaan terminus";"2050";;"4.3627775860000497";"51.220174946000043"
"papiermand";"9165";;"blancefloerlaan terminus";"2050";;"4.3625624740000717";"51.220185571000059"
"papiermand";"9147";;"blancefloerlaan terminus";"2050";;"4.3627941850000411";"51.22021987100004"
"papiermand";"9206";;"gloriantlaan 60";"2050";;"4.3860725150000235";"51.225695109000071"
"papiermand";"9290";;"gloriantlaan to 60";"2050";;"4.3864912110000205";"51.225773017000051"
"papiermand";"9266";;"frederik van eedenplein 4";"2050";;"4.3859642280000344";"51.223107541000047"
"papiermand";"9020";;"frederik van eedenplein 5";"2050";;"4.3864340650000599";"51.223201494000079"
"papiermand";"0849";;"frederik van eedenplein 14";"2050";;"4.3858026850000442";"51.221553455000048"
"papiermand";"0764";;"frederik van eedenplein 17";"2050";;"4.3857973880000714";"51.221004076000042"
"papiermand";"9254";;"frederik van eedenplein to 15";"2050";;"4.3862234030000309";"51.221200316000079"
"papiermand";"0850";;"frederik van eedenplein 15";"2050";;"4.3864366200000404";"51.221212713000057"
"papiermand";"0053";;"frederik van eedenplein 8";"2050";;"4.3864387580000539";"51.222211332000029"
"papiermand";"0047";;"frederik van eedenplein 6";"2050";;"4.3864241270000548";"51.222590609000065"
"papiermand";"0045";;"frederik van eedenplein 1c";"2050";;"4.3864620400000263";"51.223319678000053"
"papiermand";"9011";;"gloriantlaan 46";"2050";;"4.3866522550000582";"51.228355639000029"
"papiermand";"9243";;"gloriantlaan 34";"2050";;"4.3867391210000619";"51.230431452000062"
"papiermand";"9280";;"gloriantlaan 11";"2050";;"4.3868262350000577";"51.233084442000063"
"papiermand";"9342";;"august vermeylenlaan 6";"2050";;"4.377237310000055";"51.23246305300006"
"papiermand";"9334";;"august vermeylenlaan 20";"2050";;"4.3771043060000352";"51.228579884000055"
"papiermand";"0587";;"blancefloerlaan 1";"2050";;"4.3859106600000359";"51.22019883300004"
"papiermand";"0763";;"thonetlaan 1";"2050";;"4.3879170260000251";"51.22075579300008"
"papiermand";"0861";;"thonetlaan 1";"2050";;"4.3879878760000679";"51.220850635000033"
"papiermand";"0048";;"frederik van eedenplein null";"2050";;"4.3873699240000406";"51.221814135000045"
"papiermand";"9127";;"frederik van eedenplein bushaltes FVE";"2050";;"4.3869937430000618";"51.220876573000055"
"papiermand";"9618";;"guldenvliesstraat null";"2600";;"4.4343496020000543";"51.201444997000067"
"papiermand";"1659";;"carnotstraat 165";"2060";;"4.4284956060000695";"51.217473323000036"
"papiermand";"1956";;"carnotstraat 148";"2060";;"4.4285949670000377";"51.217357897000056"
"papiermand";"2070";;"carnotstraat 150";"2060";;"4.4288168640000549";"51.217292885000063"
"papiermand";"0698";;"turnhoutsebaan 6";"2140";;"4.4291935960000615";"51.217102800000077"
"papiermand";"0744";;"turnhoutsebaan 11";"2140";;"4.4295036030000574";"51.217107447000046"
"papiermand";"0667";;"turnhoutsebaan 34";"2140";;"4.429939245000071";"51.216612072000032"
"papiermand";"0753";;"turnhoutsebaan 43";"2140";;"4.4302415740000356";"51.21659268600007"
"papiermand";"0539";;"turnhoutsebaan 60";"2140";;"4.4307441270000254";"51.216056403000039"
"papiermand";"0754";;"turnhoutsebaan 69";"2140";;"4.4311842360000355";"51.216050162000045"
"papiermand";"0659";;"turnhoutsebaan 98";"2140";;"4.4323334880000402";"51.215463052000075"
"papiermand";"0867";;"turnhoutsebaan tov 93";"2140";;"4.4323356280000326";"51.215622892000056"
"papiermand";"0439";;"turnhoutsebaan 136";"2140";;"4.433905778000053";"51.215000687000042"
"papiermand";"0720";;"turnhoutsebaan 131";"2140";;"4.4338199210000653";"51.21517980200008"
"papiermand";"9577";;"turnhoutsebaan 152";"2140";;"4.4348297250000428";"51.214800666000031"
"papiermand";"9460";;"turnhoutsebaan 147";"2140";;"4.4346251590000634";"51.214930575000039"
"papiermand";"0688";;"turnhoutsebaan 168";"2140";;"4.4354628520000574";"51.214626036000027"
"papiermand";"0654";;"turnhoutsebaan 192";"2140";;"4.436562805000051";"51.214410278000059"
"papiermand";"0369";;"turnhoutsebaan 217";"2140";;"4.4374602130000653";"51.214383306000059"
"papiermand";"0700";;"turnhoutsebaan 239";"2140";;"4.438309547000074";"51.214214546000051"
"papiermand";"0663";;"turnhoutsebaan 246";"2140";;"4.4387321010000278";"51.213999172000058"
"papiermand";"0741";;"turnhoutsebaan 274";"2140";;"4.4396714080000379";"51.213855587000069"
"papiermand";"0451";;"turnhoutsebaan 299";"2140";;"4.4402436470000453";"51.213915324000027"
"papiermand";"0719";;"turnhoutsebaan 298";"2140";;"4.4407351210000456";"51.213733544000036"
"papiermand";"0677";;"turnhoutsebaan 308";"2140";;"4.4410413470000663";"51.213776624000047"
"papiermand";"9496";;"turnhoutsebaan 320";"2140";;"4.44152770900007";"51.21398302800003"
"papiermand";;;"carel van manderstraat 2";"2050";;"4.3832272430000216";"51.224307186000033"
"papiermand";"9311";;"gloriantlaan null";"2050";;"4.3868969810000635";"51.234987669000077"
"papiermand";"0058";;"thonetlaan 2";"2050";;"4.387214054000026";"51.234875892000048"
"papiermand";"0041";;"kastanjedreef null";"2050";;"4.3887083620000453";"51.235273799000026"
"papiermand";"0056";;"kastanjedreef  ";"2050";;"4.389050247000057";"51.235257576000038"
"papiermand";"0066";;"kastanjedreef  ";"2050";;"4.3894002880000471";"51.235200211000063"
"papiermand";"0059";;"kastanjedreef  ";"2050";;"4.3895578450000698";"51.235149918000047"
"papiermand";"0016";;"kastanjedreef  ";"2050";;"4.3898617020000756";"51.235106690000066"
"papiermand";"0024";;"kastanjedreef  ";"2050";;"4.3905955500000573";"51.234954763000076"
"papiermand";"0035";;"kastanjedreef null";"2050";;"4.3909036370000649";"51.235011904000032"
"papiermand";"0017";;"kastanjedreef  ";"2050";;"4.3910652240000445";"51.234838289000038"
"papiermand";"0023";;"kastanjedreef null";"2050";;"4.3917754960000366";"51.234603163000031"
"papiermand";"0060";;"kastanjedreef null";"2050";;"4.3924825850000389";"51.234398737000049"
"papiermand";"0043";;"kastanjedreef null";"2050";;"4.3921919430000571";"51.234483235000027"
"papiermand";"0025";;"jachthavenweg  ";"2050";;"4.3944792300000586";"51.234753868000041"
"papiermand";"0044";;"jachthavenweg null";"2050";;"4.3948931240000206";"51.234660914000074"
"papiermand";"0061";;"jachthavenweg  ";"2050";;"4.3945414600000277";"51.234739311000055"
"papiermand";"0018";;"wandeldijk null";"2050";;"4.3934171120000656";"51.23498747900004"
"papiermand";"0054";;"wandeldijk null";"2050";;"4.3927707360000454";"51.235212544000035"
"papiermand";"0003";;"wandeldijk null";"2050";;"4.3923870820000275";"51.235217128000045"
"papiermand";"0036";;"wandeldijk 32";"2050";;"4.3918117320000647";"51.23547794600006"
"papiermand";"0006";;"wandeldijk 28";"2050";;"4.3911330250000447";"51.235501687000067"
"papiermand";;;"wandeldijk null";"2050";;"4.3911330250000447";"51.235501687000067"
"papiermand";"0007";;"wandeldijk  ";"2050";;"4.3894799600000738";"51.235732692000056"
"papiermand";"0062";;"wandeldijk null";"2050";;"4.3887742710000452";"51.235972792000041"
"papiermand";"0009";;"wandeldijk null";"2050";;"4.3880692870000644";"51.235945386000026"
"papiermand";"0001";;"wandeldijk null";"2050";;"4.3874215860000731";"51.235943070000076"
"papiermand";"2052";;"van ertbornstraat 17";"2018";;"4.4170729800000572";"51.218370776000029"
"papiermand";"1823";;"van ertbornstraat 17";"2018";;"4.4171390790000373";"51.218575630000032"
"papiermand";"1615";;"van ertbornstraat 17";"2018";;"4.4171044790000451";"51.218488960000059"
"papiermand";"1679";;"frankrijklei null";"2060";;"4.4162509630000386";"51.219268107000062"
"papiermand";"1867";;"franklin rooseveltplaats plein";"2060";;"4.41705819200007";"51.219336316000067"
"papiermand";;;"breydelstraat 26";"2018";;"4.4193208430000368";"51.218378889000064"
"papiermand";"1371";;"osystraat 18";"2060";;"4.418323626000074";"51.222061475000032"
"papiermand";"1345";;"rotterdamstraat 41";"2060";;"4.4189416720000736";"51.223731215000043"
"papiermand";"1668";;"hollandstraat 21";"2060";;"4.4206203720000303";"51.22319643700007"
"papiermand";"1666";;"hollandstraat 21";"2060";;"4.4209162100000299";"51.22349274000004"
"papiermand";"9102";;"hollandstraat 30";"2060";;"4.4197454200000266";"51.223853060000067"
"papiermand";"1318";;"sint-gummarusstraat 8";"2060";;"4.4195445440000753";"51.224681357000065"
"papiermand";"9082";;"ellermanstraat 90";"2060";;"4.4199504220000563";"51.229888180000046"
"papiermand";"9211";;"ellermanstraat 18";"2060";;"4.4150261880000699";"51.22987855100007"
"papiermand";"1702";;"osystraat 21";"2060";;"4.41803328900005";"51.220861487000036"
"papiermand";;;"osystraat 13";"2060";;"4.4177926540000385";"51.22064941800005"
"papiermand";"9274";;"osystraat 3";"2060";;"4.4176851360000455";"51.220359768000037"
"papiermand";"1906";;"franklin rooseveltplaats 3";"2060";;"4.4169916800000237";"51.220172329000036"
"papiermand";"1915";;"franklin rooseveltplaats 7B";"2060";;"4.4172215430000392";"51.220086726000034"
"papiermand";"1955";;"franklin rooseveltplaats 3";"2060";;"4.4169825560000504";"51.220124829000042"
"papiermand";"1879";;"franklin rooseveltplaats 7B";"2060";;"4.4172093790000417";"51.220035434000067"
"papiermand";"1943";;"franklin rooseveltplaats 3";"2060";;"4.4169703980000463";"51.220079236000061"
"papiermand";"0807";;"franklin rooseveltplaats plein";"2060";;"4.4176292670000521";"51.21961019500003"
"papiermand";"1368";;"lange lobroekstraat 138";"2060";;"4.4307439150000505";"51.230678683000065"
"papiermand";;;"herentalsebaan 683";"2100";;"4.482661920000055";"51.203946634000033"
"papiermand";;;"florent pauwelslei 2";"2100";;"4.4713826650000215";"51.205841942000063"
"papiermand";;;"florent pauwelslei 1";"2100";;"4.4713932990000558";"51.206767753000065"
"papiermand";"0522";;"herentalsebaan 371";"2100";;"4.4685346890000233";"51.206342309000036"
"papiermand";;;"herentalsebaan 140";"2100";;"4.4592256730000486";"51.209485989000029"
"papiermand";"1882";;"franklin rooseveltplaats 7B";"2060";;"4.4172488250000583";"51.220141822000073"
"papiermand";"2007";;"schijnpoortweg 35";"2060";;"4.4394749190000766";"51.227640806000068"
"papiermand";"1754";;"lange lobroekstraat 1A";"2060";;"4.435124801000029";"51.228406695000047"
"papiermand";;;"stadspark  ";"2018";;"4.4150031760000275";"51.21355593800007"
"papiermand";;;"stadspark  ";"2018";;"4.4149935720000713";"51.213737436000031"
"papiermand";;;"stadspark  ";"2018";;"4.4146099770000546";"51.213424936000081"
"papiermand";;;"stadspark  ";"2018";;"4.4145091710000202";"51.213099631000034"
"papiermand";;;"stadspark  ";"2018";;"4.4143630490000305";"51.212052735000043"
"papiermand";;;"stadspark  ";"2018";;"4.4130396570000698";"51.21239784200003"
"papiermand";"0294";;"noordschippersdok plein";"2060";;"4.4304409530000726";"51.233963677000077"
"papiermand";"0414";;"noordschippersdok plein";"2060";;"4.4299233580000532";"51.234170576000054"
"papiermand";"0331";;"ijzerlaan  ";"2060";;"4.4284475790000215";"51.235242281000069"
"papiermand";"9059";;"charles de costerlaan null";"2050";;"4.379375580000044";"51.227775794000081"
"papiermand";"0876";;"tijl uilenspiegellaan 40";"2050";;"4.3821970400000509";"51.229929125000069"
"papiermand";"9341";;"august vermeylenlaan 23";"2050";;"4.378703147000067";"51.229280908000078"
"papiermand";"9370";;"august vermeylenlaan 7";"2050";;"4.3788141050000604";"51.23214491300007"
"papiermand";"9240";;"esmoreitlaan null";"2050";;"4.3827803110000332";"51.233782433000044"
"papiermand";"9242";;"esmoreitlaan null";"2050";;"4.3826665270000262";"51.233372848000045"
"papiermand";"9036";;"esmoreitlaan 1A";"2050";;"4.3856398940000645";"51.233335576000059"
"papiermand";"0817";;"gloriantlaan 3";"2050";;"4.3862506190000659";"51.234011864000081"
"papiermand";"0775";;"gloriantlaan 21";"2050";;"4.3861834060000433";"51.232352534000029"
"papiermand";"9100";;"gloriantlaan 24";"2050";;"4.3861370270000748";"51.230867305000061"
"papiermand";"1655";;"willem van haechtlaan null";"2050";;"4.3839644020000605";"51.229970095000056"
"papiermand";"0596";;"waterhoenlaan 10";"2050";;"4.3821371360000398";"51.220718117000047"
"papiermand";"9072";;"lode zielenslaan null";"2050";;"4.3816005240000209";"51.221632141000043"
"papiermand";"1207";;"onderwijsstraat null";"2060";;"4.4321288300000674";"51.224329066000053"
"papiermand";"1191";;"onderwijsstraat null";"2060";;"4.4320515440000463";"51.224430047000055"
"papiermand";"2096";;"lange stuivenbergstraat 86";"2060";;"4.4320448140000508";"51.224138971000059"
"papiermand";"9381";;"lange stuivenbergstraat 88";"2060";;"4.4321467760000246";"51.224057732000063"
"papiermand";"1152";;"korte ypermanstraat 4";"2060";;"4.4320853570000622";"51.223935982000057"
"papiermand";"1729";;"boerhaavestraat tgo 18";"2060";;"4.4328510860000279";"51.224050927000064"
"papiermand";"1730";;"boerhaavestraat to 18";"2060";;"4.4330484910000223";"51.224089279000054"
"papiermand";"0999";;"schoolstraat 7";"2060";;"4.4314843900000369";"51.224865699000077"
"papiermand";"2022";;"handelstraat 115";"2060";;"4.4315754260000517";"51.224258871000075"
"papiermand";"0275";;"handelstraat 78";"2060";;"4.4309422680000239";"51.224043428000073"
"papiermand";"9359";;"handelstraat 53";"2060";;"4.4294073510000658";"51.223753665000061"
"papiermand";"0325";;"handelstraat 16";"2060";;"4.4280513050000536";"51.223341288000029"
"papiermand";"0279";;"sint-elisabethstraat null";"2060";;"4.4244507630000385";"51.222732029000042"
"papiermand";"0306";;"sint-elisabethstraat null";"2060";;"4.4239846450000755";"51.222742931000028"
"papiermand";"0498";;"diepestraat 42";"2060";;"4.4231562570000733";"51.224251729000059"
"papiermand";"0318";;"diepestraat 27";"2060";;"4.4230270670000209";"51.224345799000048"
"papiermand";"0427";;"diepestraat 69";"2060";;"4.4245572240000683";"51.223546003000081"
"papiermand";"0412";;"diepestraat 135";"2060";;"4.4259711500000662";"51.222342431000072"
"papiermand";"1170";;"lange beeldekensstraat 103";"2060";;"4.4265213640000525";"51.22157941100005"
"papiermand";"1226";;"lange beeldekensstraat 121";"2060";;"4.4272969670000748";"51.221476473000052"
"papiermand";"1418";;"lange beeldekensstraat 137";"2060";;"4.427916074000052";"51.221392826000056"
"papiermand";"1171";;"duinstraat 15";"2060";;"4.4269641750000233";"51.221978723000063"
"papiermand";"0338";;"lange beeldekensstraat 280";"2060";;"4.4352663710000684";"51.222275510000031"
"papiermand";"9177";;"lange beeldekensstraat 308";"2060";;"4.4360695850000411";"51.222450240000057"
"papiermand";"1753";;"veldstraat 100";"2060";;"4.4334600380000211";"51.226919115000044"
"papiermand";;;"jos verhelstplein to 12";"2060";;"4.4328985380000745";"51.227284904000044"
"papiermand";"0422";;"jos verhelstplein null";"2060";;"4.43292948200002";"51.227515636000078"
"papiermand";"0729";;"nijverheidstraat 29";"2060";;"4.4281394250000403";"51.225697855000078"
"papiermand";"1420";;"pionierstraat 4";"2060";;"4.4274373070000479";"51.224779501000057"
"papiermand";"1091";;"pionierstraat 4";"2060";;"4.4276346850000436";"51.224798627000041"
"papiermand";"1382";;"van kerckhovenstraat 91";"2060";;"4.4267110360000288";"51.226258348000044"
"papiermand";"1383";;"van kerckhovenstraat 91";"2060";;"4.4266184370000587";"51.226374821000036"
"papiermand";"1280";;"gasstraat to naast 27";"2060";;"4.4254657270000735";"51.226055235000047"
"papiermand";"9201";;"van kerckhovenstraat 70";"2060";;"4.424971982000045";"51.226024188000054"
"papiermand";"9314";;"sint-amandusstraat null";"2060";;"4.4242165880000357";"51.226013874000046"
"papiermand";"2042";;"stuivenbergplein 7";"2060";;"4.4284914540000386";"51.226889866000079"
"papiermand";"9399";;"stuivenbergplein 7";"2060";;"4.4286139070000559";"51.226847072000055"
"papiermand";"9362";;"halenstraat 25";"2060";;"4.4360388720000401";"51.22701819200006"
"papiermand";;;"montignystraat 171";"2018";;"4.3908574720000502";"51.199211458000036"
"papiermand";"1101";;"montignystraat 207";"2018";;"4.3915883240000539";"51.200729077000062"
"papiermand";"9611";;"markgravelei 96";"2018";;"4.4028790640000466";"51.198426057000063"
"papiermand";"9541";;"markgravelei 92";"2018";;"4.4027825970000549";"51.198559547000059"
"papiermand";"0404";;"jan van rijswijcklaan 88";"2018";;"4.4058612800000674";"51.196726492000039"
"papiermand";"9445";;"jan van rijswijcklaan 151";"2018";;"4.4032930930000589";"51.194814315000031"
"papiermand";"1049";;"jan van rijswijcklaan 63";"2018";;"4.4066162140000529";"51.196962839000037"
"papiermand";;;"jan van rijswijcklaan 29";"2018";;"4.4083484120000662";"51.197718553000072"
"papiermand";;;"jan van rijswijcklaan 16";"2018";;"4.4094976780000366";"51.197997206000082"
"papiermand";;;"jan van rijswijcklaan 28";"2018";;"4.4090888690000725";"51.197940732000063"
"papiermand";;;"jan van rijswijcklaan 22";"2018";;"4.4094589710000491";"51.197908243000029"
"papiermand";"9597";;"generaal lemanstraat 6";"2018";;"4.4104270390000693";"51.197123290000036"
"papiermand";"1617";;"korte lozanastraat 34";"2018";;"4.4082731960000388";"51.19635158300008"
"papiermand";"9557";;"korte lozanastraat 28";"2018";;"4.4083891930000618";"51.196505228000035"
"papiermand";"9328";;"lange lozanastraat 249";"2018";;"4.4076569230000473";"51.198301171000026"
"papiermand";"9408";;"lange lozanastraat 231";"2018";;"4.4073355400000764";"51.198847267000076"
"papiermand";"9603";;"lange lozanastraat 200";"2018";;"4.40634904500007";"51.200784845000044"
"papiermand";"9590";;"lange lozanastraat 153";"2018";;"4.4061565950000272";"51.201607938000052"
"papiermand";"1020";;"durletstraat 8-10";"2018";;"4.4047118360000468";"51.202198872000054"
"papiermand";"1025";;"durletstraat 8-10";"2018";;"4.4044541990000425";"51.202035156000079"
"papiermand";;;"grotesteenweg 125";"2600";;"4.4189899800000489";"51.195266694000054"
"papiermand";"9106";;"grotesteenweg 214";"2600";;"4.421855871000048";"51.192809124000064"
"papiermand";"9010";;"grotesteenweg 214";"2600";;"4.4217311460000701";"51.192917520000037"
"papiermand";"9185";;"grotesteenweg 214";"2600";;"4.4217725450000671";"51.192734450000046"
"papiermand";"9307";;"grotesteenweg 204";"2600";;"4.4208611350000524";"51.193769684000074"
"papiermand";"1201";;"hogeweg null";"2600";;"4.4190707710000652";"51.195752316000039"
"papiermand";"0417";;"victor jacobslei 63";"2600";;"4.426073342000052";"51.196835049000072"
"papiermand";;;"victor jacobslei null";"2600";;"4.4251737650000678";"51.197916994000082"
"papiermand";"0364";;"victor jacobslei 1";"2600";;"4.4245001800000523";"51.198627780000038"
"papiermand";"0537";;"victor jacobslei 13";"2600";;"4.4247816570000396";"51.198311420000039"
"papiermand";"0311";;"victor jacobslei 19";"2600";;"4.4249056340000266";"51.198170106000077"
"papiermand";;;"statiestraat 59";"2600";;"4.4256990250000285";"51.198025309000059"
"papiermand";"1794";;"statiestraat 150";"2600";;"4.4302461970000309";"51.199676861000057"
"papiermand";;;"uitbreidingstraat null";"2600";;"4.4317617320000409";"51.200041814000031"
"papiermand";;;"uitbreidingstraat null";"2600";;"4.4314194510000675";"51.200029353000048"
"papiermand";"1365";;"burgemeester e. ryckaertsplein plein";"2600";;"4.4327078060000531";"51.200554582000052"
"papiermand";"1017";;"uitbreidingstraat 480";"2600";;"4.4330210690000627";"51.201060415000029"
"papiermand";"9545";;"guldenvliesstraat plein";"2600";;"4.4342680160000327";"51.201641532000053"
"papiermand";"9421";;"guldenvliesstraat plein";"2600";;"4.4343558970000458";"51.20157468900004"
"papiermand";"9516";;"guldenvliesstraat plein";"2600";;"4.4343452790000697";"51.201483354000061"
"papiermand";;;"burgemeester e. ryckaertsplein plein";"2600";;"4.4338514430000373";"51.201290092000079"
"papiermand";;;"burgemeester e. ryckaertsplein null";"2600";;"4.4340119460000551";"51.201413000000059"
"papiermand";"9538";;"burgemeester e. ryckaertsplein plein";"2600";;"4.4342081120000216";"51.201381628000036"
"papiermand";"1233";;"burgemeester e. ryckaertsplein plein";"2600";;"4.4340909730000249";"51.201138313000058"
"papiermand";"1247";;"burgemeester e. ryckaertsplein plein";"2600";;"4.4337660640000536";"51.200872203000074"
"papiermand";"1213";;"burgemeester e. ryckaertsplein plein";"2600";;"4.4336183660000756";"51.200666684000055"
"papiermand";;;"statiestraat 42";"2600";;"4.424803182000062";"51.197770626000079"
"papiermand";"9606";;"turnhoutsebaan 312";"2140";;"4.4411275990000263";"51.213866707000079"
"papiermand";"9533";;"turnhoutsebaan 315";"2140";;"4.4410492490000593";"51.213932856000042"
"papiermand";"0671";;"turnhoutsebaan 335";"2140";;"4.4417021000000432";"51.214151173000062"
"papiermand";"0756";;"turnhoutsebaan 322";"2140";;"4.4418033220000552";"51.214033334000078"
"papiermand";"1119";;"turnhoutsebaan 361";"2140";;"4.4429522680000559";"51.214555391000033"
"papiermand";"0750";;"turnhoutsebaan 360";"2140";;"4.443200890000071";"51.214469904000055"
"papiermand";"1670";;"turnhoutsebaan 389";"2140";;"4.4437267910000742";"51.21482166100003"
"papiermand";"9580";;"turnhoutsebaan 415";"2140";;"4.4455848070000457";"51.21541417800006"
"papiermand";"9518";;"turnhoutsebaan 415";"2140";;"4.445571262000044";"51.215325256000028"
"papiermand";"9569";;"stenenbrug 13";"2140";;"4.4444924070000411";"51.214404174000038"
"papiermand";"0672";;"turnhoutsebaan 147";"2140";;"4.4350302740000416";"51.214871659000039"
"papiermand";"0333";;"moorkensplein 17";"2140";;"4.4340994600000272";"51.213371066000036"
"papiermand";"0320";;"fonteinstraat 31";"2140";;"4.443064110000023";"51.212205924000045"
"papiermand";"0393";;"fonteinstraat 31";"2140";;"4.4429274490000239";"51.211704852000082"
"papiermand";"0304";;"mertensstraat 43";"2140";;"4.4411113370000521";"51.216392428000063"
"papiermand";"0746";;"vincottestraat 9";"2140";;"4.4376641890000315";"51.216311732000065"
"papiermand";;;"vincottestraat 1";"2140";;"4.4374117560000741";"51.215843980000045"
"papiermand";"9099";;"kerkstraat 4";"2060";;"4.4289061440000523";"51.217792963000079"
"papiermand";"0419";;"kerkstraat 66";"2060";;"4.4308668360000638";"51.218614503000026"
"papiermand";"0385";;"kerkstraat 80";"2060";;"4.4314691650000668";"51.218727414000057"
"papiermand";"9217";;"kerkstraat 91";"2060";;"4.4323915320000538";"51.219006801000035"
"papiermand";"1385";;"van montfortstraat 69";"2060";;"4.4379997520000529";"51.219997078000063"
"papiermand";"0360";;"jan borluutplein 18";"2140";;"4.4411532830000624";"51.219787909000047"
"papiermand";"1619";;"italielei 19a";"2000";;"4.4140095640000254";"51.229020395000077"
"papiermand";"1395";;"sint-jansplein null";"2060";;"4.4182378000000426";"51.225530860000049"
"papiermand";"9202";;"sint-jansplein to 56";"2060";;"4.4170006340000327";"51.225354331000062"
"papiermand";"0326";;"jan borluutplein 8";"2140";;"4.4415380540000342";"51.219992784000056"
"papiermand";;;"hof ter lo  ";"2140";;"4.4480487060000655";"51.220629966000047"
"papiermand";"1872";;"pothoekstraat 52";"2060";;"4.4369854780000537";"51.221996896000064"
"papiermand";"0328";;"van helmontstraat 1";"2060";;"4.4346447680000551";"51.224440917000038"
"papiermand";"1239";;"van helmontstraat 9";"2060";;"4.434913649000066";"51.224489903000062"
"papiermand";"1234";;"frans de cortstraat 31";"2060";;"4.4330590210000764";"51.224320023000075"
"papiermand";"1231";;"frans de cortstraat 3";"2060";;"4.4323929100000328";"51.224880161000044"
"papiermand";"1099";;"schoolstraat 17";"2060";;"4.4317873520000717";"51.22495527500007"
"papiermand";"1151";;"frans de cortstraat null";"2060";;"4.4326545090000309";"51.224604406000026"
"papiermand";"1012";;"dageraadplaats 22";"2018";;"4.4299982050000608";"51.207267946000059"
"papiermand";"0938";;"dageraadplaats 27";"2018";;"4.429732002000037";"51.207045748000041"
"papiermand";"0580";;"noordschippersdok plein";"2060";;"4.4308879490000663";"51.233139368000082"
"papiermand";"0530";;"noordschippersdok plein";"2060";;"4.4308057510000367";"51.233315467000068"
"papiermand";"0445";;"noordschippersdok plein";"2060";;"4.4305964570000356";"51.233638575000043"
"papiermand";"0330";;"noordschippersdok plein";"2060";;"4.4296687620000625";"51.234360373000072"
"papiermand";"0420";;"noordschippersdok plein";"2060";;"4.4287210720000303";"51.234748886000034"
"papiermand";;;"ijzerlaan  ";"2060";;"4.4284986780000395";"51.235482082000033"
"papiermand";;;"ijzerlaan  ";"2060";;"4.4290277780000338";"51.235786279000081"
"papiermand";;;"damplein 27";"2060";;"4.425753736000047";"51.231684843000039"
"papiermand";;;"damplein 20-23";"2060";;"4.4250044300000582";"51.232378213000061"
"papiermand";;;"park spoor noord  ";"2060";;"4.4207460090000268";"51.231454622000058"
"papiermand";;;"park spoor noord  ";"2060";;"4.4203459160000307";"51.231376127000033"
"papiermand";"0887";;"park spoor noord skatepark";"2030";;"4.4190408080000338";"51.231389628000045"
"papiermand";"2012";;"park spoor noord  ";"2030";;"4.4189563100000555";"51.231401233000042"
"papiermand";;;"stadspark  ";"2018";;"4.4123045540000589";"51.211915543000032"
"papiermand";;;"stadspark  ";"2018";;"4.4150101430000745";"51.211363432000041"
"papiermand";;;"stadspark  ";"2018";;"4.4153112410000404";"51.211412127000074"
"papiermand";;;"stadspark  ";"2018";;"4.4154030420000367";"51.211537928000041"
"papiermand";;;"stadspark  ";"2018";;"4.4147657460000573";"51.211993736000068"
"papiermand";;;"stadspark  ";"2018";;"4.4150082610000254";"51.212605931000041"
"papiermand";;;"stadspark  ";"2018";;"4.4152907680000339";"51.212701930000037"
"papiermand";;;"stadspark  ";"2018";;"4.4158473680000725";"51.212890928000036"
"papiermand";;;"stadspark  ";"2018";;"4.4148650710000652";"51.213143838000065"
"papiermand";"9346";;"rolwagenstraat 86";"2018";;"4.4265485650000755";"51.208230279000077"
"papiermand";"9467";;"plantin en moretuslei 165";"2140";;"4.4318359530000748";"51.209341546000076"
"papiermand";"9514";;"plantin en moretuslei 75";"2018";;"4.4249054300000239";"51.210706191000043"
"papiermand";"9509";;"plantin en moretuslei 78";"2018";;"4.4243124950000379";"51.210594410000056"
"papiermand";;;"statiestraat 24";"2600";;"4.4240015280000762";"51.197482824000076"
"papiermand";;;"statiestraat 2";"2600";;"4.4231777610000336";"51.19718924700004"
"papiermand";"1454";;"wasstraat 9";"2600";;"4.4195880670000633";"51.197845704000031"
"papiermand";"9397";;"belgielei 199";"2018";;"4.4132617320000236";"51.202196255000047"
"papiermand";"9385";;"belgielei 99";"2018";;"4.4182590660000756";"51.205879581000033"
"papiermand";"1673";;"lange leemstraat 227";"2018";;"4.4186760200000208";"51.20546050300004"
"papiermand";"9179";;"belgielei 55";"2018";;"4.4204980950000277";"51.207456673000081"