"data_type";"title";"description";"street";"postal";"district";"long";"lat"
"sorteerstraat";"duinstraat";;"Geelhandplaats binnenplein";"2060";"Antwerpen";"4.430183851000038";"51.222920667000039"
"sorteerstraat";"visãstraat - 12";;"VisÃ©straat 12";"2060";"Antwerpen";"4.4246119240000326";"51.229028210000081"
"sorteerstraat";"visãstraat - 80";;"VisÃ©straat 80";"2060";"Antwerpen";"4.4291333020000252";"51.228083799000046"
"sorteerstraat";"jos verhelstplein";;"Jos Verhelstplein 1";"2060";"Antwerpen";"4.4326784490000364";"51.227715133000061"
"sorteerstraat";"handelsstraat - lange_stuivenberstraat";;"Handelsstraat 1";"2060";"Antwerpen";"4.4316228140000362";"51.224305523000055"
"sorteerstraat";"helmstraat";;"Helmstraat hoek Schapenstraat";"2140";"Borgerhout";"4.4359829520000744";"51.218035309000072"
"sorteerstraat";"vincottestraat";;"Vincottestraat 1 - 11";"2140";"Borgerhout";"4.4374284010000338";"51.215618150000068"
"sorteerstraat";"waterhoenlaan";;"Waterhoenlaan 6";"2050";"Antwerpen";"4.3817973020000522";"51.22115007900004"
"sorteerstraat";"victor_de_la_montagnestraat";;"Victor De la Montagnestraat 18";"2050";"Antwerpen";"4.3789034880000486";"51.222770771000057"
"sorteerstraat";"iglo";;"Carel Van Manderstraat 2";"2050";"Antwerpen";"4.3833187790000352";"51.224345910000068"
"sorteerstraat";"iglo";;"Ernest Claesstraat 1 1";"2050";"Antwerpen";"4.381216413000061";"51.224193107000076"
"sorteerstraat";"iglo";;"Ernest_Claesstraat_10-16 10 - 16";"2050";"Antwerpen";"4.3821446570000262";"51.225256099000035"
"sorteerstraat";"charles_de_costerlaan_7_13";;"Charles De Costerlaan 7 - 13";"2050";"Antwerpen";"4.3837693970000373";"51.226762152000049"
"sorteerstraat";"gloriantlaan_54_56";;"Gloriantlaan 54-56";"2050";"Antwerpen";"4.3851936030000616";"51.226369691000059"
"sorteerstraat";"reinaertlaan";;"Reinaertlaan 8";"2050";"Antwerpen";"4.3836449100000436";"51.228080152000075"
"sorteerstraat";"julius_vuylstekelaan";;"Julius Vuylstekelaan 6 - 12";"2050";"Antwerpen";"4.3802215300000285";"51.228692491000061"
"sorteerstraat";"haantjeslei";;"Haantjeslei 159";"2018";"Antwerpen";"4.4031291470000724";"51.201760504000049"
"sorteerstraat";"lange_lozanastraat_vinkenstraat";;"Lange Lozanastraat hoek Vinkenstraat";"2018";"Antwerpen";"4.4046354430000747";"51.204560171000026"
"sorteerstraat";"brederode";;"Balansstraat 71";"2018";"Antwerpen";"4.3935660350000489";"51.202036814000053"
"sorteerstraat";"studentenbuurt";;"Varkensmarkt tegenover 4";"2000";"Antwerpen";"4.4076208520000364";"51.225000641000065"
"sorteerstraat";"dambruggestraat_157";;"Dambruggestraat 157";"2060";"Antwerpen";"4.4221849990000237";"51.227159937000067"
"sorteerstraat";"spoorstraat";;"Spoorstraat 5A-D";"2060";"Antwerpen";"4.4206257610000534";"51.222672122000063"
"sorteerstraat";"van_maerlantstraat";;"Van Maerlantstraat pleintje Osystraat";"2060";"Antwerpen";"4.4183140760000583";"51.22211515500004"
"sorteerstraat";"emiel_vloorstraat_6_8";;"Emiel Vloorstraat 6 - 8";"2020";"Antwerpen";"4.3768167310000763";"51.193357128000059"
"sorteerstraat";"piet_verhaertstraat";;"Piet Verhaertstraat 19";"2020";"Antwerpen";"4.3781829320000725";"51.192439811000042"
"sorteerstraat";"emiel vloorstraat_11";;"Emiel Vloorstraat 11";"2020";"Antwerpen";"4.3733217530000275";"51.192627108000067"
"sorteerstraat";"jan davidlei";;"Max Roosestraat 31-33";"2020";"Antwerpen";"4.3744270770000639";"51.188161581000031"
"sorteerstraat";"boomsesteenweg";;"Boomsesteenweg 249";"2020";"Antwerpen";"4.3866164940000658";"51.190835651000043"
"sorteerstraat";"jan de voslei";;"Willem Eekelerstraat 51";"2020";"Antwerpen";"4.388939821000065";"51.191851610000072"
"sorteerstraat";"jan de voslei";;"Jan De Voslei 12-30";"2020";"Antwerpen";"4.3888261470000316";"51.188778033000062"
"sorteerstraat";"jan de voslei";;"Jan De Voslei 34-36";"2020";"Antwerpen";"4.388815945000033";"51.187834272000032"
"sorteerstraat";"fruithoflaan - 112";;"Fruithoflaan 112";"2600";"Berchem";"4.4408099280000215";"51.184714862000078"
"sorteerstraat";"fruithoflaan - 70";;"Fruithoflaan 70";"2600";"Berchem";"4.436398160000067";"51.182081975000074"
"sorteerstraat";"corneel_jaspersstraat";;"Corneel Jaspersstraat hoek Corneel Van Reethstraat";"2600";"Berchem";"4.4378857310000512";"51.198159954000062"
"sorteerstraat";"tramplein";;"Transvaalstraat null";"2600";"Berchem";"4.4325966430000676";"51.205888212000048"
"sorteerstraat";"groenendaallaan_310_348";;"Groenendaallaan 310-348";"2030";"Antwerpen";"4.4216748230000462";"51.245973394000032"
"sorteerstraat";"hondurasstraat";;"Hondurasstraat 1 - 3";"2030";"Antwerpen";"4.4222026360000655";"51.25011905100007"
"sorteerstraat";"venezuelastraat_1";;"Venezuelastraat 1";"2030";"Antwerpen";"4.4215336040000466";"51.253921363000075"
"sorteerstraat";"luchtbal";;"Cardiffstraat 2";"2030";"Antwerpen";"4.4228363200000445";"51.254807836000055"
"sorteerstraat";"luchtbal";;"Philadelphiastraat 10 - 20";"2030";"Antwerpen";"4.4245229360000735";"51.259355668000069"
"sorteerstraat";"luchtbal";;"Bostonstraat naast nr 13-15";"2030";"Antwerpen";"4.4223560600000269";"51.259952266000028"
"sorteerstraat";"rucaplein";;"Rucaplein over nr 501";"2610";"Wilrijk";"4.4212645410000277";"51.178633795000053"
"sorteerstraat";"bokspane";;"Bokspane naast nr 30";"2040";"Bezali";"4.3098649450000721";"51.345841901000028"
"sorteerstraat";"rector_vermeylenlaan";;"Rector Vermeylenlaan 26-28";"2660";"Hoboken";"4.3670126760000585";"51.171205691000068"
"sorteerstraat";"neerland";;"Krijgslaan -> Vuurkruisenlaan over nr 80";"2610";"Wilrijk";"4.39354271600007";"51.162517669000067"
"sorteerstraat";"bist";;"Bist 48-151";"2610";"Wilrijk";"4.394138918000067";"51.170217287000071"
"sorteerstraat";"kruishofstraat";;"Kruishofstraat 144";"2020";"Antwerpen";"4.392266677000066";"51.182119452000052"
"sorteerstraat";"van der sweepstraat";;"Van der Sweepstraat naast nr 12";"2000";"Antwerpen";"4.3855029930000455";"51.20677162800007"
"sorteerstraat";"collegelaan";;"Collegelaan 36";"2140";"Borgerhout";"4.4582971290000728";"51.213770202000035"
"sorteerstraat";"wouter haecklaan_4";;"Wouter Haecklaan over nr 4";"2100";"Deurne";"4.4595586100000446";"51.213011357000028"
"sorteerstraat";"gabriã«l vervoortstraat_27";;"GabriÃ«l Vervoortstraat over nr 27";"2100";"Deurne";"4.4609724350000306";"51.207502636000072"
"sorteerstraat";"plankenbergstraat";;"Plankenbergstraat 52";"2100";"Deurne";"4.4647561520000636";"51.221299439000063"
"sorteerstraat";"te couwelaerlei";;"Te Couwelaerlei 120";"2100";"Deurne";"4.4583911880000642";"51.222926200000074"
"sorteerstraat";"gallifortlei";;"Gallifortlei over nr 237";"2100";"Deurne";"4.4659691550000389";"51.22523801300008"
"sorteerstraat";"baron leroystraat";;"Baron Leroystraat over nrs 91-93-95";"2100";"Deurne";"4.4728177090000258";"51.225789943000052"
"sorteerstraat";"wim saerensplein";;"Wim Saerensplein over nr 25";"2100";"Deurne";"4.47860875300006";"51.228826577000063"
"sorteerstraat";"de bisthovenlei";;"De Bisthovenlei over nrs 82-84";"2100";"Deurne";"4.4567852090000315";"51.227002317000029"
"sorteerstraat";"ten eeckhovenlei";;"Ten Eeckhovelei over nr 104";"2100";"Deurne";"4.4495968170000424";"51.226733076000073"
"sorteerstraat";"van deynseplein";;"Van Deynsestraat over nr 123";"2100";"Deurne";"4.4509522050000214";"51.230030554000052"
"sorteerstraat";"kronenburg";;"Van Cortbeemdelei pleintje met Van Duyststraat";"2100";"Deurne";"4.4445929420000425";"51.231305090000035"
"sorteerstraat";"tweemontstraat";;"Tweemontstraat 72";"2100";"Deurne";"4.4528786950000381";"51.234206494000034"
"sorteerstraat";"kronenburg";;"Van Cortbeemdelei pleintje met Van Amstelstraat";"2100";"Deurne";"4.448092177000035";"51.233383028000048"
"sorteerstraat";"distelhoek";;"Distelhoek achter Lambrechtshoekenlaan 209-211";"2170";"Merksem";"4.4331595270000435";"51.25128512200007"
"sorteerstraat";"lange bremstraat";;"Lange Bremstraat over nr 92";"2170";"Merksem";"4.4528077640000561";"51.258355846000029"
"sorteerstraat";"leiebos";;"Leiebos naast Melgesdreef 42";"2170";"Merksem";"4.4589497500000448";"51.256044354000039"
"sorteerstraat";"borrewaterstraat";;"Borrewaterstraat hoek Noordkaai";"2170";"Merksem";"4.4448370440000531";"51.240144063000059"
"sorteerstraat";"frans de l'arbrelaan";;"Frans De L'arbrelaan 64";"2170";"Merksem";"4.4402682820000337";"51.240081488000044"
"sorteerstraat";"halenstraat";;"Halenstraat over nr 81";"2060";"Antwerpen";"4.4312526760000424";"51.227911378000044"
"sorteerstraat";"cecilianenstraat";;"Van Couwervenstraat 46";"2040";"Bezali";"4.325898852000023";"51.343071509000026"
"sorteerstraat";"kruisbos";;"Kruisbos rechtover 8";"2040";"Bezali";"4.3261099570000283";"51.346058393000078"
"sorteerstraat";"hagelberg";;"Hagelberg rechtover 9";"2040";"Bezali";"4.3280794710000237";"51.345793062000041"
"sorteerstraat";"franciscanenstraat";;"Franciscanenstraat rechtover 15";"2040";"Bezali";"4.3235012400000414";"51.344413078000059"
"sorteerstraat";"dominicanenstraat";;"Dominicanenstraat 15";"2040";"Bezali";"4.3248827080000751";"51.345337335000067"
"sorteerstraat";"regatta";;"null verlengde  Emile Dancolaan (ongeveer 100 meter west)";"2050";"Antwerpen";"4.3645350390000317";"51.219332731000065"
"sorteerstraat";"regatta";;"null verlengde Aalscholverlaan";"2050";"Antwerpen";"4.3645130840000661";"51.217237735000026"
"sorteerstraat";"regatta";;"Aalscholverlaan achter Blancefloerlaan 181-183";"2050";"Antwerpen";"4.3687536860000478";"51.217306380000082"
"sorteerstraat";"regatta";;"Aalscholverlaan achter Blancefloerlaan 179A";"2050";"Antwerpen";"4.3717430050000416";"51.217272530000059"
"sorteerstraat";"regatta";;"null verlengde  Cornelliestraat";"2050";"Antwerpen";"4.3645405060000257";"51.218562060000068"
"sorteerstraat";"gandhilaan - windmolenstraat";;"Gandhilaan voor Windmolenstraat 72-74";"2660";"Hoboken";"4.3652992410000593";"51.178928179000081"
"sorteerstraat";"albe-site";;"Dascottelei - Van den Hautelei 183";"2100";"Deurne";"4.4672305860000279";"51.201608694000072"
"sorteerstraat";"eksterlaer";;"Kerkhofweg 116";"2100";"Deurne";"4.4713095620000445";"51.199804515000039"
"sorteerstraat";"eksterlaer";;"Schoggestraat 150 meter achter Dascottelei90-92";"2100";"Deurne";"4.471555224000042";"51.20276466200005"
"sorteerstraat";"eksterlaer";;"Dascottelei achter 66";"2100";"Deurne";"4.470105846000024";"51.201692748000028"
"sorteerstraat";"eksterlaer";;"Kerkhofweg achter Vleerakkerstraat 34";"2100";"Deurne";"4.4738777530000675";"51.20183253700003"
"sorteerstraat";"eilandje";;"Napelsstraat 53";"2000";"Antwerpen";"4.4116077760000394";"51.235538912000038"
"sorteerstraat";"gasstraat";;"Gasstraat hoek Wilgenstraat";"2060";"Antwerpen";"4.4261284980000255";"51.224969498000064"
"sorteerstraat";"damplein";;"Damplein aan kant Viaduct-Dam";"2060";"Antwerpen";"4.4243944000000397";"51.232296293000047"
"sorteerstraat";"eilandje";;"Kempischdok-Westkaai 78";"2000";"Antwerpen";"4.4127936440000326";"51.232017085000052"
"sorteerstraat";"eilandje";;"Binnenvaartstraat 50";"2000";"Antwerpen";"4.4135638570000424";"51.234381321000058"
"sorteerstraat";"eilandje";;"Kempischdok-Westkaai verlengde aan hoek Madrasstraat";"2000";"Antwerpen";"4.4113567730000227";"51.231935929000031"
"sorteerstraat";"eilandje";;"Kattendijkdok-Oostkaai hoek Cadixstraat";"2000";"Antwerpen";"4.4094398550000733";"51.233236759000079"
"sorteerstraat";"studentenbuurt";;"Sint Jacobsmarkt Frans Halsplein";"2000";"Antwerpen";"4.4119694630000481";"51.220437206000042"
"sorteerstraat";"jan brochovenstraat";;"Jan Brochovenstraat over nr 28";"2100";"Deurne";"4.4612454260000618";"51.22219203700007"
"sorteerstraat";"jan_frans_van_de_gaerstraat";;"Jan Frans van De Gaerstraat Kielpark 193-288";"2020";"Antwerpen";"4.3859664180000664";"51.190725222000026"
"sorteerstraat";"montevideo";;"Montevideostraat hoek Kattendijkdok-Westkaai";"2000";"Antwerpen";"4.4049229400000627";"51.233063123000079"
"sorteerstraat";"regatta";;"Hubert Lampolaan hoek Frederic Bruynseelslaan";"2050";"Antwerpen";"4.3660166740000363";"51.217692639000063"
"sorteerstraat";"regatta";;"Hugues C. Pernathlaan ten zuiden van hoek met Aalscholverlaan";"2050";"Antwerpen";"4.3679328660000465";"51.21727807700006"
"sorteerstraat";"kerkstraat_85";;"Kerkstraat 85";"2060";"Antwerpen";"4.4310875370000531";"51.219044035000081"
"sorteerstraat";"kerkstraat_91";;"Kerkstraat naast nr 91";"2060";"Antwerpen";"4.432250750000037";"51.219009761000052"
"sorteerstraat";"kerkstraat_192";;"Kerkstraat naast nr 192";"2060";"Antwerpen";"4.4359256550000623";"51.220002553000029"
"sorteerstraat";"lange_kongostraat";;"Lange Kongostraat naast nr 41";"2060";"Antwerpen";"4.4395784720000506";"51.223181560000057"
"sorteerstraat";"studentenbuurt";;"Ossenmarkt tegenover 32";"2000";"Antwerpen";"4.4134756320000292";"51.221973153000079"
"sorteerstraat";"0";;"0 0";"0";"0";"4.4365338030000316";"51.228668585000037"
"sorteerstraat";"regatta";;"Antwerpen tussen Willy De Roosstraat en Emile Dancolaan";"2050";"Antwerpen";"4.3659882310000739";"51.219185741000047"
"sorteerstraat";"eilandje";;"Napelsstraat hoek IndiÃ«straat";"2000";"Antwerpen";"4.4108909250000465";"51.234345569000027"
"sorteerstraat";"eilandje";;"Kattendijkdok-Oostkaai over nr 22";"2000";"Antwerpen";"4.4090552120000552";"51.232394257000067"
"sorteerstraat";"potgieterstraat";;"Potgieterstraat 1";"2060";"Antwerpen";"4.4370356690000676";"51.221864549000031"
"sorteerstraat";"pothoekstraat";;"Pothoekstraat tegenover 94";"2060";"Antwerpen";"4.436548129000073";"51.22353421400004"
"sorteerstraat";"lodewijk_van_berckenlaan";;"Lodewijk Van Berckenlaan 179";"2140";"Borgerhout";"4.4485603430000538";"51.197422879000044"
"sorteerstraat";"lange_beeldekensstraat";;"Lange Beeldekensstraat over 298-300";"2060";"Antwerpen";"4.4358253440000226";"51.222438284000077"
"sorteerstraat";"handelsstraat - korte_zavelstraat";;"Handelsstraat hoek Korte Zavelstraat";"2060";"Antwerpen";"4.4274800040000741";"51.223287009000046"
"sorteerstraat";"bredastraat";;"Bredastraat 77";"2060";"Antwerpen";"4.4229853450000292";"51.233869875000039"
"sorteerstraat";"alfons de cockstraat";;"Alfons De Cockstraat 1 - 3";"2020";"Antwerpen";"4.3763522280000302";"51.188897416000032"
"sorteerstraat";"jan de voslei";;"Jan De Voslei 1-17";"2020";"Antwerpen";"4.389743974000055";"51.186267828000041"
"sorteerstraat";"jan de voslei";;"Jan De Voslei 49";"2020";"Antwerpen";"4.3873597620000737";"51.192532276000065"
"sorteerstraat";"julius_de_geyterstraat";;"Julius De Geyterstr 93-95";"2020";"Antwerpen";"4.3784675100000641";"51.184480447000055"
"sorteerstraat";"venezuelastraat_6";;"Venezuelastraat 6";"2030";"Antwerpen";"4.4234720490000541";"51.253563893000035"
"sorteerstraat";"groenendaallaan_270_308";;"Groenendaallaan 270-308";"2030";"Antwerpen";"4.4225544780000519";"51.24597809900007"
"sorteerstraat";"hollandstraat";;"Hollandstraat 21-27";"2060";"Antwerpen";"4.4199360150000757";"51.223407510000072"
"sorteerstraat";"kempenstraat_spitsenstraat";;"Kempenstraat hoek Spitsenstraat";"2030";"Antwerpen";"4.4172559430000433";"51.231796845000076"
"sorteerstraat";"delinstraat_sint_elisabethstraat";;"Delinstraat hoek Sint-Elisabethstraat";"2060";"Antwerpen";"4.4238733900000398";"51.222572725000077"
"sorteerstraat";"dambruggestraat - oudesteenweg";;"Dambruggestraat Oudesteenweg";"2060";"Antwerpen";"4.421553106000033";"51.223548430000051"
"sorteerstraat";"delinstraat_lange_beeldekensstraat";;"Delinstraat 58";"2060";"Antwerpen";"4.4240379310000435";"51.221344556000076"
"sorteerstraat";"park spoor noord";;"Halenstraat over nr 71";"2060";"Antwerpen";"4.4340654630000245";"51.22796280600005"
"sorteerstraat";"sint_norbertusstraat";;"St Norbertusstraat over nr 16";"2060";"Antwerpen";"4.4234128070000338";"51.226055657000074"
"sorteerstraat";"stuivenbergplein";;"Stuivenbergplein over nr 74-85";"2060";"Antwerpen";"4.4288433730000634";"51.226305977000038"
"sorteerstraat";"gloriantlaan_62_64";;"Gloriantlaan 62-64";"2050";"Antwerpen";"4.3852098250000608";"51.224637679000068"
"sorteerstraat";"dageraadplaats";;"Dageraadplaats over nr 29";"2018";"Antwerpen";"4.4296981370000594";"51.206960977000051"
"sorteerstraat";"lange_lozannastraat_101_103";;"Lange Lozanastraat 101-103";"2018";"Antwerpen";"4.4050484560000314";"51.203671652000025"
"sorteerstraat";"wittestraat";;"Wittestraat hoek Boomsesteenweg";"2020";"Antwerpen";"4.3865565840000613";"51.189718915000071"
"sorteerstraat";"de_bosschaertstraat_186";;"De Bosschaertstraat naast nr 186";"2020";"Antwerpen";"4.3819055340000546";"51.18660449500004"
"sorteerstraat";"de_bosschaertstraat_pierenbergstraat";;"Pierenbergstraat 63";"2020";"Antwerpen";"4.3799023020000618";"51.187557955000045"
"sorteerstraat";"luchtbal";;"Canadalaan naast nr 213";"2030";"Antwerpen";"4.4212114560000373";"51.25537225100004"
"sorteerstraat";"canadalaan_233_235";;"Canadalaan naast nr 233-235";"2030";"Antwerpen";"4.4213585530000614";"51.256646076000038"
"sorteerstraat";"kattendijkdok_westkaai_16";;"Kattendijkdok Westkaai over nr 16";"2000";"Antwerpen";"4.4053177830000436";"51.232626527000036"
"sorteerstraat";"visãstraat - stuivenbergplein";;"VisÃ©straat naast Stuivenbergplein 38";"2060";"Antwerpen";"4.4320963280000569";"51.227159844000028"
"sorteerstraat";"gloriantlaan_46";;"Gloriantlaan 46";"2050";"Antwerpen";"4.3858005410000374";"51.228534524000054"
"sorteerstraat";"victor_delhezstraat";;"Victor Delhezstraat naast nr 6";"2050";"Antwerpen";"4.3733920530000319";"51.218747586000063"
"sorteerstraat";"adriaan_brouwerstraat";;"Adriaan Brouwerstraat 19";"2000";"Antwerpen";"4.4036289990000341";"51.227179942000078"
"sorteerstraat";"carnotstraat";;"Carnotstraat 65";"2060";"Antwerpen";"4.4249834950000491";"51.218410948000042"
"sorteerstraat";"kattendijkdok_westkaai_midden";;"Kattendijdok-Westkaai midden tussen Montevideostraat en Limastraat";"2000";"Antwerpen";"4.4049038150000683";"51.233738234000043"
"sorteerstraat";"kempenstraat_midden";;"Kempenstraat midden tussen Spitsenstraat en Binnenvaartstraat";"2030";"Antwerpen";"4.4156998170000747";"51.231746114000032"
"sorteerstraat";"sint_aldegondiskaai";;"Sint-Aldegondiskaai 30";"2000";"Antwerpen";"4.403542567000045";"51.227844781000044"
"sorteerstraat";"ringlaan";;"Ringlaan hoek Bourcetstraat";"2600";"Berchem";"4.4313729300000659";"51.179204372000072"
"sorteerstraat";"fruithoflaan - sint-theresiastraat";;"Fruithoflaan 11";"2600";"Berchem";"4.4345598060000384";"51.180518848000077"
"sorteerstraat";"fruithoflaan - 98";;"Fruithoflaan 98";"2600";"Berchem";"4.4388160690000404";"51.183543710000038"
"sorteerstraat";"fruithoflaan - 118-122";;"Fruithoflaan tussen nr 118 en 122";"2600";"Berchem";"4.4422695460000341";"51.185693169000047"
"sorteerstraat";"jos_ratinckxstraat";;"Jos Ratinckxstraat 1";"2600";"Berchem";"4.4417693100000406";"51.183994407000057"
"sorteerstraat";"grote_steenweg-uitbreidingsstraat";;"Grote Steenweg hoek Uitbreidingstraat";"2600";"Berchem";"4.4216138950000641";"51.19326307800003"
"sorteerstraat";"frans_de_vriendtstraat";;"Frans De Vriendtstraat 48";"2600";"Berchem";"4.4442092800000523";"51.204531144000043"
"sorteerstraat";"studentenbuurt";;"Stadswaag tegenover 4";"2000";"Antwerpen";"4.407176163000031";"51.224056008000048"
"sorteerstraat";"studentenbuurt";;"Grote Kauwenberg 2";"2000";"Antwerpen";"4.4114783050000597";"51.223436998000068"
"sorteerstraat";"driesnellenstraat";;"Driesnellenstraat 9";"2060";"Antwerpen";"4.4240807460000724";"51.234169618000067"
"sorteerstraat";"onderwijsstraat";;"Onderwijsstraat rechtover 77";"2060";"Antwerpen";"4.4364642150000577";"51.226256019000061"
"sorteerstraat";"kwekerijstraat";;"Kwekerijstraat plein naast nr 112";"2140";"Borgerhout";"4.4439231610000434";"51.21970023800003"
"sorteerstraat";"moorkensplein";;"Moorkensplein Mareestraat 19";"2140";"Borgerhout";"4.4340431880000324";"51.213226648000045"
"sorteerstraat";"laar";;"Laar plein";"2140";"Borgerhout";"4.4331281040000476";"51.216053892000048"
"sorteerstraat";"vercammenstraat";;"Vercammenstraat 1B";"2140";"Borgerhout";"4.4385726780000709";"51.218575961000056"
"sorteerstraat";"kronenburg";;"Van Amstelstraat pleintje met Albert Bevernagelei";"2100";"Deurne";"4.4484393470000327";"51.232592995000061"
"sorteerstraat";"eksterlaer";;"Constant Jorislaan 33";"2100";"Deurne";"4.4692846880000729";"51.20044641100003"
"sorteerstraat";"eksterlaer";;"Kerkhofweg 40D";"2100";"Deurne";"4.473331321000046";"51.203993187000037"
"sorteerstraat";"dordrechtlaan";;"Dordrechtlaan 58W-58Z";"2100";"Deurne";"4.4593494610000448";"51.205628955000066"
"sorteerstraat";"gabriã«l vervoortstraat_91";;"GabriÃ«l Vervoortstraat over nr 91";"2100";"Deurne";"4.4623733510000534";"51.206594464000034"
"sorteerstraat";"wouter haecklaan_12";;"Wouter Haecklaan over nr 12";"2100";"Deurne";"4.462160610000069";"51.211245603000066"
"sorteerstraat";"drakenhoflaan";;"Drakenhoflaan 160";"2100";"Deurne";"4.4622538450000206";"51.194458780000048"
"sorteerstraat";"eksterlaer";;"Klein-Eksterlaer achter Van Den Hautelei 196-198";"2100";"Deurne";"4.4659808820000535";"51.200585416000081"
"sorteerstraat";"valaar";;"Jules Draeyersstraat rechtover 1";"2610";"Wilrijk";"4.3795382290000475";"51.176881250000065"
"sorteerstraat";"herentalsebaan";;"Herentalsebaan achter nr 146";"2100";"Deurne";"4.4597919990000605";"51.209002535000081"
"sorteerstraat";"schoonbroek";;"Tractaatstraat 11";"2180";"Ekeren";"4.4111826010000641";"51.279813998000066"
"sorteerstraat";"statiestraat";;"Statiestraat 16-17";"2180";"Ekeren";"4.4350983440000391";"51.285541155000033"
"sorteerstraat";"scanfil_81";;"Berkenrodelei 100 m achter nr 81";"2660";"Hoboken";"4.3473621730000218";"51.180306772000051"
"sorteerstraat";"scanfil_61";;"Berkenrodelei 100 m achter nr 61";"2660";"Hoboken";"4.3476980610000737";"51.179552808000039"
"sorteerstraat";"adolf greinerstraat";;"Adolf Greinerstraat hoek Kapelstraat/Baron Sadoinestraat";"2660";"Hoboken";"4.335221428000068";"51.171937725000078"
"sorteerstraat";"sint-bartholomeusstraat";;"Sint-Bartholomeusstraat tussen Oostkaai en Westkaai";"2170";"Merksem";"4.4476206950000687";"51.243150343000082"
"sorteerstraat";"neerland";;"Krijgslaan -> Galleitlaan over nr 220";"2610";"Wilrijk";"4.3910837860000242";"51.162369402000081"
"sorteerstraat";"neerland";;"Krijgslaan over nr 170";"2610";"Wilrijk";"4.3897463970000672";"51.16249257100003"
"sorteerstraat";"sporthalplein";;"Sporthalplein naast nr 3";"2610";"Wilrijk";"4.3918179140000575";"51.171419821000029"
"sorteerstraat";"valaar";;"Pastoor Bauwenslaan rechtover 2";"2610";"Wilrijk";"4.3815682900000752";"51.177492037000036"
"sorteerstraat";"valaar";;"Rooiboslaan 200";"2610";"Wilrijk";"4.3821959120000429";"51.176972909000028"
"sorteerstraat";"valaar";;"Primulalei rechtover 14";"2610";"Wilrijk";"4.3812496500000293";"51.176381637000077"
"sorteerstraat";"valaar";;"Bosheidelaan rechtover 32";"2610";"Wilrijk";"4.3802978930000336";"51.17618991300003"
"sorteerstraat";"brederode";;"Cuylitsstraat 22a";"2018";"Antwerpen";"4.3934665900000596";"51.204767708000077"
"sorteerstraat";"brederode";;"Montignystraat 43 - 51";"2018";"Antwerpen";"4.3921539780000671";"51.203794623000078"
"sorteerstraat";"brederode";;"Troonplaats rechtover 2";"2018";"Antwerpen";"4.3921952130000363";"51.203418213000077"
"sorteerstraat";"brederode";;"Paleisstraat 122";"2018";"Antwerpen";"4.3972695050000539";"51.205640558000027"
"sorteerstraat";"frederik van eedenpein";;"Frederik Van Eedenpein 17";"2050";"Antwerpen";"4.3862651820000451";"51.220993370000031"
"sorteerstraat";"august vermeylenlaan";;"August Vermeylenlaan 21";"2050";"Antwerpen";"4.3788825820000739";"51.229754297000056"
"sorteerstraat";"esmoreitlaan";;"Esmoreitlaan 3";"2050";"Antwerpen";"4.3848665590000451";"51.233300997000072"
"sorteerstraat";"plantin en moretuslei";;"Plantin en Moretuslei 331 - 335";"2140";"Borgerhout";"4.4369783820000634";"51.209099996000077"
"sorteerstraat";"studentenbuurt";;"Academie tegenover 2";"2000";"Antwerpen";"4.4059968030000505";"51.222983244000034"
"sorteerstraat";"professor claraplein";;"Professor Claraplein 2";"2018";"Antwerpen";"4.4196551620000264";"51.20097652100003"
"sorteerstraat";"studentenbuurt";;"Kleine Kauwenberg over nr 22";"2000";"Antwerpen";"4.411983770000063";"51.223987951000026"
"sorteerstraat";"august vermeylenlaan";;"August Vermeylenlaan naast 1 - 3";"2050";"Antwerpen";"4.3790336800000205";"51.232422932000077"
"sorteerstraat";"esmoreitlaan";;"Esmoreitlaan 7";"2050";"Antwerpen";"4.3827983380000433";"51.232973320000042"
"sorteerstraat";"esmoreitlaan";;"Esmoreitlaan 29";"2050";"Antwerpen";"4.3814366900000437";"51.232594254000048"
"sorteerstraat";"luchtbal";;"Bristolstraat 8";"2030";"Antwerpen";"4.4237263770000368";"51.255185657000027"
"sorteerstraat";"luchtbal";;"Belfaststraat 11";"2030";"Antwerpen";"4.4243967300000691";"51.255361074000064"
"sorteerstraat";"de coninckplein";;"Van Arteveldestraat nr 64 - voor apotheek De Coninckplein 9-10";"2060";"Antwerpen";"4.4203891680000424";"51.221653543000059"
"sorteerstraat";"ellermanstraat";;"Ellermanstraat toren 2 (over De Pretstraat)";"2060";"Antwerpen";"4.4172337890000222";"51.229927339000028"
"sorteerstraat";"uitbreidingsstraat";;"Uitbreidingsstraat hoek De Villegasstraat";"2600";"Berchem";"4.4249510250000412";"51.194999730000063"
"sorteerstraat";"van couwervenstraat";;"Van Couwervenstraat 128";"2040";"BeZaLi";"4.3255651070000454";"51.344504358000052"
"sorteerstraat";"luitenant_naeyaertplein";;"Luitenant Naeyaertplein op pleintje";"2140";"Borgerhout";"4.4401563520000309";"51.209937225000033"
"sorteerstraat";"joe_englishstraat";;"Joe Englishstraat 42";"2140";"Borgerhout";"4.4475821790000509";"51.211114644000077"
"sorteerstraat";"luisbekelaar";;"Luisbekelaar 4";"2140";"Borgerhout";"4.4455861430000709";"51.205513014000076"
"sorteerstraat";"koxplein";;"Koxplein thv De Shelter";"2140";"Borgerhout";"4.4339029960000289";"51.21143726400004"
"sorteerstraat";"bosuil";;"Bosuil tussen Kerkeveldlaan 77-79";"2100";"Deurne";"4.4629306430000497";"51.230033964000029"
"sorteerstraat";"clara snellingstraat";;"Clara Snellingsstraat hoek Eikblokstraat";"2100";"Deurne";"4.4630329870000764";"51.223920675000045"
"sorteerstraat";"veltwijcklaan";;"Veltwijcklaan 48";"2180";"Ekeren";"4.4219665060000466";"51.277745914000036"
"sorteerstraat";"van stralenlei";;"Van Stralenlei hoek Sint Bartholomeusstraat";"2170";"Merksem";"4.4453366300000425";"51.242809798000053"
"sorteerstraat";"regatta";;"null verlengde Aalscholverlaan";"2050";"Antwerpen";"4.3660493620000693";"51.217137907000051"
"sorteerstraat";"edison";;"Edisonlaan 0";"2030";"Antwerpen";"4.4119291760000579";"51.291986541000028"
"sorteerstraat";"lombarden";;"Pandstraat null";"2000";"Antwerpen";"4.4009918540000399";"51.21778783600007"
"sorteerstraat";"eilandje";;"Kempischdok-Westkaai 0";"2000";"Antwerpen";"4.412756742000056";"51.234047757000042"
"sorteerstraat";"valaar";;"Kolonel Slaterplein over nr 1";"2610";"Wilrijk";"4.3774473600000761";"51.176788599000076"
"sorteerstraat";"valaar";;"Ridderveld over nr 1";"2610";"Wilrijk";"4.3745939530000442";"51.177485030000071"
"sorteerstraat";"belgiã«lei";;"BelgiÃ«lei 34";"2018";"Antwerpen";"4.4213032290000456";"51.208346977000076"
"sorteerstraat";"belgiã«lei";;"BelgiÃ«lei 94";"2018";"Antwerpen";"4.4184849110000641";"51.206312162000074"
"sorteerstraat";"belgiã«lei";;"BelgiÃ«lei 142";"2018";"Antwerpen";"4.4156438990000311";"51.204320609000035"
"sorteerstraat";"belgiã«lei";;"BelgiÃ«lei 204";"2018";"Antwerpen";"4.4129871270000649";"51.202444437000054"
"sorteerstraat";"belgiã«lei";;"Van Den Nestlei 10";"2018";"Antwerpen";"4.4243795570000657";"51.209729996000078"
"sorteerstraat";"plantin en moretuslei";;"Plantin en Moretuslei 123 - 135";"2140";"Borgerhout";"4.4278921180000452";"51.210143556000048"
"sorteerstraat";"blancefloerlaan";;"  4";"2050";"Antwerpen";"4.3864874820000637";"51.219858760000079"
"sorteerstraat";"fodderiestraat";;"Fodderiestraat 89";"2660";"Hoboken";"4.3456743860000415";"51.180548753000039"
"sorteerstraat";"pijlstraat";;"Pijlstraat 1";"2060";"Antwerpen";"4.4189122920000727";"51.221379196000044"
"sorteerstraat";"kroonstraat";;"Kroonstraat 80";"2140";"Borgerhout";"4.4296547110000688";"51.213808269000026"
"sorteerstraat";"kievit fase ii";;"van Immerseelstraat 1";"2018";"Antwerpen";"4.4226534040000729";"51.213048835000052"
"sorteerstraat";"eilandje";;"Kempischdok-Westkaai 26-28";"2000";"Antwerpen";"4.4128326030000267";"51.233713943000055"
"sorteerstraat";"jos van geellaan";;"Deurne over nr 15bis";"2100";"Deurne";"4.4688872390000256";"51.208336641000074"
"sorteerstraat";"breedsteert";;"verkaveling 0";"2040";"Bezali";"4.3253164570000422";"51.349949861000027"
"sorteerstraat";"brederode";;"Fransenplaats 3";"2018";"Antwerpen";"4.3978125890000683";"51.200572253000075"
"sorteerstraat";"sint-vincentius";;"Sint-Vincentiusstraat 20";"2018";"Antwerpen";"4.4135684950000496";"51.205714940000064"
"sorteerstraat";"brederode";;"Stockmansstraat 7";"2018";"Antwerpen";"4.4050180820000264";"51.208916711000029"
"sorteerstraat";"brederode";;"Solvynsstraat 9";"2018";"Antwerpen";"4.4022601110000323";"51.207551558000034"
"sorteerstraat";"brederode";;"Bolwerkstraat 26";"2018";"Antwerpen";"4.399925473000053";"51.207112695000035"
"sorteerstraat";"dam";;"Kalverstraat 6";"2060";"Antwerpen";"4.4319971180000266";"51.230721335000055"
"sorteerstraat";"baron dhanislaan";;"Emiel Banningstraat 15-17";"2000";"Antwerpen";"4.3897224330000313";"51.205824458000052"
"sorteerstraat";"0";;"0 0";"0";"0";"4.4314727380000249";"51.230191540000078"
"sorteerstraat";"de veldekens";;"Kanunnik Peetersstraat thv nÂ° 70";"2600";"Berchem";"4.4330880500000376";"51.189769045000048"
"sorteerstraat";"nieuw zuid - s1";;"omgeving Van der Sweepstraat 0";"2000";"Antwerpen";"4.384804306000035";"51.206834021000077"
"sorteerstraat";"nieuw zuid - s2";;"Striga 1 Kant Ledeganckkaai";"2000";"Antwerpen";"4.3828589450000663";"51.206369128000063"
"sorteerstraat";"nieuw zuid - s3";;"Striga 1 kant snelweg";"2000";"Antwerpen";"4.3838863820000711";"51.205181786000026"
"sorteerstraat";"nieuw zuid - s4";;"Striga 2 kant  Ledeganckkaai";"2000";"Antwerpen";"4.3815988140000286";"51.205779155000073"
"sorteerstraat";"nieuw zuid - s6";;"Striga 3 Kant Ledeganckkaai";"2000";"Antwerpen";"4.3798302140000374";"51.204758774000027"
"sorteerstraat";"nieuw zuid  - s8";;"Striga 4 Kant Ledeganckkaai";"2020";"Antwerpen";"4.3784707920000301";"51.204557569000031"
"sorteerstraat";"nieuw zuid - s10";;"Striga 6 Kant D'Herbouvillekaai";"2020";"Antwerpen";"4.3770892620000268";"51.204273038000053"
"sorteerstraat";"nieuw zuid - s5";;"Striga 2 kant snelweg";"2000";"Antwerpen";"4.3823610380000559";"51.204619628000046"
"sorteerstraat";"nieuw zuid - s7";;"Striga 3 kant snelweg";"2000";"Antwerpen";"4.3804931210000291";"51.204036659000053"
"sorteerstraat";"nieuw zuid  - s9";;"Striga 4 kant snelweg";"2020";"Antwerpen";"4.3792994380000323";"51.20362022200004"
"sorteerstraat";"nieuw zuid - s11";;"Striga 6 kant snelweg";"2020";"Antwerpen";"4.3782605420000209";"51.203405097000029"
"sorteerstraat";"rozemaai";;"Herman Vosstraat 7";"2030";"Antwerpen";"4.4119888700000729";"51.271610987000031"
"sorteerstraat";"rozemaai";;"Renaat Veremansstraat 4";"2030";"Antwerpen";"4.4175236060000316";"51.269946284000071"
"sorteerstraat";"rozemaai";;"Jef Van Hoofstraat 2";"2030";"Antwerpen";"4.4178826320000439";"51.268370683000057"
"sorteerstraat";"rozemaai";;"Gerard Walschapstraat 1";"2030";"Antwerpen";"4.4161888800000497";"51.267387819000078"
"sorteerstraat";"rozemaai";;"100m westen van Renaat Veremanstraat 8 0";"2030";"Antwerpen";"4.4154274760000476";"51.269050648000075"
"sorteerstraat";"rozemaai";;"Henry Van De Veldestraat 2";"2030";"Antwerpen";"4.4142649270000334";"51.272036613000068"
"sorteerstraat";"rozemaai";;"Pater Strackestraat 2";"2030";"Antwerpen";"4.4121957500000235";"51.270340105000059"
"sorteerstraat";"rozemaai";;"Ekersesteenweg 4";"2030";"Antwerpen";"4.417300932000046";"51.272179140000048"
"sorteerstraat";"valaar";;"Cliviastraat lotusstraat";"2610";"Wilrijk";"4.3845974720000527";"51.178654144000063"
"sorteerstraat";"krugerstraat";;"Krugerstraat 7";"2660";"Hoboken";"4.3709602800000198";"51.182425561000059"
"sorteerstraat";"eilandje";;"Nassaustraat 43";"2000";"Antwerpen";"4.4056333050000376";"51.229908794000039"
"sorteerstraat";"sint-jan";;"Sint Jansplein Van De Wervestraat";"2060";"Antwerpen";"4.4170257100000754";"51.225849868000068"
"sorteerstraat";"eilandje";;"Bordeauxstraat 1";"2000";"Antwerpen";"4.4092238860000634";"51.230746999000075"
"sorteerstraat";"draaiboom";;"Alfred Nobellaan 1";"2660";"Hoboken";"4.3608058410000581";"51.177232225000068"
"sorteerstraat";"hof ter lo";;"Buurtspoorweglei 0";"2140";"Borgerhout";"4.4462427220000222";"51.218671638000046"
"sorteerstraat";"eksterlaer";;"Vuurwerkstraat begin groen zone";"2100";"Deurne";"4.4711798610000528";"51.204054126000074"
"sorteerstraat";"studentenbuurt";;"Pieter van Hobokenstraat 23";"2000";"Antwerpen";"4.4130163550000248";"51.221865239000067"
"sorteerstraat";"eilandje";;"Kattendijkdok-Oostkaai hoek Madrasstraat";"2000";"Antwerpen";"4.4092281360000243";"51.235515787000054"
"sorteerstraat";"eilandje";;"Madrasstraat tegenover gebouw kaai 20";"2000";"Antwerpen";"4.4092112630000315";"51.235676037000076"
"sorteerstraat";"terloplein";;"Statielei over nr 109 en Albrecht Rodenbachstraat 44";"2140";"Borgerhout";"4.4444290210000759";"51.219008596000037"
"sorteerstraat";"militair hospitaal";;"Boomgaardstraat achter nr 143";"2018";"Antwerpen";"4.4256042730000331";"51.201379815000053"
"sorteerstraat";"militair hospitaal";;"Pater Pirestraat t.h.v. uitrit Lange Leemstraat";"2018";"Antwerpen";"4.4262612990000321";"51.203700332000039"
"sorteerstraat";"studentenbuurt";;"Paardenmarkt Venusstraat";"2000";"Antwerpen";"4.4094317180000644";"51.225024305000034"
"sorteerstraat";"nationalestraat";;"Nationalestraat - Drukkerijstraat 9 en tegenover nr 18";"2000";"Antwerpen";"4.3992736350000428";"51.216999878000081"
"sorteerstraat";"nationalestraat";;"Schoytestraat 2";"2000";"Antwerpen";"4.3979003390000457";"51.214056682000034"
"sorteerstraat";"nationalestraat";;"Kronenburgstraat 43/1";"2000";"Antwerpen";"4.3977275310000437";"51.212042046000079"
"sorteerstraat";"kloosterstraat";;"Kloosterstraat hoek met Oever";"2000";"Antwerpen";"4.3962392650000766";"51.217496513000071"
"sorteerstraat";"brederode";;"Kielsevest thv nr 44-46";"2018";"Antwerpen";"4.393312844000036";"51.19785063300003"
"sorteerstraat";"broederminstraat";;"Broederminstraat 41";"2018";"Antwerpen";"4.3947147890000338";"51.202481918000046"
"sorteerstraat";"brialmontlei";;"Brialmontlei hoek Plantin Moretuslei/Charlottalei";"2018";"Antwerpen";"4.4185399880000205";"51.210005098000067"
"sorteerstraat";"lange leemstraat";;"Lange Leemstr pleintje  met Isabellalei/Sint Vincentiusstr";"2018";"Antwerpen";"4.414985156000057";"51.206806476000054"
"sorteerstraat";"brederode";;"Halve Maanstraat hoek met Lange Batterijstraat";"2018";"Antwerpen";"4.3956963230000383";"51.203584870000043"
"sorteerstraat";"dam";;"Weilandstraat hoek met Kalverstraat";"2060";"Antwerpen";"4.4315271720000737";"51.230854702000045"
"sorteerstraat";"dam";;"Eendrachtstraat 29";"2060";"Antwerpen";"4.4377014440000266";"51.228572112000052"
"sorteerstraat";"borgerweert";;"Antoon Marstboomstraat 0";"2050";"Antwerpen";"4.3762235710000255";"51.219355499000073"
"sorteerstraat";"borgerweert";;"Edmond De Coussemakerstraat 41";"2050";"Antwerpen";"4.3751480220000758";"51.217896678000045"
"sorteerstraat";"dam";;"Dijlestraat tegenover nr 1";"2060";"Antwerpen";"4.4301670950000585";"51.230913624000038"
"sorteerstraat";"oude luchtbal";;"Bostonstraat 0";"2030";"Antwerpen";"4.4301086900000541";"51.229916096000068"
"sorteerstraat";"oude stadscentrum";;"Groenkerkhofstraat 2";"2000";"Antwerpen";"4.4006881390000672";"51.218711475000077"
"sorteerstraat";"oude stadscentrum";;"Wisselstraat op hoek met Grote Markt nr 15";"2000";"Antwerpen";"4.4003912940000305";"51.221488417000046"
"sorteerstraat";"oude stadscentrum";;"Zand tegenover nr 1";"2000";"Antwerpen";"4.396385925000061";"51.219720982000069"
"sorteerstraat";"scanfil_extra locatie";;"Fodderiestraat (kant Hertoglei) 0";"2660";"Hoboken";"4.3457614820000572";"51.18046428100007"
"sorteerstraat";"sint-elisabethstraat";;"Sint-Elisabethstraat 59";"2060";"Antwerpen";"4.4240315710000573";"51.222841448000054"
"sorteerstraat";"hof ter lo";;"Hof ter Lo 11";"2140";"Borgerhout";"4.4468882770000278";"51.220564425000077"
"sorteerstraat";"krugerpark";;"Borsbeekstraat Gijselsstraat";"2140";"Borgerhout";"4.4428327990000298";"51.21627268800006"
"sorteerstraat";"koxplein";;"Bleekhofstraat 60";"2140";"Borgerhout";"4.4326656720000415";"51.211335197000039"
"sorteerstraat";"lt. lippenslaan";;"Te Boelaarlei 1-3";"2140";"Borgerhout";"4.4523439310000299";"51.210222291000036"
"sorteerstraat";"hulkstraat";;"Hulkstraat 26";"2040";"Bezali";"4.3070870070000637";"51.35746105700008"
"sorteerstraat";"dam";;"Lange Lobroekstraat De Marbaixstraat";"2060";"Antwerpen";"4.4374205890000553";"51.227290807000031"
"sorteerstraat";"rozemaai";;"Pater Strackestraat 9";"2030";"Antwerpen";"4.4145567730000721";"51.270230259000073"
"sorteerstraat";"kronenburg";;"Van Duyststraat 255";"2100";"Deurne";"4.4530942070000492";"51.232802136000032"
"sorteerstraat";"ter wilgen";;"Urbain Renierstraat hoek Adolf Menystraat";"2050";"Antwerpen";"4.3765061670000591";"51.22663835600008"
"sorteerstraat";"halewijnlaan";;"Halewijnlaan 45-47";"2050";"Antwerpen";"4.3786723630000211";"51.224695660000066"
"sorteerstraat";"halewijnlaan";;"Halewijnlaan 41-43";"2050";"Antwerpen";"4.3787062960000753";"51.225545129000068"
"sorteerstraat";"coster/elsschot";;"Willem Elsschotstraat 5";"2050";"Antwerpen";"4.3805545890000417";"51.226112150000063"
"sorteerstraat";"coster - elsschot";;"Charles de Costerlaan 15";"2050";"Antwerpen";"4.3799850490000267";"51.226720690000036"
"sorteerstraat";"draaiboom";;"Gandhilaan overzijde nr 40";"2660";"Hoboken";"4.3636673050000354";"51.177840091000064"
"sorteerstraat";"vinkenvelden";;"Moretusstraat 154";"2660";"Hoboken";"4.3490059230000497";"51.169060456000068"
"sorteerstraat";"studentenbuurt";;"Molenbergstraat 10";"2000";"Antwerpen";"4.4155686310000419";"51.220574158000034"
"sorteerstraat";"sint-andries";;"Willem Lepelstraat 19";"2000";"Antwerpen";"4.3958627890000344";"51.213238453000031"
"sorteerstraat";"sint-andries";;"Prekersstraat 18";"2000";"Antwerpen";"4.3966450780000628";"51.214053903000035"
"sorteerstraat";"silvertop";;"Jan DenucÃ©straat 11";"2020";"Antwerpen";"4.3889133600000605";"51.19572592600008"
"sorteerstraat";"silvertop";;"Ontmoetingsplein 0";"2020";"Antwerpen";"4.3906195980000575";"51.194874501000072"
"sorteerstraat";"silvertop";;"Volhardingstraat 91";"2020";"Antwerpen";"4.3903956810000295";"51.194189713000071"
"sorteerstraat";"sint-jan";;"Ellermanstraat Dambruggestraat";"2060";"Antwerpen";"4.4210258920000456";"51.230006062000029"
"sorteerstraat";"groeningerplein";;"Groeningerplein 7 - 8 - 9";"2140";"Borgerhout";"4.438791836000064";"51.219920721000051"
"sorteerstraat";"fonteinstraat";;"Fonteinstraat 31";"2140";"Borgerhout";"4.44254588900003";"51.212077994000026"
"sorteerstraat";"studentenbuurt";;"Gratiekapelstraat 9";"2000";"Antwerpen";"4.4084510600000613";"51.221970402000068"
"sorteerstraat";"zuidervelodroom";;"Zuidervelodroom over nr 34";"2018";"Antwerpen";"4.3983776050000642";"51.201874881000037"
"sorteerstraat";"dam";;"Noordschippersdok achter nr 29-31-33";"2060";"Antwerpen";"4.4294495250000523";"51.234167274000072"
"sorteerstraat";"duinstraat";;"Duinstraat Geelhandsplaats";"2060";"Antwerpen";"4.4306923210000377";"51.222515849000047"
"sorteerstraat";"sint-jan";;"Sint-Jansplein Oudesteenweg";"2060";"Antwerpen";"4.41828694000003";"51.224824789000081"
"sorteerstraat";"dam";;"Maasstraat 2";"2060";"Antwerpen";"4.4261507580000625";"51.232990931000074"
"sorteerstraat";"vinkenvelden";;"Paul Henri Spaaklaan 1";"2660";"Hoboken";"4.3480807300000492";"51.170145777000073"
"sorteerstraat";"valaar";;"Gebroeders De Wachterstraat 21-199";"2610";"Wilrijk";"4.3798249840000381";"51.17670128900005"
"sorteerstraat";"militair hospitaal";;"Albert Claudestraat 11";"2018";"Antwerpen";"4.4224635290000265";"51.201743631000056"
"sorteerstraat";"dam";;"Twee Netenstraat 1";"2060";"Antwerpen";"4.4283593790000282";"51.231726389000073"
"sorteerstraat";"dam";;"Rupelstraat 83";"2060";"Antwerpen";"4.430593373000022";"51.232882506000067"
"sorteerstraat";"duinstraat";;"Pesthofstraat 35";"2060";"Antwerpen";"4.4334818480000422";"51.222910220000074"
"sorteerstraat";"duinstraat";;"Duinstraat Lange Zavelstraat";"2060";"Antwerpen";"4.4273114080000369";"51.22201810100006"
"sorteerstraat";"nijverheidstraat";;"Nijverheidstraat Wilgenstraat";"2060";"Antwerpen";"4.4283738450000669";"51.225522380000029"
"sorteerstraat";"regatta";;"Emile Dancolaan hoek Hugues C. Pernathlaan";"2050";"Antwerpen";"4.3674772990000292";"51.219387821000055"
"sorteerstraat";"regatta";;"Hugues C. Pernathlaan hoek Cornellielaan";"2050";"Antwerpen";"4.3677861770000277";"51.218257243000039"
"sorteerstraat";"dam";;"Lange Lobroekstraat Ceulemansstraat";"2060";"Antwerpen";"4.4347642420000284";"51.228491602000076"
"sorteerstraat";"venneborg";;"Venneborglaan Alfons Schneiderlaan";"2100";"Deurne";"4.475758115000076";"51.223929431000045"
"sorteerstraat";"dam";;"Lange Lobroekstraat Lange Slachterijstraat";"2060";"Antwerpen";"4.4331851180000399";"51.229194926000048"
"sorteerstraat";"studentenbuurt";;"Paardenmarkt Rodestraat";"2000";"Antwerpen";"4.4133438330000558";"51.224645098000053"
"sorteerstraat";"kloosterstraat";;"Driehoekstraat 2";"2180";"Ekeren";"4.4191514010000219";"51.279657375000056"
"sorteerstraat";"kloosterstraat";;"Kristus Koningplein 9";"2180";"Ekeren";"4.4186317300000724";"51.278333320000058"
"sorteerstraat";"kloosterstraat";;"Kloosterstraat 83";"2180";"Ekeren";"4.417561987000056";"51.282150374000082"
"sorteerstraat";"kloosterstraat";;"Kloosterstraat 149";"2180";"Ekeren";"4.4159998460000338";"51.284148320000043"
"sorteerstraat";"operaplein";;"Frankrijklei nog niet bepaalt";"2000";"Antwerpen";"4.4156300710000664";"51.219495105000078"