"id";"obdd";"prioritair";"omschrijving";"extra_info_publiek";"vrijstaand";"type";"eigenaar";"betalend";"straat";"huisnummer";"postcode";"district";"beheerder";"contactgegevens";"vermelding";"doelgroep";"integraal_toegankelijk";"gescreend";"luiertafel";"mabu";"maeu";"dibu";"dieu";"wobu";"woeu";"dobu";"doeu";"vrbu";"vreu";"zabu";"zaeu";"zobu";"zoeu";"openingsuren_opm";"lat";"long";"x_coord";"y_coord";"point_lng";"point_lat"
"108";"2009-12-01T00:00:00";"";"Hessenhuis";"";"nee";"toilet";"stadseigendom";"niet betalend";"Falconrui";"53";"2000";"Antwerpen";"CS";"";"OK";"man/vrouw";"ja";"ja";"ja";"1899-12-30T08:30:00";"1899-12-30T16:30:00";"1899-12-30T08:30:00";"1899-12-30T16:30:00";"1899-12-30T08:30:00";"1899-12-30T16:30:00";"1899-12-30T08:30:00";"1899-12-30T16:30:00";"1899-12-30T08:30:00";"1899-12-30T16:30:00";"";"";"";"";"";"";"";"152838.9345";"212891.43419999999";"4.4094030000000544";"51.225956140000051"
"1";"2009-12-01T00:00:00";"";"AMVC Letterenhuis";"";"nee";"toilet";"stadseigendom";"niet betalend";"Minderbroedersstraat";"22";"2000";"Antwerpen";"CS";"";"OK";"man/vrouw";"nee";"nvt";"nee";"1899-12-30T09:30:00";"1899-12-30T17:00:00";"1899-12-30T09:30:00";"1899-12-30T17:00:00";"1899-12-30T09:30:00";"1899-12-30T17:00:00";"1899-12-30T09:30:00";"1899-12-30T17:00:00";"1899-12-30T09:30:00";"1899-12-30T17:00:00";"1899-12-30T09:00:00";"1899-12-30T17:00:00";"1899-12-30T09:00:00";"1899-12-30T17:00:00";"";"51Â°13'08.50";"4Â°29'00.37";"152511.33199999999";"212549.82949999999";"4.4047109670000282";"51.222887236000076"
"2";"2009-09-01T00:00:00";"";"Museum Plantin Moretus";"";"nee";"toilet";"stadseigendom";"niet betalend";"Vrijdagmarkt";"22";"2000";"Antwerpen";"CS";"";"OK";"man/vrouw";"nee";"nvt";"nee";"1899-12-30T10:00:00";"1899-12-30T17:00:00";"1899-12-30T10:00:00";"1899-12-30T17:00:00";"1899-12-30T10:00:00";"1899-12-30T17:00:00";"1899-12-30T10:00:00";"1899-12-30T17:00:00";"1899-12-30T10:00:00";"1899-12-30T17:00:00";"1899-12-30T10:00:00";"1899-12-30T17:00:00";"1899-12-30T10:00:00";"1899-12-30T17:00:00";"";"";"";"152043.4895";"212044.109";"4.3980113360000246";"51.218343538000056"
"3";"2009-12-01T00:00:00";"";"Rubenianum";"";"nee";"toilet";"stadseigendom";"niet betalend";"Kolveniersstraat";"20";"2000";"Antwerpen";"CS";"";"OK";"man/vrouw";"nee";"nvt";"nee";"1899-12-30T08:30:00";"1899-12-30T16:30:00";"1899-12-30T08:30:00";"1899-12-30T16:30:00";"1899-12-30T08:30:00";"1899-12-30T16:30:00";"1899-12-30T08:30:00";"1899-12-30T16:30:00";"1899-12-30T08:30:00";"1899-12-30T16:30:00";"";"";"";"";"gesloten tussen 12:00 en 13:00";"";"";"152899.11649998999";"211906.84820000001";"4.4102563750000741";"51.217105985000046"
"4";"2009-12-01T00:00:00";"";"DC De Oever";"";"nee";"toilet";"geen stadseigendom";"niet betalend";"Korte Riddersstraat";"18";"2000";"Antwerpen";"OCMW";"";"OK";"man/vrouw";"ja";"ja";"nee";"1899-12-30T10:00:00";"1899-12-30T17:00:00";"1899-12-30T10:00:00";"1899-12-30T17:00:00";"1899-12-30T10:00:00";"1899-12-30T17:00:00";"1899-12-30T10:00:00";"1899-12-30T17:00:00";"1899-12-30T10:00:00";"1899-12-30T17:00:00";"1899-12-30T13:00:00";"1899-12-30T17:00:00";"1899-12-30T13:00:00";"1899-12-30T17:00:00";"";"";"";"152004.74599999";"211926.56760000001";"4.3974561400000312";"51.217287170000077"
"5";"2009-09-01T00:00:00";"";"OC Het oude badhuis";"";"nee";"toilet";"stadseigendom";"niet betalend";"Stuivenbergplein";"38";"2060";"Antwerpen";"SL";"het.oudebadhuis@stad.antwerpen.be";"OK";"man/vrouw";"ja";"ja";"nee";"1899-12-30T10:00:00";"1899-12-30T23:00:00";"1899-12-30T10:00:00";"1899-12-30T23:00:00";"1899-12-30T10:00:00";"1899-12-30T23:00:00";"1899-12-30T10:00:00";"1899-12-30T23:00:00";"1899-12-30T10:00:00";"1899-12-30T03:00:00";"1899-12-30T10:00:00";"1899-12-30T03:00:00";"1899-12-30T12:00:00";"1899-12-30T20:00:00";"";"";"";"154445.111";"213019.58689999999";"4.4323967710000716";"51.227097637000043"
"6";"2009-12-01T00:00:00";"";"SC De Oever";"";"nee";"toilet";"geen stadseigendom";"niet betalend";"Oever";"13";"2000";"Antwerpen";"OCMW";"";"OK";"man/vrouw";"nee";"ja";"nee";"1899-12-30T09:00:00";"1899-12-30T12:30:00";"1899-12-30T09:00:00";"1899-12-30T15:30:00";"1899-12-30T09:00:00";"1899-12-30T15:30:00";"1899-12-30T09:00:00";"1899-12-30T15:30:00";"1899-12-30T09:00:00";"1899-12-30T15:30:00";"";"";"";"";"gesloten tussen 12:30 en 13:00";"";"";"151988.5595";"211964.86169999";"4.397224695000034";"51.217631431000029"
"7";"2009-12-01T00:00:00";"";"Zwembad Wezenberg";"";"nee";"toilet";"stadseigendom";"niet betalend";"Desguinlei";"17-19";"2018";"Antwerpen";"CS";"";"OK";"man/vrouw";"ja";"ja";"nee";"1899-12-30T07:00:00";"1899-12-30T21:00:00";"1899-12-30T07:00:00";"1899-12-30T21:00:00";"1899-12-30T07:00:00";"1899-12-30T21:00:00";"1899-12-30T07:00:00";"1899-12-30T21:00:00";"1899-12-30T07:00:00";"1899-12-30T21:00:00";"1899-12-30T08:00:00";"1899-12-30T13:00:00";"1899-12-30T08:00:00";"1899-12-30T13:00:00";"";"";"";"152598.98749999001";"209211.72690000001";"4.4059409060000689";"51.19288249300007"
"8";"2009-12-01T00:00:00";"";"DC Hof Ter Beke";"";"nee";"toilet";"geen stadseigendom";"niet betalend";"Balansstraat";"23a";"2018";"Antwerpen";"OCMW";"";"OK";"man/vrouw";"ja";"ja";"nee";"1899-12-30T09:00:00";"1899-12-30T17:15:00";"1899-12-30T09:00:00";"1899-12-30T17:15:00";"1899-12-30T09:00:00";"1899-12-30T17:15:00";"1899-12-30T09:00:00";"1899-12-30T17:15:00";"1899-12-30T09:00:00";"1899-12-30T17:15:00";"1899-12-30T14:00:00";"1899-12-30T17:15:00";"";"";"";"";"";"151833.03649999";"210354.49429999999";"4.3949902630000679";"51.203157290000036"
"9";"2009-12-01T00:00:00";"";"DC Santiago";"";"nee";"toilet";"geen stadseigendom";"niet betalend";"Canadalaan";"21";"2030";"Antwerpen";"OCMW";"";"OK";"man/vrouw";"ja";"ja";"nee";"1899-12-30T09:00:00";"1899-12-30T17:15:00";"1899-12-30T09:00:00";"1899-12-30T17:15:00";"1899-12-30T09:00:00";"1899-12-30T17:15:00";"1899-12-30T09:00:00";"1899-12-30T17:15:00";"1899-12-30T09:00:00";"1899-12-30T17:15:00";"1899-12-30T13:30:00";"1899-12-30T17:15:00";"";"";"";"";"";"153727.10699999999";"215463.05469999";"4.4221441570000479";"51.249065538000082"
"10";"2009-12-01T00:00:00";"";"DC De Meersenier";"";"nee";"toilet";"geen stadseigendom";"niet betalend";"Sint-Nicolaasplaats";"7";"2000";"Antwerpen";"OCMW";"";"OK";"man/vrouw";"ja";"ja";"nee";"1899-12-30T08:30:00";"1899-12-30T17:30:00";"1899-12-30T08:30:00";"1899-12-30T17:30:00";"1899-12-30T08:30:00";"1899-12-30T17:30:00";"1899-12-30T08:30:00";"1899-12-30T17:30:00";"1899-12-30T08:30:00";"1899-12-30T17:30:00";"";"";"";"";"";"";"";"152607.81";"212265.28570000001";"4.4060898260000272";"51.220329201000027"
"11";"2010-03-01T00:00:00";"";"Ecohuis";"";"nee";"toilet";"stadseigendom";"niet betalend";"Turnhoutsebaan";"139";"2140";"Borgerhout";"ACT";"";"OK";"man/vrouw";"ja";"ja";"ja";"";"";"1899-12-30T09:30:00";"1899-12-30T17:00:00";"1899-12-30T09:30:00";"1899-12-30T17:00:00";"1899-12-30T09:30:00";"1899-12-30T19:00:00";"1899-12-30T09:30:00";"1899-12-30T17:00:00";"";"";"";"";"";"";"";"154599.34599999999";"211724.6955";"4.4345879200000695";"51.215457412000035"
"12";"2009-12-01T00:00:00";"";"Atlas";"";"nee";"toilet";"stadseigendom";"niet betalend";"Carnotstraat";"110";"2140";"Borgerhout";"SL";"";"OK";"man/vrouw";"ja";"ja";"ja";"1899-12-30T09:00:00";"1899-12-30T17:00:00";"1899-12-30T09:00:00";"1899-12-30T19:30:00";"1899-12-30T09:00:00";"1899-12-30T17:00:00";"1899-12-30T09:00:00";"1899-12-30T17:00:00";"1899-12-30T09:00:00";"1899-12-30T17:00:00";"";"";"";"";"";"";"";"154033.83649998999";"211945.38789998999";"4.4264970720000747";"51.217445403000056"
"13";"2010-03-01T00:00:00";"";"Ombudsdienst";"";"nee";"toilet";"geen stadseigendom";"niet betalend";"Sint-Jacobsmarkt";"5";"2000";"Antwerpen";"BZ";"";"OK";"man/vrouw";"nee";"nvt";"nee";"";"";"1899-12-30T09:00:00";"1899-12-30T17:00:00";"1899-12-30T09:00:00";"1899-12-30T17:00:00";"1899-12-30T09:00:00";"1899-12-30T19:00:00";"1899-12-30T09:00:00";"1899-12-30T17:00:00";"";"";"";"";"juli & augustus DoEU = 15:00";"";"";"152911.54599998999";"212310.15069998999";"4.4104376070000626";"51.220730966000076"
"14";"2009-12-01T00:00:00";"";"CC Nova";"";"nee";"toilet";"stadseigendom";"niet betalend";"Schijfstraat";"105";"2020";"Antwerpen";"CS";"";"OK";"man/vrouw";"ja";"ja";"nee";"";"";"1899-12-30T09:00:00";"1899-12-30T17:00:00";"1899-12-30T09:00:00";"1899-12-30T17:00:00";"1899-12-30T09:00:00";"1899-12-30T17:00:00";"1899-12-30T09:00:00";"1899-12-30T17:00:00";"";"";"";"";"";"";"";"150303.47999999";"208962.52039999";"4.3731040830000438";"51.19064862700003"
"15";"2010-03-01T00:00:00";"";"Begraafplaats Berendrecht";"";"ja";"toilet";"stadseigendom";"niet betalend";"Schouwvegerstraat";"1";"2040";"Bezali";"SB";"0479 88 05 13 (WW)";"OK";"man/vrouw";"ja";"ja";"nee";"1899-12-30T08:00:00";"1899-12-30T17:30:00";"1899-12-30T08:00:00";"1899-12-30T17:30:00";"1899-12-30T08:00:00";"1899-12-30T17:30:00";"1899-12-30T08:00:00";"1899-12-30T17:30:00";"1899-12-30T08:00:00";"1899-12-30T17:30:00";"1899-12-30T08:00:00";"1899-12-30T17:30:00";"1899-12-30T08:00:00";"1899-12-30T17:30:00";"zomertijd tot 20:00";"";"";"146348.0845";"225615.95319999999";"4.3163620720000608";"51.340322714000081"
"17";"2010-03-01T00:00:00";"";"Begraafplaats Ruggenveld";"bezoekerssanitair";"ja";"toilet";"stadseigendom";"niet betalend";"August Van De Wielelei";"/";"2100";"Deurne";"SB";"0479 88 05 13 (WW)";"OK";"man/vrouw";"ja";"ja";"nee";"1899-12-30T08:00:00";"1899-12-30T17:30:00";"1899-12-30T08:00:00";"1899-12-30T17:30:00";"1899-12-30T08:00:00";"1899-12-30T17:30:00";"1899-12-30T08:00:00";"1899-12-30T17:30:00";"1899-12-30T08:00:00";"1899-12-30T17:30:00";"1899-12-30T08:00:00";"1899-12-30T17:30:00";"1899-12-30T08:00:00";"1899-12-30T17:30:00";"zomertijd tot 20:00";"51Â°13'08.50";"4Â°29'00.37";"158161.23189999";"212133.2401";"4.4855735420000542";"51.219089646000043"
"20";"2010-10-01T00:00:00";"";"Stadsarchief Felixpakhuis";"";"nee";"toilet";"stadseigendom";"niet betalend";"Oudeleeuwenrui";"29";"2000";"Antwerpen";"BZ";"";"OK";"man/vrouw";"ja";"ja";"ja";"1899-12-30T08:30:00";"1899-12-30T16:30:00";"1899-12-30T08:30:00";"1899-12-30T16:30:00";"1899-12-30T08:30:00";"1899-12-30T16:30:00";"1899-12-30T08:30:00";"1899-12-30T16:30:00";"1899-12-30T08:30:00";"1899-12-30T16:30:00";"";"";"";"";"";"";"";"152717.17050000001";"213039.17969999";"4.4076611110000385";"51.227284737000048"
"21";"2010-08-17T00:00:00";"";"Bibliotheek Elschot";"";"nee";"toilet";"stadseigendom";"niet betalend";"Willem Elsschotstraat";"3";"2050";"Antwerpen";"CS";"";"OK";"man/vrouw";"nee";"nvt";"nee";"";"";"1899-12-30T10:00:00";"1899-12-30T18:00:00";"1899-12-30T10:00:00";"1899-12-30T20:00:00";"1899-12-30T10:00:00";"1899-12-30T18:00:00";"";"";"";"";"";"";"";"";"";"150814.8235";"212921.25149999";"4.380428228000028";"51.226230873000077"
"23";"2010-08-09T00:00:00";"";"Bibliotheek vredegerecht";"";"nee";"toilet";"geen stadseigendom";"niet betalend";"Turnhoutsebaan";"92";"2140";"Borgerhout";"CS";"";"OK";"man/vrouw";"nee";"nvt";"nee";"";"";"1899-12-30T13:00:00";"1899-12-30T20:00:00";"1899-12-30T13:00:00";"1899-12-30T16:30:00";"1899-12-30T13:00:00";"1899-12-30T16:30:00";"1899-12-30T08:30:00";"1899-12-30T16:30:00";"";"";"";"";"gesloten tussen 12:30 en 13:00";"";"";"154408.67050000001";"211721.4246";"4.4318590040000458";"51.215429529000062"
"24";"2010-08-19T00:00:00";"";"Bibliotheek Kielpark";"";"n ee";"toilet";"stadseigendom";"niet betalend";"Wittestraat";"10";"2020";"Antwerpen";"CS";"";"OK";"man/vrouw";"nee";"nvt";"nee";"1899-12-30T13:00:00";"1899-12-30T16:30:00";"1899-12-30T13:00:00";"1899-12-30T16:30:00";"1899-12-30T13:00:00";"1899-12-30T16:30:00";"1899-12-30T13:00:00";"1899-12-30T16:30:00";"1899-12-30T13:00:00";"1899-12-30T16:30:00";"1899-12-30T09:00:00";"1899-12-30T12:00:00";"1899-12-30T09:00:00";"1899-12-30T12:00:00";"";"";"";"151221.48799999";"208858.24559999999";"4.3862349080000627";"51.18970999700008"
"29";"2010-12-20T00:00:00";"";"Zwembad Groenenhoek";"";"nee";"toilet";"stadseigendom";"niet betalend";"Orpheusplein";"1";"2600";"Berchem";"CS";"";"";"man/vrouw";"ja";"ja";"nee";"1899-12-30T07:00:00";"1899-12-30T23:00:00";"1899-12-30T07:00:00";"1899-12-30T23:00:00";"1899-12-30T07:00:00";"1899-12-30T23:00:00";"1899-12-30T07:00:00";"1899-12-30T23:00:00";"1899-12-30T07:00:00";"1899-12-30T23:00:00";"1899-12-30T08:00:00";"1899-12-30T18:00:00";"1899-12-30T08:00:00";"1899-12-30T13:00:00";"";"";"";"155133.92199999001";"209859.0324";"4.442211693000047";"51.19868341800003"
"32";"2010-08-10T00:00:00";"";"Bibliotheek Hoboken";"";"nee";"toilet";"stadseigendom";"niet betalend";"Kapelstraat";"64";"2660";"Hoboken";"CS";"";"OK";"man/vrouw";"nee";"nvt";"nee";"";"";"1899-12-30T10:00:00";"1899-12-30T20:00:00";"1899-12-30T10:00:00";"1899-12-30T20:00:00";"1899-12-30T10:00:00";"1899-12-30T20:00:00";"1899-12-30T10:00:00";"1899-12-30T17:00:00";"1899-12-30T10:00:00";"1899-12-30T17:00:00";"";"";"";"";"";"148500.99149998999";"207252.5036";"4.3473278920000666";"51.175276507000035"
"35";"2010-12-15T00:00:00";"";"Bibliotheek Kaeck";"";"nee";"toilet";"stadseigendom";"niet betalend";"Koningin Elisabethstraat";"3";"2610";"Wilrijk";"CS";"";"";"man/vrouw";"nee";"nvt";"nee";"";"";"1899-12-30T10:00:00";"1899-12-30T20:00:00";"1899-12-30T10:00:00";"1899-12-30T20:00:00";"1899-12-30T10:00:00";"1899-12-30T20:00:00";"1899-12-30T10:00:00";"1899-12-30T17:00:00";"1899-12-30T10:00:00";"1899-12-30T17:00:00";"";"";"";"";"";"151602.91099999001";"206691.24529999";"4.3916805750000663";"51.170230839000055"
"38";"2010-11-30T00:00:00";"";"CC RIX";"";"nee";"toilet";"stadseigendom";"niet betalend";"De Gryspeerstraat";"86";"2100";"Deurne";"CS";"";"";"man/vrouw";"nee";"nvt";"nee";"1899-12-30T09:00:00";"1899-12-30T23:00:00";"1899-12-30T09:00:00";"1899-12-30T23:00:00";"1899-12-30T09:00:00";"1899-12-30T23:00:00";"1899-12-30T09:00:00";"1899-12-30T23:00:00";"1899-12-30T09:00:00";"1899-12-30T23:00:00";"1899-12-30T09:00:00";"1899-12-30T21:00:00";"1899-12-30T09:00:00";"1899-12-30T21:00:00";"afhankelijk van verhuur";"";"";"155742.15999998999";"213031.1563";"4.4509644620000586";"51.227189975000044"
"39";"2010-08-10T00:00:00";"";"Bibliotheek Driehoek";"";"nee";"toilet";"stadseigendom";"niet betalend";"Driehoekstraat";"43";"2180";"Ekeren";"CS";"";"OK";"man/vrouw";"nee";"nvt";"ja";"";"";"1899-12-30T10:00:00";"1899-12-30T20:00:00";"1899-12-30T10:00:00";"1899-12-30T20:00:00";"1899-12-30T10:00:00";"1899-12-30T20:00:00";"1899-12-30T10:00:00";"1899-12-30T17:00:00";"1899-12-30T10:00:00";"1899-12-30T17:00:00";"";"";"";"";"";"153578.43799999999";"218998.6158";"4.420050783000022";"51.280844964000039"
"40";"2010-08-10T00:00:00";"";"Bibliotheek Viswater";"";"nee";"toilet";"stadseigendom";"niet betalend";"Tongerlostraat";"2";"2040";"Bezali";"CS";"";"OK";"man/vrouw";"ja";"ja";"nee";"";"";"1899-12-30T10:00:00";"1899-12-30T18:00:00";"1899-12-30T10:00:00";"1899-12-30T20:00:00";"1899-12-30T10:00:00";"1899-12-30T18:00:00";"";"";"";"";"";"";"";"";"";"147327.4565";"226366.10079999999";"4.330410736000033";"51.34707022300006"
"42";"2010-06-01T00:00:00";"";"zwembad Van Heybeeckstraat";"";"nee";"toilet";"stadseigendom";"niet betalend";"Van Heybeeckstraat";"9";"2170";"Merksem";"CS";"";"OK";"man/vrouw";"ja";"ja";"nee";"1899-12-30T08:30:00";"1899-12-30T21:30:00";"1899-12-30T08:30:00";"1899-12-30T21:30:00";"1899-12-30T08:30:00";"1899-12-30T21:30:00";"1899-12-30T08:30:00";"1899-12-30T21:30:00";"1899-12-30T08:30:00";"1899-12-30T21:30:00";"1899-12-30T08:30:00";"1899-12-30T18:00:00";"1899-12-30T08:30:00";"1899-12-30T18:00:00";"";"";"";"155575.20049998999";"215295.4602";"4.4486098190000689";"51.247543958000051"
"44";"2010-08-05T00:00:00";"";"Districtshuis Deurne";"";"nee";"toilet";"stadseigendom";"niet betalend";"Maurice Dequeeckerplein";"1";"2100";"Deurne";"DL";"";"OK";"man/vrouw";"ja";"ja";"nee";"1899-12-30T09:00:00";"1899-12-30T15:00:00";"1899-12-30T09:00:00";"1899-12-30T15:00:00";"1899-12-30T09:00:00";"1899-12-30T15:00:00";"1899-12-30T09:00:00";"1899-12-30T15:00:00";"1899-12-30T09:00:00";"1899-12-30T15:00:00";"1899-12-30T09:00:00";"1899-12-30T15:00:00";"1899-12-30T09:00:00";"1899-12-30T15:00:00";"";"";"";"156348.86050000001";"212062.48059999";"4.459632301000056";"51.218476696000039"
"45";"2010-08-10T00:00:00";"";"CC De Schelde";"";"nee";"toilet";"geen stadseigendom";"niet betalend";"De Keyserhoeve";"66";"2040";"Bezali";"CS";"";"OK";"man/vrouw";"nee";"nvt";"nee";"1899-12-30T09:00:00";"1899-12-30T16:00:00";"1899-12-30T09:00:00";"1899-12-30T16:00:00";"1899-12-30T09:00:00";"1899-12-30T16:00:00";"1899-12-30T09:00:00";"1899-12-30T16:00:00";"1899-12-30T09:00:00";"1899-12-30T16:00:00";"1899-12-30T09:00:00";"1899-12-30T16:00:00";"1899-12-30T09:00:00";"1899-12-30T16:00:00";"";"";"";"146029.6035";"227733.11360000001";"4.3117690630000425";"51.359349519000034"
"61";"2009-12-01T00:00:00";"";"Century center";"";"nee";"toilet";"geen stadseigendom";"betalend";"De Keyserlei";"58";"2018";"Antwerpen";"PRIVE";"0475/76 07 02 en 02/62 92 00";"OK";"man/vrouw";"ja";"to";"ja";"1899-12-30T09:00:00";"1899-12-30T17:00:00";"1899-12-30T09:00:00";"1899-12-30T17:00:00";"1899-12-30T09:00:00";"1899-12-30T17:00:00";"1899-12-30T09:00:00";"1899-12-30T17:00:00";"1899-12-30T09:00:00";"1899-12-30T17:00:00";"1899-12-30T09:00:00";"1899-12-30T17:00:00";"";"";"";"";"";"153518.511";"211900.91020000001";"4.4191211700000395";"51.217049071000076"
"66";"2009-12-01T00:00:00";"";"Mc Donalds";"";"nee";"toilet";"geen stadseigendom";"betalend";"Groenplaats";"17";"2000";"Antwerpen";"PRIVE";"03/233 35 34";"OK";"man/vrouw";"nee";"nvt";"ja";"1899-12-30T10:00:00";"1899-12-30T23:00:00";"1899-12-30T10:00:00";"1899-12-30T23:00:00";"1899-12-30T10:00:00";"1899-12-30T23:00:00";"1899-12-30T10:00:00";"1899-12-30T23:00:00";"1899-12-30T10:00:00";"1899-12-30T23:00:00";"1899-12-30T10:00:00";"1899-12-30T00:00:00";"1899-12-30T10:00:00";"1899-12-30T00:00:00";"";"";"";"152262.30049999";"212217.62339999";"4.4011441970000647";"51.219902305000062"
"67";"2009-12-01T00:00:00";"";"Mc Donalds";"";"nee";"toilet";"geen stadseigendom";"betalend";"De Keyserlei";"58-60";"2018";"Antwerpen";"PRIVE";"03/233 35 34";"OK";"man/vrouw";"ja";"to";"ja";"1899-12-30T10:00:00";"1899-12-30T23:00:00";"1899-12-30T10:00:00";"1899-12-30T23:00:00";"1899-12-30T10:00:00";"1899-12-30T23:00:00";"1899-12-30T10:00:00";"1899-12-30T23:00:00";"1899-12-30T10:00:00";"1899-12-30T23:00:00";"1899-12-30T10:00:00";"1899-12-30T00:00:00";"1899-12-30T10:00:00";"1899-12-30T00:00:00";"";"";"";"153518.511";"211900.91020000001";"4.4191211700000395";"51.217049071000076"
"69";"2009-12-01T00:00:00";"";"Quick";"";"nee";"toilet";"geen stadseigendom";"betalend";"De Keyserlei";"22";"2018";"Antwerpen";"PRIVE";"03/225 03 21";"OK";"man/vrouw";"ja";"to";"ja";"1899-12-30T08:00:00";"1899-12-30T00:00:00";"1899-12-30T08:00:00";"1899-12-30T00:00:00";"1899-12-30T08:00:00";"1899-12-30T00:00:00";"1899-12-30T08:00:00";"1899-12-30T00:00:00";"1899-12-30T08:00:00";"1899-12-30T00:00:00";"1899-12-30T09:00:00";"1899-12-30T00:00:00";"";"";"";"";"";"153332.44399999001";"211964.2984";"4.4164587570000435";"51.21761996400005"
"76";"2009-12-01T00:00:00";"";"Shopping stadsfeestzaal";"";"nee";"toilet";"geen stadseigendom";"betalend";"Meir";"78";"2000";"Antwerpen";"PRIVE";"0495 29 85 47 (SB)";"OK";"man/vrouw";"ja";"to";"ja";"1899-12-30T10:00:00";"1899-12-30T18:30:00";"1899-12-30T10:00:00";"1899-12-30T18:30:00";"1899-12-30T10:00:00";"1899-12-30T18:30:00";"1899-12-30T10:00:00";"1899-12-30T18:30:00";"1899-12-30T10:00:00";"1899-12-30T18:30:00";"1899-12-30T10:00:00";"1899-12-30T18:30:00";"";"";"";"";"";"152963.70699999999";"211939.10440000001";"4.4111810740000692";"51.217395578000037"
"77";"2010-03-01T00:00:00";"";"Bourla schouwburg cafÃ©";"";"nee";"toilet";"geen stadseigendom";"betalend";"Graanmarkt";"7";"2000";"Antwerpen";"PRIVE";"";"OK";"man/vrouw";"ja";"to";"ja";"1899-12-30T11:00:00";"1899-12-30T00:00:00";"1899-12-30T11:00:00";"1899-12-30T00:00:00";"1899-12-30T11:00:00";"1899-12-30T00:00:00";"1899-12-30T11:00:00";"1899-12-30T00:00:00";"1899-12-30T11:00:00";"1899-12-30T00:00:00";"1899-12-30T11:00:00";"1899-12-30T00:00:00";"";"";"";"";"";"152695.58649998999";"211781.65749998999";"4.4073424650000561";"51.21598173700005"
"78";"2009-12-01T00:00:00";"";"GB shopping (beneden)";"";"nee";"toilet";"geen stadseigendom";"betalend";"Beddenstraat";"2";"2000";"Antwerpen";"PRIVE";"0475 36 66 17 (K) - 03 231 25 01 (DV)";"OK";"man/vrouw";"ja";"to";"nee";"1899-12-30T10:00:00";"1899-12-30T18:00:00";"1899-12-30T10:00:00";"1899-12-30T18:00:00";"1899-12-30T10:00:00";"1899-12-30T18:00:00";"1899-12-30T10:00:00";"1899-12-30T18:00:00";"1899-12-30T10:00:00";"1899-12-30T18:00:00";"1899-12-30T10:00:00";"1899-12-30T18:00:00";"";"";"";"";"";"152376.93150000001";"212088.30099999";"4.4027840290000313";"51.218739424000034"
"79";"2009-12-01T00:00:00";"";"GB shopping (boven)";"";"nee";"toilet";"geen stadseigendom";"betalend";"Beddenstraat";"2";"2000";"Antwerpen";"PRIVE";"03/231 25 02";"OK";"man/vrouw";"ja";"to";"ja";"1899-12-30T10:00:00";"1899-12-30T18:00:00";"1899-12-30T10:00:00";"1899-12-30T18:00:00";"1899-12-30T10:00:00";"1899-12-30T18:00:00";"1899-12-30T10:00:00";"1899-12-30T18:00:00";"1899-12-30T10:00:00";"1899-12-30T18:00:00";"1899-12-30T10:00:00";"1899-12-30T18:00:00";"";"";"";"";"";"152376.93150000001";"212088.30099999";"4.4027840290000313";"51.218739424000034"
"80";"2009-09-01T00:00:00";"";"Steenplein";"";"nee";"toilet";"geen stadseigendom";"betalend";"Steenplein";"/";"2000";"Antwerpen";"PRIVE";"";"OK";"man/vrouw";"ja";"to";"nee";"1899-12-30T10:00:00";"1899-12-30T17:00:00";"1899-12-30T10:00:00";"1899-12-30T17:00:00";"1899-12-30T10:00:00";"1899-12-30T17:00:00";"1899-12-30T10:00:00";"1899-12-30T17:00:00";"1899-12-30T10:00:00";"1899-12-30T17:00:00";"1899-12-30T10:00:00";"1899-12-30T17:00:00";"1899-12-30T10:00:00";"1899-12-30T17:00:00";"van 01/11  tot 01/04 enkel op vr, za en zo";"51Â°13'16.75";"4Â°23'46.93";"151927.03549998999";"212376.14309999999";"4.396346435000055";"51.221328412000048"
"81";"2009-12-01T00:00:00";"";"Centraal station";"";"nee";"toilet";"geen stadseigendom";"betalend";"Koningin Astridplein";"27";"2018";"Antwerpen";"PRIVE";"03 204 25 80 (PvA) - 03 204 21 57 (GS)";"OK";"man/vrouw";"ja";"to";"ja";"1899-12-30T07:30:00";"1899-12-30T20:00:00";"1899-12-30T07:30:00";"1899-12-30T20:00:00";"1899-12-30T07:30:00";"1899-12-30T20:00:00";"1899-12-30T07:30:00";"1899-12-30T20:00:00";"1899-12-30T07:30:00";"1899-12-30T20:00:00";"1899-12-30T07:30:00";"1899-12-30T20:00:00";"1899-12-30T07:30:00";"1899-12-30T20:00:00";"nachttoiletten";"";"";"153660.48099998999";"211916.30009999001";"4.4211532200000647";"51.217186497000057"
"82";"2009-12-01T00:00:00";"";"Centraal station";"";"nee";"toilet";"geen stadseigendom";"betalend";"Lange Kievitstraat";"/";"2018";"Antwerpen";"PRIVE";"03 204 25 80 (PvA) - 03 204 21 57 (GS)";"OK";"man/vrouw";"ja";"to";"ja";"1899-12-30T07:30:00";"1899-12-30T20:00:00";"1899-12-30T07:30:00";"1899-12-30T20:00:00";"1899-12-30T07:30:00";"1899-12-30T20:00:00";"1899-12-30T07:30:00";"1899-12-30T20:00:00";"1899-12-30T07:30:00";"1899-12-30T20:00:00";"1899-12-30T07:30:00";"1899-12-30T20:00:00";"1899-12-30T07:30:00";"1899-12-30T20:00:00";"sleutel halen bij aanpalende bar 'Miate' +nachttoiletten";"51Â°12'48.62";"4Â°25'18.49";"153668.00869998999";"211595.1226";"4.4212576280000349";"51.214299572000073"
"83";"2009-12-01T00:00:00";"";"Stadhuis";"";"nee";"toilet";"stadseigendom";"niet betalend";"Grote Markt";"1";"2000";"Antwerpen";"BZ";"";"OK";"man/vrouw";"ja";"ja";"ja";"1899-12-30T08:00:00";"1899-12-30T17:30:00";"1899-12-30T08:00:00";"1899-12-30T17:30:00";"1899-12-30T08:00:00";"1899-12-30T17:30:00";"1899-12-30T08:00:00";"1899-12-30T17:30:00";"1899-12-30T08:00:00";"1899-12-30T17:30:00";"";"";"";"";"";"";"";"152123.728";"212373.97010000001";"4.3991617650000308";"51.221308159000046"
"84";"2010-03-01T00:00:00";"";"Bibliotheek Permeke blok G";"";"nee";"toilet";"stadseigendom";"niet betalend";"De Coninckplein";"26";"2060";"Antwerpen";"CS";"";"OK";"man/vrouw";"ja";"ja";"ja";"1899-12-30T10:00:00";"1899-12-30T20:00:00";"1899-12-30T10:00:00";"1899-12-30T20:00:00";"1899-12-30T10:00:00";"1899-12-30T20:00:00";"1899-12-30T10:00:00";"1899-12-30T20:00:00";"1899-12-30T10:00:00";"1899-12-30T17:00:00";"1899-12-30T10:00:00";"1899-12-30T17:00:00";"1899-12-30T10:00:00";"1899-12-30T14:00:00";"";"";"";"153690.152";"212438.3829";"4.421583321000071";"51.221878992000029"
"85";"2009-12-01T00:00:00";"";"Bibliotheek: Erfgoedbibliotheek";"";"nee";"toilet";"stadseigendom";"niet betalend";"Korte Nieuwstraat";"/";"2000";"Antwerpen";"CS";"";"OK";"man/vrouw";"ja";"ja";"nee";"1899-12-30T09:00:00";"1899-12-30T18:00:00";"1899-12-30T09:00:00";"1899-12-30T18:00:00";"1899-12-30T09:00:00";"1899-12-30T20:00:00";"1899-12-30T09:00:00";"1899-12-30T18:00:00";"1899-12-30T09:00:00";"1899-12-30T17:00:00";"1899-12-30T09:00:00";"1899-12-30T13:00:00";"";"";"tussen 15/09 en 15/06 enkel ma-vr tot 17:00";" 51Â°13'13.45";"4Â°24'14.21";"152453.73799999";"212311.8248";"4.4038849010000263";"51.220748213000036"
"86";"2009-12-01T00:00:00";"";"CC  Sint andries";"";"nee";"toilet";"stadseigendom";"niet betalend";"Sint-Andriesplaats";"24";"2000";"Antwerpen";"CS";"";"OK";"man/vrouw";"ja";"ja";"nee";"1899-12-30T09:00:00";"1899-12-30T23:00:00";"1899-12-30T09:00:00";"1899-12-30T23:00:00";"1899-12-30T09:00:00";"1899-12-30T23:00:00";"1899-12-30T09:00:00";"1899-12-30T23:00:00";"1899-12-30T09:00:00";"1899-12-30T23:00:00";"1899-12-30T09:00:00";"1899-12-30T19:00:00";"1899-12-30T09:00:00";"1899-12-30T19:00:00";"";"";"";"151895.55399998999";"211634.60489998999";"4.395891764000055";"51.214663274000031"
"87";"2009-12-01T00:00:00";"";"Districtshuis Berchem";"";"nee";"toilet";"stadseigendom";"niet betalend";"Grotesteenweg";"150";"2600";"Berchem";"DL";"";"OK";"man/vrouw";"ja";"ja";"ja";"1899-12-30T09:00:00";"1899-12-30T15:00:00";"1899-12-30T09:00:00";"1899-12-30T15:00:00";"1899-12-30T09:00:00";"1899-12-30T15:00:00";"1899-12-30T09:00:00";"1899-12-30T15:00:00";"1899-12-30T09:00:00";"1899-12-30T15:00:00";"";"";"";"";"";"";"";"153557.43249999001";"209475.58309999001";"4.419653826000058";"51.195248903000049"
"88";"2009-09-01T00:00:00";"";"Bibliotheek  De Poort";"";"nee";"toilet";"stadseigendom";"niet betalend";"Willem Van Laarstraat";"15-17";"2600";"Berchem";"CS";"";"OK";"man/vrouw";"nee";"ja";"ja";"";"";"1899-12-30T10:00:00";"1899-12-30T20:00:00";"1899-12-30T10:00:00";"1899-12-30T20:00:00";"1899-12-30T10:00:00";"1899-12-30T20:00:00";"1899-12-30T10:00:00";"1899-12-30T17:00:00";"1899-12-30T10:00:00";"1899-12-30T17:00:00";"";"";"";"";"";"153627.842";"209485.35009999";"4.4206611640000233";"51.195336244000032"
"89";"2009-12-01T00:00:00";"";"CC Berchem";"";"nee";"toilet";"stadseigendom";"niet betalend";"Driekoningenstraat";"126";"2600";"Berchem";"CS";"";"OK";"man/vrouw";"ja";"ja";"nee";"";"";"1899-12-30T09:00:00";"1899-12-30T17:00:00";"1899-12-30T09:00:00";"1899-12-30T17:00:00";"1899-12-30T09:00:00";"1899-12-30T17:00:00";"1899-12-30T09:00:00";"1899-12-30T17:00:00";"";"";"";"";"tijdens voorstellingen tot 23u";"";"";"153752.21549999001";"209670.20549999";"4.4224423400000319";"51.196996999000078"
"90";"2009-12-01T00:00:00";"";"Sportcentrum (Zwembad) Plantin en Moretus";"";"nee";"toilet";"stadseigendom";"niet betalend";"Plantin En Moretuslei";"343";"2140";"Borgerhout";"CS";"";"OK";"man/vrouw";"ja";"ja";"ja";"1899-12-30T08:00:00";"1899-12-30T23:30:00";"1899-12-30T08:00:00";"1899-12-30T23:30:00";"1899-12-30T08:00:00";"1899-12-30T23:30:00";"1899-12-30T08:00:00";"1899-12-30T23:30:00";"1899-12-30T08:00:00";"1899-12-30T23:30:00";"1899-12-30T08:00:00";"1899-12-30T23:30:00";"1899-12-30T08:00:00";"1899-12-30T23:30:00";"";"";"";"154934.25999999";"211049.7274";"4.439371728000026";"51.209387695000032"
"91";"2010-11-05T00:00:00";"";"Districtshuis Wilrijk - Agoragebouw";"";"nee";"toilet";"stadseigendom";"niet betalend";"Bist";"1";"2610";"Wilrijk";"DL";"";"";"man/vrouw";"ja";"ja";"ja";"1899-12-30T09:00:00";"1899-12-30T15:00:00";"1899-12-30T09:00:00";"1899-12-30T15:00:00";"1899-12-30T09:00:00";"1899-12-30T15:00:00";"1899-12-30T09:00:00";"1899-12-30T19:00:00";"1899-12-30T09:00:00";"1899-12-30T15:00:00";"";"";"";"";"gesloten tussen 15:00 en 17:00.";"";"";"151785.228";"206595.00899999999";"4.3942868020000674";"51.169365249000066"
"92";"2010-08-12T00:00:00";"";"Districtshuis Merksem";"";"nee";"toilet";"stadseigendom";"niet betalend";"Burgemeester Jozef Nolfplein";"1";"2170";"Merksem";"DL";"";"OK";"man/vrouw";"ja";"ja";"ja";"1899-12-30T09:00:00";"1899-12-30T15:00:00";"1899-12-30T09:00:00";"1899-12-30T15:00:00";"1899-12-30T09:00:00";"1899-12-30T15:00:00";"1899-12-30T09:00:00";"1899-12-30T19:00:00";"1899-12-30T09:00:00";"1899-12-30T15:00:00";"";"";"";"";"gesloten tussen 15:00 en 17:00.";"";"";"155089.28899999001";"214686.10399999001";"4.441642133000073";"51.242071444000032"
"96";"2010-09-01T00:00:00";"";"Districtshuis BeZaLi";"";"nee";"toilet";"stadseigendom";"niet betalend";"Antwerpsebaan";"140";"2040";"Bezali";"DL";"";"OK";"man/vrouw";"ja";"ja";"ja";"1899-12-30T09:00:00";"1899-12-30T15:00:00";"1899-12-30T09:00:00";"1899-12-30T15:00:00";"1899-12-30T09:00:00";"1899-12-30T15:00:00";"1899-12-30T09:00:00";"1899-12-30T19:00:00";"1899-12-30T09:00:00";"1899-12-30T15:00:00";"";"";"";"";"gesloten tussen 15:00 en 17:00";"";"";"146723.87699999";"226048.74599999";"4.3217508880000537";"51.344214835000059"
"101";"2010-03-01T00:00:00";"";"Begraafplaats St_Fredegandus";"";"ja";"toilet";"stadseigendom";"niet betalend";"Lakborslei";"42-44";"2100";"Deurne";"SB";"0479 88 05 13 (WW)";"OK";"man/vrouw";"nee";"nvt";"nee";"1899-12-30T08:00:00";"1899-12-30T17:30:00";"1899-12-30T08:00:00";"1899-12-30T17:30:00";"1899-12-30T08:00:00";"1899-12-30T17:30:00";"1899-12-30T08:00:00";"1899-12-30T17:30:00";"1899-12-30T08:00:00";"1899-12-30T17:30:00";"1899-12-30T08:00:00";"1899-12-30T17:30:00";"1899-12-30T08:00:00";"1899-12-30T17:30:00";"zomertijd tot 20:00";"";"";"156005.66849998999";"212462.4184";"4.4547270760000401";"51.222075221000068"
"102";"2010-03-01T00:00:00";"";"Begraafplaats Ekeren";"bezoekerssanitair";"ja";"toilet";"stadseigendom";"niet betalend";"Driehoekstraat";"237";"2180";"Ekeren";"SB";"";"OK";"man/vrouw";"ja";"ja";"nee";"1899-12-30T08:00:00";"1899-12-30T17:30:00";"1899-12-30T08:00:00";"1899-12-30T17:30:00";"1899-12-30T08:00:00";"1899-12-30T17:30:00";"1899-12-30T08:00:00";"1899-12-30T17:30:00";"1899-12-30T08:00:00";"1899-12-30T17:30:00";"1899-12-30T08:00:00";"1899-12-30T17:30:00";"1899-12-30T08:00:00";"1899-12-30T17:30:00";"zomertijd tot 20:00";"51Â°17'15.05";"4Â°25'31.75";"153913.09799998999";"219770.57499999";"4.4248555860000351";"51.287781235000068"
"103";"2010-03-01T00:00:00";"";"Begraafplaats Silsburg - Borgerhout";"bezoekerssanitair";"ja";"toilet";"stadseigendom";"niet betalend";"Herentalsebaan";"576";"2100";"Deurne";"SB";"";"OK";"man/vrouw";"nee";"nvt";"nee";"1899-12-30T08:00:00";"1899-12-30T17:30:00";"1899-12-30T08:00:00";"1899-12-30T17:30:00";"1899-12-30T08:00:00";"1899-12-30T17:30:00";"1899-12-30T08:00:00";"1899-12-30T17:30:00";"1899-12-30T08:00:00";"1899-12-30T17:30:00";"1899-12-30T08:00:00";"1899-12-30T17:30:00";"1899-12-30T08:00:00";"1899-12-30T17:30:00";"zomertijd tot 20:00";"";"";"157550.52099999";"210419.52600000001";"4.4767964910000728";"51.203694470000073"
"105";"2010-03-01T00:00:00";"";"Begraafplaats Wilrijk";"";"ja";"toilet";"stadseigendom";"niet betalend";"Dokter Donnyplein";"/";"2610";"Wilrijk";"SB";"03 827 27 96 (JDR) - 0479 88 05 13 (WW)";"OK";"man/vrouw";"ja";"ja";"nee";"1899-12-30T08:00:00";"1899-12-30T17:30:00";"1899-12-30T08:00:00";"1899-12-30T17:30:00";"1899-12-30T08:00:00";"1899-12-30T17:30:00";"1899-12-30T08:00:00";"1899-12-30T17:30:00";"1899-12-30T08:00:00";"1899-12-30T17:30:00";"1899-12-30T08:00:00";"1899-12-30T17:30:00";"1899-12-30T08:00:00";"1899-12-30T17:30:00";"zomertijd tot 20:00";"51Â°10'4.04";"4Â°24'13.40";"152333.06400000001";"206317.261";"4.4021176320000563";"51.166866651000078"
"106";"2010-03-01T00:00:00";"";"Begraafplaats Merksem - Zwaantjeslei";"";"ja";"toilet";"stadseigendom";"niet betalend";"Zwaantjeslei";"/";"2170";"Merksem";"SB";"03 324 17 22 (HDL) - 0479 88 05 13 (WW)";"OK";"man/vrouw";"ja";"ja";"nee";"1899-12-30T08:00:00";"1899-12-30T17:30:00";"1899-12-30T08:00:00";"1899-12-30T17:30:00";"1899-12-30T08:00:00";"1899-12-30T17:30:00";"1899-12-30T08:00:00";"1899-12-30T17:30:00";"1899-12-30T08:00:00";"1899-12-30T17:30:00";"1899-12-30T08:00:00";"1899-12-30T17:30:00";"1899-12-30T08:00:00";"1899-12-30T17:30:00";"zomertijd tot 20:00";"51Â°15'43.51";"4Â°27'6.62";"155808.4785";"216912.9001";"4.4519770660000404";"51.262079607000032"
"31";"2010-03-01T00:00:00";"";"Museum Middelheim Braempaviljoen";"openbaar sanitair aan patrimonium";"nee";"toilet";"stadseigendom";"niet betalend";"Middelheimlaan";"61";"2020";"Antwerpen";"CS";"";"OK";"man/vrouw";"nee";"nvt";"ja";"";"";"1899-12-30T10:00:00";"1899-12-30T17:00:00";"1899-12-30T10:00:00";"1899-12-30T17:00:00";"1899-12-30T10:00:00";"1899-12-30T17:00:00";"1899-12-30T10:00:00";"1899-12-30T17:00:00";"1899-12-30T10:00:00";"1899-12-30T17:00:00";"1899-12-30T10:00:00";"1899-12-30T17:00:00";"openingsuren museum op http://www.middelheimmuseum.be/";"";"";"153121.08809999999";"207635.63740000001";"4.4133954550000567";"51.178713117000029"
"110";"2010-11-15T00:00:00";"";"DC Ter Welen";"";"nee";"toilet";"stadseigendom";"niet betalend";"Willem Elsschotstraat";"5";"2050";"Antwerpen";"OCMW";"";"";"man/vrouw";"ja";"ja";"nee";"1899-12-30T09:00:00";"1899-12-30T17:00:00";"1899-12-30T09:00:00";"1899-12-30T17:00:00";"1899-12-30T09:00:00";"1899-12-30T17:00:00";"1899-12-30T09:00:00";"1899-12-30T17:00:00";"1899-12-30T09:00:00";"1899-12-30T17:00:00";"";"";"";"";"";"";"";"150903.34719999001";"212765.37689998999";"4.3816950120000229";"51.224829667000051"
"113";"2010-06-01T00:00:00";"";"Den Bell";"Toilet achter balie hoofdingang";"nee";"toilet";"geen stadseigendom";"niet betalend";"Francis Wellesplein";"1";"2018";"Antwerpen";"PO";"03/338 46 63";"OK";"man/vrouw";"ja";"ja";"nee";"1899-12-30T07:00:00";"1899-12-30T19:00:00";"1899-12-30T07:00:00";"1899-12-30T19:00:00";"1899-12-30T07:00:00";"1899-12-30T19:00:00";"1899-12-30T07:00:00";"1899-12-30T19:00:00";"1899-12-30T07:00:00";"1899-12-30T19:00:00";"";"";"";"";"";"";"";"152078.01619999";"210640.56719999999";"4.3984971070000256";"51.205727775000071"
"116";"2009-12-01T00:00:00";"";"Putten van Ekeren";"Tijdelijke damestoiletten";"ja";"toilet";"stadseigendom";"niet betalend";"Ekersedijk";"/";"2180";"Ekeren";"SW";"";"OK";"man/vrouw";"nee";"nvt";"nee";"";"";"";"";"";"";"";"";"";"";"";"";"";"";"";"";"";"152462.5913";"219211.60500000001";"4.4040602840000247";"51.282765371000039"
"94";"2010-03-01T00:00:00";"";"Districtshuis Ekeren - Villa Geniets";"";"nee";"toilet";"stadseigendom";"niet betalend";"Veltwijcklaan";"31";"2180";"Ekeren";"DL";"";"OK";"man/vrouw";"ja";"ja";"nee";"1899-12-30T09:00:00";"1899-12-30T15:00:00";"1899-12-30T09:00:00";"1899-12-30T15:00:00";"1899-12-30T09:00:00";"1899-12-30T15:00:00";"1899-12-30T09:00:00";"1899-12-30T19:00:00";"1899-12-30T09:00:00";"1899-12-30T15:00:00";"";"";"";"";"gesloten tussen 15:00 en 17:00.";"";"";"153881.4663";"218715.28460000001";"4.4243905870000617";"51.278296323000063"
"118";"2010-03-01T00:00:00";"";"Fort van Merksem";"bezoekerssanitair";"ja";"toilet";"stadseigendom";"niet betalend";"Fortsteenweg";"/";"2170";"Merksem";"CS";"";"";"man/vrouw";"ja";"ja";"nee";"1899-12-30T07:00:00";"1899-12-30T23:00:00";"1899-12-30T07:00:00";"1899-12-30T23:00:00";"1899-12-30T07:00:00";"1899-12-30T23:00:00";"1899-12-30T07:00:00";"1899-12-30T23:00:00";"1899-12-30T07:00:00";"1899-12-30T23:00:00";"";"";"";"";"";"51Â°15'49.89";"4Â°27'29.21";"156247.46549999001";"217119.08769998999";"4.4582695790000457";"51.263928213000042"
"121";"2010-03-01T00:00:00";"";"Paleis op de Meir";"";"nee";"toilet";"geen stadseigendom";"betalend";"Meir";"50";"2000";"Antwerpen";"PRIVE";"";"OK";"man/vrouw";"ja";"to";"nee";"1899-12-30T09:00:00";"1899-12-30T21:00:00";"1899-12-30T09:00:00";"1899-12-30T21:00:00";"1899-12-30T09:00:00";"1899-12-30T21:00:00";"1899-12-30T09:00:00";"1899-12-30T21:00:00";"1899-12-30T09:00:00";"1899-12-30T21:00:00";"";"";"";"";"";"";"";"152777.44769999999";"212002.54180000001";"4.4085157920000597";"51.217966735000061"
"120";"2010-03-01T00:00:00";"";"Sportcentrum K.Astrid";"openbaar sanitair";"nee";"toilet";"stadseigendom";"niet betalend";"Middelheimlaan";"50-52";"2020";"Antwerpen";"CS";"";"OK";"man/vrouw";"nee";"nvt";"nee";"1899-12-30T08:00:00";"1899-12-30T16:00:00";"1899-12-30T08:00:00";"1899-12-30T16:00:00";"1899-12-30T08:00:00";"1899-12-30T16:00:00";"1899-12-30T08:00:00";"1899-12-30T16:00:00";"1899-12-30T08:00:00";"1899-12-30T16:00:00";"1899-12-30T09:00:00";"1899-12-30T17:30:00";"1899-12-30T09:00:00";"1899-12-30T17:30:00";"van 1/4 tot 31/08 op di en do tot 20:00";"";"";"153097.05059999999";"208260.82409998999";"4.4130571990000362";"51.184332761000064"
"93";"2010-12-20T00:00:00";"";"Administratief Centrum Hoboken";"";"nee";"toilet";"stadseigendom";"niet betalend";"Marneflaan";"/";"2660";"Hoboken";"DL";"";"";"man/vrouw";"ja";"to";"nee";"1899-12-30T09:00:00";"1899-12-30T15:00:00";"1899-12-30T09:00:00";"1899-12-30T15:00:00";"1899-12-30T09:00:00";"1899-12-30T15:00:00";"1899-12-30T09:00:00";"1899-12-30T15:00:00";"1899-12-30T09:00:00";"1899-12-30T15:00:00";"";"";"";"";"";"";"";"148967.11379999001";"206815.53979998999";"4.3539942520000636";"51.171349780000071"
"125";"2010-03-01T00:00:00";"";"Park: Hof de  Bist";"";"ja";"toilet";"stadseigendom";"niet betalend";"Veltwijcklaan";"252";"2180";"Ekeren";"SW";"";"OK";"man/vrouw";"ja";"ja";"nee";"";"";"";"";"";"";"";"";"";"";"";"";"";"";"";"";"";"155045.85779998999";"219447.0436";"4.4410877990000586";"51.284864302000074"
"122";"2010-03-01T00:00:00";"";"Park: Merksem";"";"ja";"toilet";"stadseigendom";"niet betalend";"Speelpleinstraat";"/";"2170";"Merksem";"SW";"";"OK";"man/vrouw";"nee";"nvt";"nee";"1899-12-30T09:00:00";"1899-12-30T21:00:00";"1899-12-30T09:00:00";"1899-12-30T21:00:00";"1899-12-30T09:00:00";"1899-12-30T21:00:00";"1899-12-30T09:00:00";"1899-12-30T21:00:00";"1899-12-30T09:00:00";"1899-12-30T21:00:00";"1899-12-30T09:00:00";"1899-12-30T18:00:00";"1899-12-30T09:00:00";"1899-12-30T18:00:00";"";"51Â°14'56.62";"4Â°26'49.98";"155425.01879999001";"215681.23620000001";"4.4464648740000712";"51.251012880000076"
"123";"2010-03-01T00:00:00";"";"Park: Sorghvliedt";"";"nee";"toilet";"geen stadseigendom";"betalend";"Marneflaan";"3";"2660";"Hoboken";"PRIVE";"0478/611.457";"OK";"man/vrouw";"ja";"to";"nee";"1899-12-30T09:00:00";"1899-12-30T21:00:00";"1899-12-30T09:00:00";"1899-12-30T21:00:00";"1899-12-30T09:00:00";"1899-12-30T21:00:00";"1899-12-30T09:00:00";"1899-12-30T21:00:00";"1899-12-30T09:00:00";"1899-12-30T21:00:00";"";"";"";"";"";"";"";"148809.0656";"206803.85599998999";"4.3517344980000416";"51.171244480000041"
"124";"2009-09-01T00:00:00";"";"Mc donalds";"";"nee";"toilet";"geen stadseigendom";"betalend";"Teniersplaats";"4";"2000";"Antwerpen";"PRIVE";"03/233 35 34";"OK";"man/vrouw";"ja";"to";"ja";"1899-12-30T10:00:00";"1899-12-30T23:00:00";"1899-12-30T10:00:00";"1899-12-30T23:00:00";"1899-12-30T10:00:00";"1899-12-30T23:00:00";"1899-12-30T10:00:00";"1899-12-30T23:00:00";"1899-12-30T10:00:00";"1899-12-30T23:00:00";"1899-12-30T10:00:00";"1899-12-30T00:00:00";"1899-12-30T10:00:00";"1899-12-30T00:00:00";"";"";"";"153196.69139999";"211995.06069998999";"4.4145161050000752";"51.217897257000061"
"305";"2010-08-12T00:00:00";"";"Bibliotheek Groenenhoek";"";"nee";"toilet";"stadseigendom";"niet betalend";"Turkooisstraat";"18";"2600";"Berchem";"CS";"";"OK";"man/vrouw";"nee";"nvt";"nee";"";"";"1899-12-30T10:00:00";"1899-12-30T18:00:00";"1899-12-30T10:00:00";"1899-12-30T20:00:00";"1899-12-30T10:00:00";"1899-12-30T18:00:00";"";"";"";"";"";"";"";"";"";"155062.46359999999";"209505.07669998999";"4.4411843480000357";"51.195502538000028"
"312";"2010-11-24T00:00:00";"";"Noordersingel 3 - Lokale politie ??";"";"nee";"toilet";"stadseigendom";"niet betalend";"Noordersingel";"3";"2140";"Borgerhout";"PO";"";"";"man/vrouw";"nee";"nvt";"nee";"1899-12-30T08:00:00";"1899-12-30T17:00:00";"1899-12-30T08:00:00";"1899-12-30T17:00:00";"1899-12-30T08:00:00";"1899-12-30T17:00:00";"1899-12-30T08:00:00";"1899-12-30T17:00:00";"1899-12-30T08:00:00";"1899-12-30T17:00:00";"";"";"";"";"";"";"";"155410.56769999";"212729.55489999999";"4.4462130660000412";"51.224482325000054"
"310";"2010-10-25T00:00:00";"";"Bibliotheek Van Heybeeckstraat";"";"nee";"toilet";"stadseigendom";"niet betalend";"Van Heybeeckstraat";"28A";"2170";"Merksem";"CS";"";"";"man/vrouw";"ja";"nee";"ja";"";"";"1899-12-30T10:00:00";"1899-12-30T20:00:00";"1899-12-30T10:00:00";"1899-12-30T20:00:00";"1899-12-30T10:00:00";"1899-12-30T20:00:00";"1899-12-30T10:00:00";"1899-12-30T17:00:00";"1899-12-30T10:00:00";"1899-12-30T17:00:00";"";"";"";"";"";"155614.03450000001";"215242.9283";"4.4491651520000346";"51.247071403000064"
"313";"2010-10-27T00:00:00";"";"Shopping Den Tir";"";"nee";"toilet";"geen stadseigendom";"betalend";"Sint-Bernardsesteenweg";"312-320";"2020";"Antwerpen";"Prive";"03/224 89 91";"OK";"man/vrouw";"ja";"to";"ja";"1899-12-30T09:00:00";"1899-12-30T19:00:00";"1899-12-30T09:00:00";"1899-12-30T19:00:00";"1899-12-30T09:00:00";"1899-12-30T19:00:00";"1899-12-30T09:00:00";"1899-12-30T19:00:00";"1899-12-30T09:00:00";"1899-12-30T19:00:00";"1899-12-30T09:00:00";"1899-12-30T19:00:00";"1899-12-30T09:00:00";"1899-12-30T19:00:00";"volgens http://dentirshopping.be/openingstijden/ ma-za 10:00-18:00, vr tot 19:00";"";"";"150611.29550000001";"208962.32089999999";"4.3775070810000329";"51.190646542000081"
"315";"2010-11-25T00:00:00";"";"Zwembad De Schinde";"";"nee";"toilet";"stadseigendom";"niet betalend";"Oorderseweg";"83";"2180";"Ekeren";"CS";"";"";"man/vrouw";"ja";"to";"nee";"1899-12-30T08:30:00";"1899-12-30T22:00:00";"1899-12-30T08:30:00";"1899-12-30T22:00:00";"1899-12-30T08:30:00";"1899-12-30T22:00:00";"1899-12-30T08:30:00";"1899-12-30T22:00:00";"1899-12-30T08:30:00";"1899-12-30T22:00:00";"1899-12-30T08:30:00";"1899-12-30T18:00:00";"1899-12-30T08:30:00";"1899-12-30T13:00:00";"";"";"";"153119.55869999999";"218836.89469998999";"4.4134728180000593";"51.279394124000078"
"304";"2010-03-01T00:00:00";"";"Middelheim Museum (portierswoning laag)";"openbaar sanitair";"ja";"toilet";"stadseigendom";"niet betalend";"Middelheimlaan";"61";"2020";"Antwerpen";"CS";"";"OK";"man/vrouw";"ja";"ja";"ja";"";"";"1899-12-30T10:00:00";"1899-12-30T17:00:00";"1899-12-30T10:00:00";"1899-12-30T17:00:00";"1899-12-30T10:00:00";"1899-12-30T17:00:00";"1899-12-30T10:00:00";"1899-12-30T17:00:00";"1899-12-30T10:00:00";"1899-12-30T17:00:00";"1899-12-30T10:00:00";"1899-12-30T17:00:00";"openingsuren museum op http://www.middelheimmuseum.be/";"";"";"153136.08129999001";"207887.7965";"4.4136121040000376";"51.180979575000038"
"307";"2010-08-27T00:00:00";"";"Middelheim Museum (naast botanische tuin hoog)";"";"ja";"toilet";"stadseigendom";"niet betalend";"Middelheimlaan";"/";"2020";"Antwerpen";"CS";"";"OK";"man/vrouw";"nee";"nvt";"nee";"1899-12-30T09:00:00";"1899-12-30T18:00:00";"1899-12-30T09:00:00";"1899-12-30T18:00:00";"1899-12-30T09:00:00";"1899-12-30T18:00:00";"1899-12-30T09:00:00";"1899-12-30T18:00:00";"1899-12-30T09:00:00";"1899-12-30T18:00:00";"1899-12-30T09:00:00";"1899-12-30T18:00:00";"1899-12-30T09:00:00";"1899-12-30T18:00:00";"enkel tussen 01/03 tot 01/11 volgens http://www.middelheimmuseum.be/";"51Â°10'53.65";"4Â°24'40.59";"152975.24470000001";"207950.49549999001";"4.4113125010000545";"51.181544023000072"
"239";"2009-12-01T00:00:00";"";"Oudstrijdersstraat";"tegen gebouw";"ja";"urinoir";"stadseigendom";"niet betalend";"Oudstrijdersstraat";"/";"2140";"Borgerhout";"SW";"";"nv";"man";"nee";"nvt";"nee";"";"";"";"";"";"";"";"";"";"";"";"";"";"";"";"51Â°12'42.14";"4Â°26'18.67";"154872.16409999001";"211304.96969999999";"4.4384866440000224";"51.211682460000077"
"224";"2009-12-01T00:00:00";"";"Sint-Norbertusstraat";"tegen kerk";"ja";"urinoir";"geen stadseigendom";"niet betalend";"Sint-Norbertusstraat";"/";"2060";"Antwerpen";"SW";"";"nv";"man";"nee";"nvt";"nee";"";"";"";"";"";"";"";"";"";"";"";"";"";"";"";"51Â°13'34.34";"4Â°25'24.47";"153817.8254";"212923.84090000001";"4.4234160220000263";"51.226241625000057"
"210";"2009-12-01T00:00:00";"";"Korte Altaarstraat";"tegen kerk";"ja";"urinoir";"geen stadseigendom";"niet betalend";"Korte Altaarstraat";"/";"2018";"Antwerpen";"SW";"";"nv";"man";"nee";"nvt";"nee";"";"";"";"";"";"";"";"";"";"";"";"";"";"";"";"51Â°12'25.36";"4Â°25'51.47";"154346.50760000001";"210779.85019999999";"4.4309578310000575";"51.206966737000073"
"211";"2009-12-01T00:00:00";"";"Draakplaats";"";"ja";"urinoir";"stadseigendom";"niet betalend";"Draakplaats";"/";"2600";"Berchem";"SW";"";"nv";"man";"nee";"nvt";"nee";"";"";"";"";"";"";"";"";"";"";"";"";"";"";"";"51Â°12'20.59";"4Â°25'54.97";"154402.1985";"210640.36589998999";"4.4317529850000597";"51.205712559000062"
"226";"2009-12-01T00:00:00";"";"Lange Lobroekstraat";"";"ja";"urinoir";"stadseigendom";"niet betalend";"Lange Lobroekstraat";"/";"2060";"Antwerpen";"SW";"";"nv";"man";"nee";"nvt";"nee";"";"";"";"";"";"";"";"";"";"";"";"";"";"";"";"";"";"154640.0036";"213131.99969999";"4.435188164000067";"51.228106480000065"
"213";"2009-12-01T00:00:00";"";"Brialmontlei";"tegen kerk";"ja";"urinoir";"geen stadseigendom";"niet betalend";"Brialmontlei";"/";"2018";"Antwerpen";"SW";"";"nv";"man";"nee";"nvt";"nee";"";"";"";"";"";"";"";"";"";"";"";"";"";"";"";"51Â°12'35.30";"4Â°25'8.23";"153494.22969999001";"211097.48869999";"4.4187657100000592";"51.209827731000075"
"215";"2009-12-01T00:00:00";"";"Park: Stadspark";"";"ja";"urinoir";"stadseigendom";"niet betalend";"Rubenslei";"/";"2000";"Antwerpen";"SW";"";"nv";"man";"nee";"nvt";"nee";"";"";"";"";"";"";"";"";"";"";"";"";"";"";"";"51Â°12'47.38";"4Â°24'49.96";"153152.351";"211468.05220000001";"4.4138767750000625";"51.213160537000078"
"218";"2009-12-01T00:00:00";"";"Sint-Catharinaplein";"";"ja";"urinoir";"stadseigendom";"niet betalend";"Sint-Bernardsesteenweg";"/";"2020";"Antwerpen";"SW";"";"nv";"man";"nee";"nvt";"nee";"";"";"";"";"";"";"";"";"";"";"";"";"";"";"";"51Â°11'33.13";"4Â°22'49.35";"150816.87059999999";"209171.15609999999";"4.3804481520000422";"51.19252337100005"
"228";"2009-12-01T00:00:00";"";"Permeke";"";"ja";"urinoir";"stadseigendom";"niet betalend";"De Coninckplein";"/";"2060";"Antwerpen";"SW";"";"nv";"man";"nee";"nvt";"nee";"";"";"";"";"";"";"";"";"";"";"";"";"";"";"";"51Â°13'17.08";"4Â°25'13.30";"153604.96609999999";"212385.96410000001";"4.4203634700000407";"51.221408383000039"
"216";"2009-12-01T00:00:00";"";"Park: Harmoniepark";"";"ja";"urinoir";"stadseigendom";"niet betalend";"Mechelsesteenweg";"/";"2018";"Antwerpen";"SW";"";"nv";"man";"nee";"nvt";"nee";"";"";"";"";"";"";"";"";"";"";"";"";"";"";"";"51Â°12'8.28";"4Â°24'42.32";"153004.5661";"210273.53719999999";"4.4117516440000486";"51.202424519000033"
"231";"2009-12-01T00:00:00";"";"Sint-Jansplein";"";"ja";"urinoir";"stadseigendom";"niet betalend";"Sint-Jansplein";"/";"2060";"Antwerpen";"SW";"";"nv";"man";"nee";"nvt";"nee";"";"";"";"";"";"";"";"";"";"";"";"";"";"";"";"51Â°13'33.59";"4Â°25'4.13";"153427.30569999001";"212908.52409999";"4.4178256090000332";"51.226106464000054"
"204";"2009-12-01T00:00:00";"";"Borzestraat";"tegen Handelsbeurs";"ja";"urinoir";"stadseigendom";"niet betalend";"Borzestraat";"/";"2000";"Antwerpen";"SW";"";"nv";"man";"nee";"nvt";"nee";"";"";"";"";"";"";"";"";"";"";"";"";"";"";"";"51Â°13'10.57";"4Â°24'22.41";"152615.70970000001";"212186.25699999";"4.4062023050000221";"51.219618822000029"
"205";"2009-12-01T00:00:00";"";"Kathedraal";"tegen kathedraal";"ja";"urinoir";"geen stadseigendom";"niet betalend";"Groenplaats";"/";"2000";"Antwerpen";"SW";"";"nv";"man";"nee";"nvt";"nee";"";"";"";"";"";"";"";"";"";"";"";"";"";"";"";"51Â°13'11.65";"4Â°24'5.21";"152276.571";"212218.6477";"4.4013484570000401";"51.219911453000066"
"232";"2009-12-01T00:00:00";"";"Lange stuivenbergstraat";"";"ja";"urinoir";"stadseigendom";"niet betalend";"Lange Stuivenbergstraat";"/";"2060";"Antwerpen";"SW";"";"nv";"man";"nee";"nvt";"nee";"";"";"";"";"";"";"";"";"";"";"";"";"";"";"";"51Â°13'27.26";"4Â°25'55.32";"154402.4596";"212722.65789999999";"4.4317825260000632";"51.22442906100008"
"233";"2009-12-01T00:00:00";"";"Ziekenhuis Stuivenberg";"";"ja";"urinoir";"stadseigendom";"niet betalend";"Pothoekstraat";"/";"2060";"Antwerpen";"SW";"";"nv";"man";"nee";"nvt";"nee";"";"";"";"";"";"";"";"";"";"";"";"";"";"";"";"51Â°13'23.50";"4Â°26'11.88";"154735.05780000001";"212572.9578";"4.4365414680000299";"51.22308081400007"
"240";"2010-03-01T00:00:00";"";"Betogingstraat";"tegen kerk";"ja";"urinoir";"geen stadseigendom";"niet betalend";"Betogingstraat";"/";"2140";"Borgerhout";"SW";"";"nv";"man";"nee";"nvt";"nee";"";"";"";"";"";"";"";"";"";"";"";"";"";"";"";"51Â°12'39.93";"4Â°26'2.58";"154553.20019999001";"211227.41479998999";"4.4339211300000443";"51.210988017000034"
"256";"2010-03-01T00:00:00";"";"Berkenveldplein";"urinoir naast clublokaal Rollerskating";"ja";"urinoir";"stadseigendom";"niet betalend";"Berkenveldplein";"/";"2610";"Wilrijk";"SW";"";"nv";"man";"nee";"nvt";"nee";"";"";"";"";"";"";"";"";"";"";"";"";"";"";"";"51Â°10'3.77";"4Â°23'2.21";"151064.35759999999";"206413.42660000001";"4.3839795840000306";"51.167734971000073"
"217";"2009-12-01T00:00:00";"";"Park: Albertpark";"tegen gebouw groenvoorziening";"ja";"urinoir";"stadseigendom";"niet betalend";"Koningin Elisabethlei";"/";"2000";"Antwerpen";"SW";"";"nv";"man";"nee";"nvt";"nee";"";"";"";"";"";"";"";"";"";"";"";"";"";"";"";"51Â°12'0.03";"4Â°24'43.09";"153032.35750000001";"209998.33839999";"4.4121469040000534";"51.199950755000032"
"222";"2010-08-27T00:00:00";"";"Sportcentrum K.Astrid";"urinoirs aan toiletten";"ja";"urinoir";"stadseigendom";"niet betalend";"Middelheimlaan";"50-51";"2020";"Antwerpen";"CS";"";"nv";"man";"nee";"nvt";"nee";"1899-12-30T08:00:00";"1899-12-30T16:00:00";"1899-12-30T08:00:00";"1899-12-30T16:00:00";"1899-12-30T08:00:00";"1899-12-30T16:00:00";"1899-12-30T08:00:00";"1899-12-30T16:00:00";"1899-12-30T08:00:00";"1899-12-30T16:00:00";"1899-12-30T09:00:00";"1899-12-30T17:30:00";"1899-12-30T09:00:00";"1899-12-30T17:30:00";"van 1/4 tot 31/08 op di en do tot 20:00, zie http://www.antwerpen.be/eCache/ABE/2/789.Y29udGV4dD04MDM0MDY3.html";"";"";"153101.1955";"208261.87559998999";"4.4131164890000605";"51.184342190000052"
"253";"2010-03-01T00:00:00";"";"Park: Merksem";"";"ja";"urinoir";"stadseigendom";"niet betalend";"Speelpleinstraat";"/";"2170";"Merksem";"SW";"";"nv";"man";"nee";"nvt";"nee";"1899-12-30T08:30:00";"1899-12-30T21:30:00";"1899-12-30T08:30:00";"1899-12-30T21:30:00";"1899-12-30T08:30:00";"1899-12-30T21:30:00";"1899-12-30T08:30:00";"1899-12-30T21:30:00";"1899-12-30T08:30:00";"1899-12-30T21:30:00";"1899-12-30T08:30:00";"1899-12-30T18:00:00";"1899-12-30T08:30:00";"1899-12-30T18:00:00";"openingsuren Park van Merksem";"51Â°14'56.62";"4Â°26'49.98";"155421.47270000001";"215676.23310000001";"4.4464140080000334";"51.25096794500007"
"234";"2009-09-01T00:00:00";"";"Trapstraat";"";"ja";"urinoir";"stadseigendom";"niet betalend";"Trapstraat";"/";"2060";"Antwerpen";"SW";"";"nv";"man";"nee";"nvt";"nee";"";"";"";"";"";"";"";"";"";"";"";"";"";"";"";"";"";"153721.58479999";"213047.53869998999";"4.4220396450000408";"51.227354111000068"
"235";"2009-12-01T00:00:00";"";"Atheneum";"";"ja";"urinoir";"stadseigendom";"niet betalend";"Osystraat";"/";"2000";"Antwerpen";"SW";"";"nv";"man";"nee";"nvt";"nee";"";"";"";"";"";"";"";"";"";"";"";"";"";"";"";"51Â°13'12.20";"4Â°25'4.26";"153423.82139999999";"212238.02849999";"4.4177692300000331";"51.220079811000062"
"206";"2009-09-01T00:00:00";"";"Vingerlingstraat";"";"ja";"urinoir";"stadseigendom";"niet betalend";"Vingerlingstraat";"/";"2000";"Antwerpen";"SW";"";"nv";"man";"nee";"nvt";"nee";"";"";"";"";"";"";"";"";"";"";"";"";"";"";"";"51Â°13'35.36";"4Â°24'12.24";"152420.77770000001";"212952.28269999";"4.4034175700000446";"51.226505040000063"
"207";"2009-09-01T00:00:00";"";"Verversrui 1";"";"ja";"urinoir";"stadseigendom";"niet betalend";"Verversrui";"/";"2000";"Antwerpen";"SW";"";"nv";"man";"nee";"nvt";"nee";"";"";"";"";"";"";"";"";"";"";"";"";"";"";"";"51Â°13'32.80";" 4Â°24'15.08";"152408.98279998999";"212907.41369998999";"4.4032484160000536";"51.226101792000065"
"208";"2009-09-01T00:00:00";"";"Verversrui 2";"";"ja";"urinoir";"stadseigendom";"niet betalend";"Verversrui";"/";"2000";"Antwerpen";"SW";"";"nv";"man";"nee";"nvt";"nee";"";"";"";"";"";"";"";"";"";"";"";"";"";"";"";"51Â°13'33.91";"4Â°24'11.76";"152479.42099998999";"212872.4399";"4.4042564840000296";"51.225787125000068"
"209";"2009-12-01T00:00:00";"";"busparking aan de kaaien";"";"ja";"urinoir";"stadseigendom";"niet betalend";"Plantinkaai";"/";"2000";"Antwerpen";"SW";"";"nv";"man";"nee";"nvt";"nee";"";"";"";"";"";"";"";"";"";"";"";"";"";"";"";"51Â°13'7.78";"4Â°23'41.71";"151842.63849998999";"212091.71660000001";"4.3951369080000404";"51.21877216200005"
"238";"2010-03-01T00:00:00";"";"Begraafplaats Berchem";"bezoekerssanitair";"ja";"urinoir";"stadseigendom";"niet betalend";"FloraliÃ«nlaan";"288";"2600";"Berchem";"SB";"0479 88 05 13";"nv";"man";"nee";"nvt";"nee";"1899-12-30T08:00:00";"1899-12-30T17:30:00";"1899-12-30T08:00:00";"1899-12-30T17:30:00";"1899-12-30T08:00:00";"1899-12-30T17:30:00";"1899-12-30T08:00:00";"1899-12-30T17:30:00";"1899-12-30T08:00:00";"1899-12-30T17:30:00";"1899-12-30T08:00:00";"1899-12-30T17:30:00";"1899-12-30T08:00:00";"1899-12-30T17:30:00";"zomertijd tot 20:00";"";"";"153834.84809998999";"208158.09589999";"4.4236081250000439";"51.183404844000052"
"303";"2010-08-01T00:00:00";"";"Elzenveld plantentuin";"";"nee";"urinoir";"stadseigendom";"niet betalend";"Leopoldstraat";"24";"2000";"Antwerpen";"SW";"";"nv";"man";"nee";"nvt";"nee";"1899-12-30T07:30:00";"1899-12-30T22:30:00";"1899-12-30T07:30:00";"1899-12-30T22:30:00";"1899-12-30T07:30:00";"1899-12-30T22:30:00";"1899-12-30T07:30:00";"1899-12-30T22:30:00";"1899-12-30T07:30:00";"1899-12-30T22:30:00";"1899-12-30T07:30:00";"1899-12-30T22:30:00";"1899-12-30T07:30:00";"1899-12-30T22:30:00";"openingsuren plantentuin";"51Â°12'51.39";"4Â°24'21.91";"152614.52780000001";"211584.06789999001";"4.4061808960000235";"51.214206105000073"
"301";"2010-06-01T00:00:00";"";"Nassaubrug";"";"ja";"urinoir";"stadseigendom";"niet betalend";"Nassaubrug";"/";"2000";"Antwerpen";"SW";"";"nv";"man";"nee";"nvt";"nee";"";"";"";"";"";"";"";"";"";"";"";"";"";"";"";"51Â°13'45.17";"4Â°24'20.28";"152571.7469";"213256.4362";"4.4055809310000313";"51.229238208000027"
"311";"2011-11-09T00:00:00";"";"Lillo";"tegen gebouw";"nee";"urinoir";"stadseigendom";"niet betalend";"Havenmarkt";"/";"2040";"Bezali";"SW";"";"nv";"man";"nee";"nvt";"nee";"";"";"";"";"";"";"";"";"";"";"";"";"";"";"";"51Â°18'16,61";"4Â°17'25,11";"144535.08069999999";"221642.89379999999";"4.2904045620000488";"51.304598703000067"
"309";"2010-09-01T00:00:00";"";"AC Borgerhout";"Gelijkvloers";"nee";"toilet";"stadseigendom";"niet betalend";"Moorkensplein";"19";"2140";"Borgerhout";"DL";"";"OK";"man/vrouw";"nee";"nvt";"nee";"1899-12-30T09:00:00";"1899-12-30T15:00:00";"1899-12-30T09:00:00";"1899-12-30T15:00:00";"1899-12-30T09:00:00";"1899-12-30T15:00:00";"1899-12-30T09:00:00";"1899-12-30T19:00:00";"1899-12-30T09:00:00";"1899-12-30T15:00:00";"";"";"";"";"gesloten tussen 15:00 en 17:00 / uitgezonderd juli, augustus en kerstvakantie";"";"";"154579.69649999999";"211462.79889999999";"4.4343033300000343";"51.213103535000073"
"316";"2010-12-07T00:00:00";"";"Sporthal Linkeroever";"";"nee";"toilet";"stadseigendom";"niet betalend";"Blancefloerlaan";"183";"2050";"Antwerpen";"CS";"";"";"man/vrouw";"ja";"ja";"nee";"1899-12-30T08:00:00";"1899-12-30T23:00:00";"1899-12-30T08:00:00";"1899-12-30T23:00:00";"1899-12-30T08:00:00";"1899-12-30T23:00:00";"1899-12-30T08:00:00";"1899-12-30T23:00:00";"1899-12-30T08:00:00";"1899-12-30T23:00:00";"1899-12-30T08:00:00";"1899-12-30T23:00:00";"1899-12-30T08:00:00";"1899-12-30T23:00:00";"";"";"";"149979.24249999999";"212140.67259999999";"4.3684667920000493";"51.219215430000077"
"317";"2010-12-21T00:00:00";"";"Sporthal Kielpark";"";"nee";"toilet";"stadseigendom";"niet betalend";"Emiel Vloorsstraat";"2";"2020";"Antwerpen";"CS";"";"";"man/vrouw";"ja";"nee";"nee";"1899-12-30T08:00:00";"1899-12-30T23:00:00";"1899-12-30T08:00:00";"1899-12-30T23:00:00";"1899-12-30T08:00:00";"1899-12-30T23:00:00";"1899-12-30T08:00:00";"1899-12-30T23:00:00";"1899-12-30T08:00:00";"1899-12-30T23:00:00";"1899-12-30T08:00:00";"1899-12-30T23:00:00";"1899-12-30T08:00:00";"1899-12-30T23:00:00";"";"";"";"150699.52129999999";"209386.01680000001";"4.3787699860000657";"51.194454817000064"
"318";"2010-12-07T00:00:00";"";"Sporthal 't Rooi";"";"nee";"toilet";"stadseigendom";"niet betalend";"Berchemstadionstraat";"73";"2600";"Berchem";"CS";"";"";"man/vrouw";"ja";"nee";"ja";"1899-12-30T08:00:00";"1899-12-30T00:00:00";"1899-12-30T08:00:00";"1899-12-30T00:00:00";"1899-12-30T08:00:00";"1899-12-30T00:00:00";"1899-12-30T08:00:00";"1899-12-30T00:00:00";"1899-12-30T08:00:00";"1899-12-30T00:00:00";"1899-12-30T08:00:00";"1899-12-30T00:00:00";"1899-12-30T08:00:00";"1899-12-30T00:00:00";"";"";"";"154849.69949999999";"208675.85860000001";"4.4381293640000763";"51.188050974000078"
"320";"2010-12-22T00:00:00";"";"Sporthal Sorghvliedt";"";"nee";"toilet";"stadseigendom";"niet betalend";"Krijgsbaan";"20";"2660";"Hoboken";"CS";"";"";"man/vrouw";"ja";"nee";"nee";"1899-12-30T08:30:00";"1899-12-30T23:00:00";"1899-12-30T08:30:00";"1899-12-30T23:00:00";"1899-12-30T08:30:00";"1899-12-30T23:00:00";"1899-12-30T08:30:00";"1899-12-30T23:00:00";"1899-12-30T08:30:00";"1899-12-30T23:00:00";"1899-12-30T08:30:00";"1899-12-30T23:00:00";"1899-12-30T08:30:00";"1899-12-30T23:00:00";"";"";"";"148978.39999999001";"206336.19589999999";"4.3541568530000632";"51.16704117900008"
"322";"2010-12-15T00:00:00";"";"OC Merksemdok";"";"nee";"toilet";"stadseigendom";"niet betalend";"Emiel Lemineurstraat";"72-74";"2170";"Merksem";"SL";"";"";"man/vrouw";"ja";"to";"nee";"1899-12-30T18:00:00";"1899-12-30T23:00:00";"1899-12-30T18:00:00";"1899-12-30T23:00:00";"1899-12-30T18:00:00";"1899-12-30T23:00:00";"1899-12-30T18:00:00";"1899-12-30T23:00:00";"1899-12-30T18:00:00";"1899-12-30T23:00:00";"";"";"";"";"";"";"";"155197.95300000001";"214183.5024";"4.4431908400000566";"51.237552912000069"
"323";"2010-12-20T00:00:00";"";"Zwembad Ieperman";"";"nee";"toilet";"stadseigendom";"niet betalend";"Doornstraat";"3B";"2610";"Wilrijk";"CS";"";"";"man/vrouw";"ja";"to";"ja";"1899-12-30T08:00:00";"1899-12-30T22:00:00";"1899-12-30T08:00:00";"1899-12-30T22:00:00";"1899-12-30T08:00:00";"1899-12-30T22:00:00";"1899-12-30T08:00:00";"1899-12-30T22:00:00";"1899-12-30T08:00:00";"1899-12-30T22:00:00";"1899-12-30T08:00:00";"1899-12-30T18:00:00";"1899-12-30T08:00:00";"1899-12-30T13:00:00";"";"";"";"151835.41849998999";"206473.99429999999";"4.3950037590000761";"51.168277334000038"
"324";"2010-12-20T00:00:00";"";"Sporthal De Bist";"";"nee";"toilet";"stadseigendom";"niet betalend";"Koningin Elisabethstraat";"7-9";"2610";"Wilrijk";"CS";"";"";"man/vrouw";"nee";"nvt";"nee";"1899-12-30T08:00:00";"1899-12-30T23:00:00";"1899-12-30T08:00:00";"1899-12-30T23:00:00";"1899-12-30T08:00:00";"1899-12-30T23:00:00";"1899-12-30T08:00:00";"1899-12-30T23:00:00";"1899-12-30T08:00:00";"1899-12-30T23:00:00";"1899-12-30T08:00:00";"1899-12-30T23:00:00";"1899-12-30T08:00:00";"1899-12-30T23:00:00";"";"";"";"151580.45549999";"206725.28210000001";"4.3913596680000637";"51.170536846000061"
"326";"2010-12-23T00:00:00";"";"Sporthal Ter Beke";"";"nee";"toilet";"stadseigendom";"niet betalend";"Moerelei";"99";"2610";"Wilrijk";"CS";"";"";"man/vrouw";"ja";"ja";"nee";"1899-12-30T08:00:00";"1899-12-30T22:00:00";"1899-12-30T08:00:00";"1899-12-30T22:00:00";"1899-12-30T08:00:00";"1899-12-30T22:00:00";"1899-12-30T08:00:00";"1899-12-30T22:00:00";"1899-12-30T08:00:00";"1899-12-30T22:00:00";"1899-12-30T08:00:00";"1899-12-30T18:00:00";"1899-12-30T08:00:00";"1899-12-30T18:00:00";"";"";"";"150522.61900000001";"205736.38649999999";"4.3762332070000411";"51.161650163000047"
"327";"2012-01-27T00:00:00";"";"Legerstraat - Fort VII";"";"ja";"toilet";"geen stadseigendom";"niet betalend";"Legerstraat";"60";"2610";"Wilrijk";"SW";"";"";"man/vrouw";"nee";"nvt";"nee";"1899-12-30T14:00:00";"1899-12-30T18:30:00";"";"";"1899-12-30T14:00:00";"1899-12-30T18:30:00";"1899-12-30T14:00:00";"1899-12-30T18:30:00";"1899-12-30T14:00:00";"1899-12-30T18:30:00";"1899-12-30T10:00:00";"1899-12-30T22:00:00";"1899-12-30T10:00:00";"1899-12-30T22:00:00";"zie http://users.telenet.be/lijnvissersclubDeMeyvis/pagina%209.html";"";"";"150804.8175";"206215.82709999999";"4.380268453000042";"51.165959292000082"
"328";"2012-01-27T00:00:00";"";"Legerstraat - Fort VII";"";"ja";"urinoir";"geen stadseigendom";"niet betalend";"Legerstraat";"60";"2610";"Wilrijk";"SW";"";"nv";"man";"nee";"nvt";"nee";"1899-12-30T14:00:00";"1899-12-30T18:30:00";"";"";"1899-12-30T14:00:00";"1899-12-30T18:30:00";"1899-12-30T14:00:00";"1899-12-30T18:30:00";"1899-12-30T14:00:00";"1899-12-30T18:30:00";"1899-12-30T10:00:00";"1899-12-30T22:00:00";"1899-12-30T10:00:00";"1899-12-30T22:00:00";"zie http://users.telenet.be/lijnvissersclubDeMeyvis/pagina%209.html";"";"";"150804.8175";"206215.82709999999";"4.380268453000042";"51.165959292000082"
"46";"2010-03-01T00:00:00";"";"Districtshuis Ekeren - Poortgebouw";"";"nee";"toilet";"stadseigendom";"niet betalend";"Veltwijcklaan";"27";"2180";"Ekeren";"DL";"";"OK";"man/vrouw";"ja";"ja";"nee";"1899-12-30T09:00:00";"1899-12-30T15:00:00";"1899-12-30T09:00:00";"1899-12-30T15:00:00";"1899-12-30T09:00:00";"1899-12-30T15:00:00";"1899-12-30T09:00:00";"1899-12-30T19:00:00";"1899-12-30T09:00:00";"1899-12-30T15:00:00";"";"";"";"";"gesloten tussen 15:00 en 17:00. weekend tijdens activiteiten";"";"";"153843.43159999";"218563.2439";"4.4238438600000336";"51.276930013000026"
"41";"2010-08-09T00:00:00";"";"Zwembad Arena";"";"nee";"toilet";"stadseigendom";"niet betalend";"GabriÃ«l Vervoortstraat";"8";"2100";"Deurne";"CS";"";"OK";"man/vrouw";"nee";"nvt";"nee";"1899-12-30T08:30:00";"1899-12-30T21:30:00";"1899-12-30T08:30:00";"1899-12-30T21:30:00";"1899-12-30T08:30:00";"1899-12-30T21:30:00";"1899-12-30T08:30:00";"1899-12-30T21:30:00";"1899-12-30T08:30:00";"1899-12-30T21:30:00";"1899-12-30T08:30:00";"1899-12-30T18:00:00";"1899-12-30T08:30:00";"1899-12-30T18:00:00";"of via cafÃ© indien open.";"";"";"156332.62619998999";"210748.33609999999";"4.4593766660000256";"51.206664794000062"
"329";"2012-04-02T00:00:00";"";"Park: Boekenbergpark (zwemvijver)";"";"nee";"toilet";"stadseigendom";"niet betalend";"Van Baurscheitlaan";"/";"2100";"Deurne";"CS";"";"";"man/vrouw";"nee";"nvt";"nee";"1899-12-30T12:00:00";"1899-12-30T19:00:00";"1899-12-30T12:00:00";"1899-12-30T19:00:00";"1899-12-30T12:00:00";"1899-12-30T19:00:00";"1899-12-30T12:00:00";"1899-12-30T19:00:00";"1899-12-30T12:00:00";"1899-12-30T19:00:00";"1899-12-30T12:00:00";"1899-12-30T19:00:00";"1899-12-30T12:00:00";"1899-12-30T19:00:00";"enkel van half mei tot half september";"";"";"156612.35440000001";"209723.28039999999";"4.4633603330000255";"51.197447947000057"
